<?xml version="1.0" encoding="UTF-8"?>
<gpx creator="StravaGPX" version="1.1" xmlns="http://www.topografix.com/GPX/1/1" xmlns:xsi="http://www.w3.org/2001/XMLSchema-instance" xsi:schemaLocation="http://www.topografix.com/GPX/1/1 http://www.topografix.com/GPX/1/1/gpx.xsd">
 <metadata>
  <time>2026-08-13T12:26:15Z</time>
 </metadata>
 <trk>
  <name>윤예진_완만한내리막_1회차</name>
  <type>walking</type>
  <trkseg>
   <trkpt lat="37.2127410" lon="127.1082910">
    <ele>72.9</ele>
    <time>2026-08-13T12:26:15Z</time>
   </trkpt>
   <trkpt lat="37.2127440" lon="127.1082820">
    <ele>72.8</ele>
    <time>2026-08-13T12:26:16Z</time>
   </trkpt>
   <trkpt lat="37.2127390" lon="127.1082760">
    <ele>72.8</ele>
    <time>2026-08-13T12:26:17Z</time>
   </trkpt>
   <trkpt lat="37.2127380" lon="127.1082720">
    <ele>72.8</ele>
    <time>2026-08-13T12:26:18Z</time>
   </trkpt>
   <trkpt lat="37.2127340" lon="127.1082640">
    <ele>72.8</ele>
    <time>2026-08-13T12:26:19Z</time>
   </trkpt>
   <trkpt lat="37.2127300" lon="127.1082570">
    <ele>72.7</ele>
    <time>2026-08-13T12:26:20Z</time>
   </trkpt>
   <trkpt lat="37.2127300" lon="127.1082420">
    <ele>72.7</ele>
    <time>2026-08-13T12:26:21Z</time>
   </trkpt>
   <trkpt lat="37.2127160" lon="127.1082310">
    <ele>72.6</ele>
    <time>2026-08-13T12:26:22Z</time>
   </trkpt>
   <trkpt lat="37.2127100" lon="127.1082180">
    <ele>72.6</ele>
    <time>2026-08-13T12:26:23Z</time>
   </trkpt>
   <trkpt lat="37.2127060" lon="127.1082060">
    <ele>72.6</ele>
    <time>2026-08-13T12:26:24Z</time>
   </trkpt>
   <trkpt lat="37.2127040" lon="127.1081850">
    <ele>72.5</ele>
    <time>2026-08-13T12:26:25Z</time>
   </trkpt>
   <trkpt lat="37.2127060" lon="127.1081740">
    <ele>72.5</ele>
    <time>2026-08-13T12:26:26Z</time>
   </trkpt>
   <trkpt lat="37.2127060" lon="127.1081730">
    <ele>72.5</ele>
    <time>2026-08-13T12:26:27Z</time>
   </trkpt>
   <trkpt lat="37.2126920" lon="127.1081650">
    <ele>72.4</ele>
    <time>2026-08-13T12:26:28Z</time>
   </trkpt>
   <trkpt lat="37.2126710" lon="127.1081480">
    <ele>72.3</ele>
    <time>2026-08-13T12:26:29Z</time>
   </trkpt>
   <trkpt lat="37.2126650" lon="127.1081390">
    <ele>72.3</ele>
    <time>2026-08-13T12:26:30Z</time>
   </trkpt>
   <trkpt lat="37.2126610" lon="127.1081200">
    <ele>72.2</ele>
    <time>2026-08-13T12:26:31Z</time>
   </trkpt>
   <trkpt lat="37.2126520" lon="127.1081090">
    <ele>72.2</ele>
    <time>2026-08-13T12:26:32Z</time>
   </trkpt>
   <trkpt lat="37.2126440" lon="127.1081030">
    <ele>72.1</ele>
    <time>2026-08-13T12:26:33Z</time>
   </trkpt>
   <trkpt lat="37.2126330" lon="127.1080870">
    <ele>72.1</ele>
    <time>2026-08-13T12:26:34Z</time>
   </trkpt>
   <trkpt lat="37.2126220" lon="127.1080690">
    <ele>72.0</ele>
    <time>2026-08-13T12:26:35Z</time>
   </trkpt>
   <trkpt lat="37.2126210" lon="127.1080520">
    <ele>71.9</ele>
    <time>2026-08-13T12:26:36Z</time>
   </trkpt>
   <trkpt lat="37.2126060" lon="127.1080440">
    <ele>71.9</ele>
    <time>2026-08-13T12:26:37Z</time>
   </trkpt>
   <trkpt lat="37.2126020" lon="127.1080340">
    <ele>71.8</ele>
    <time>2026-08-13T12:26:38Z</time>
   </trkpt>
   <trkpt lat="37.2125980" lon="127.1080190">
    <ele>71.8</ele>
    <time>2026-08-13T12:26:39Z</time>
   </trkpt>
   <trkpt lat="37.2125920" lon="127.1080050">
    <ele>71.7</ele>
    <time>2026-08-13T12:26:40Z</time>
   </trkpt>
   <trkpt lat="37.2125800" lon="127.1079920">
    <ele>71.7</ele>
    <time>2026-08-13T12:26:41Z</time>
   </trkpt>
   <trkpt lat="37.2125790" lon="127.1079800">
    <ele>71.6</ele>
    <time>2026-08-13T12:26:42Z</time>
   </trkpt>
   <trkpt lat="37.2125790" lon="127.1079670">
    <ele>71.6</ele>
    <time>2026-08-13T12:26:43Z</time>
   </trkpt>
   <trkpt lat="37.2125670" lon="127.1079530">
    <ele>71.5</ele>
    <time>2026-08-13T12:26:44Z</time>
   </trkpt>
   <trkpt lat="37.2125630" lon="127.1079380">
    <ele>71.5</ele>
    <time>2026-08-13T12:26:45Z</time>
   </trkpt>
   <trkpt lat="37.2125590" lon="127.1079350">
    <ele>71.4</ele>
    <time>2026-08-13T12:26:46Z</time>
   </trkpt>
   <trkpt lat="37.2125480" lon="127.1079250">
    <ele>71.4</ele>
    <time>2026-08-13T12:26:47Z</time>
   </trkpt>
   <trkpt lat="37.2125340" lon="127.1079090">
    <ele>71.3</ele>
    <time>2026-08-13T12:26:48Z</time>
   </trkpt>
   <trkpt lat="37.2125190" lon="127.1078950">
    <ele>71.2</ele>
    <time>2026-08-13T12:26:49Z</time>
   </trkpt>
   <trkpt lat="37.2125210" lon="127.1078760">
    <ele>71.1</ele>
    <time>2026-08-13T12:26:50Z</time>
   </trkpt>
   <trkpt lat="37.2125180" lon="127.1078620">
    <ele>71.1</ele>
    <time>2026-08-13T12:26:51Z</time>
   </trkpt>
   <trkpt lat="37.2125120" lon="127.1078560">
    <ele>71.1</ele>
    <time>2026-08-13T12:26:52Z</time>
   </trkpt>
   <trkpt lat="37.2124920" lon="127.1078480">
    <ele>71.0</ele>
    <time>2026-08-13T12:26:53Z</time>
   </trkpt>
   <trkpt lat="37.2124830" lon="127.1078410">
    <ele>70.9</ele>
    <time>2026-08-13T12:26:54Z</time>
   </trkpt>
   <trkpt lat="37.2124790" lon="127.1078300">
    <ele>70.9</ele>
    <time>2026-08-13T12:26:55Z</time>
   </trkpt>
   <trkpt lat="37.2124800" lon="127.1078210">
    <ele>70.8</ele>
    <time>2026-08-13T12:26:56Z</time>
   </trkpt>
   <trkpt lat="37.2124720" lon="127.1078040">
    <ele>70.8</ele>
    <time>2026-08-13T12:26:57Z</time>
   </trkpt>
   <trkpt lat="37.2124630" lon="127.1077940">
    <ele>70.7</ele>
    <time>2026-08-13T12:26:58Z</time>
   </trkpt>
   <trkpt lat="37.2124510" lon="127.1077870">
    <ele>70.6</ele>
    <time>2026-08-13T12:26:59Z</time>
   </trkpt>
   <trkpt lat="37.2124490" lon="127.1077740">
    <ele>70.6</ele>
    <time>2026-08-13T12:27:00Z</time>
   </trkpt>
   <trkpt lat="37.2124390" lon="127.1077590">
    <ele>70.5</ele>
    <time>2026-08-13T12:27:01Z</time>
   </trkpt>
   <trkpt lat="37.2124240" lon="127.1077510">
    <ele>70.5</ele>
    <time>2026-08-13T12:27:02Z</time>
   </trkpt>
   <trkpt lat="37.2124160" lon="127.1077390">
    <ele>70.4</ele>
    <time>2026-08-13T12:27:03Z</time>
   </trkpt>
   <trkpt lat="37.2124110" lon="127.1077280">
    <ele>70.3</ele>
    <time>2026-08-13T12:27:04Z</time>
   </trkpt>
   <trkpt lat="37.2124020" lon="127.1077150">
    <ele>70.3</ele>
    <time>2026-08-13T12:27:05Z</time>
   </trkpt>
   <trkpt lat="37.2124010" lon="127.1077050">
    <ele>70.2</ele>
    <time>2026-08-13T12:27:07Z</time>
   </trkpt>
   <trkpt lat="37.2123980" lon="127.1076950">
    <ele>70.2</ele>
    <time>2026-08-13T12:27:08Z</time>
   </trkpt>
   <trkpt lat="37.2123920" lon="127.1076800">
    <ele>70.1</ele>
    <time>2026-08-13T12:27:09Z</time>
   </trkpt>
   <trkpt lat="37.2123810" lon="127.1076690">
    <ele>70.1</ele>
    <time>2026-08-13T12:27:10Z</time>
   </trkpt>
   <trkpt lat="37.2123730" lon="127.1076550">
    <ele>70.0</ele>
    <time>2026-08-13T12:27:11Z</time>
   </trkpt>
   <trkpt lat="37.2123720" lon="127.1076510">
    <ele>70.0</ele>
    <time>2026-08-13T12:27:12Z</time>
   </trkpt>
   <trkpt lat="37.2123670" lon="127.1076360">
    <ele>69.9</ele>
    <time>2026-08-13T12:27:13Z</time>
   </trkpt>
   <trkpt lat="37.2123470" lon="127.1076210">
    <ele>69.8</ele>
    <time>2026-08-13T12:27:14Z</time>
   </trkpt>
   <trkpt lat="37.2123410" lon="127.1076130">
    <ele>69.8</ele>
    <time>2026-08-13T12:27:15Z</time>
   </trkpt>
   <trkpt lat="37.2123340" lon="127.1076010">
    <ele>69.7</ele>
    <time>2026-08-13T12:27:16Z</time>
   </trkpt>
   <trkpt lat="37.2123260" lon="127.1075930">
    <ele>69.7</ele>
    <time>2026-08-13T12:27:17Z</time>
   </trkpt>
   <trkpt lat="37.2123270" lon="127.1075850">
    <ele>69.7</ele>
    <time>2026-08-13T12:27:18Z</time>
   </trkpt>
   <trkpt lat="37.2123290" lon="127.1075760">
    <ele>69.6</ele>
    <time>2026-08-13T12:27:19Z</time>
   </trkpt>
   <trkpt lat="37.2123090" lon="127.1075670">
    <ele>69.5</ele>
    <time>2026-08-13T12:27:20Z</time>
   </trkpt>
   <trkpt lat="37.2122970" lon="127.1075550">
    <ele>69.5</ele>
    <time>2026-08-13T12:27:21Z</time>
   </trkpt>
   <trkpt lat="37.2122890" lon="127.1075440">
    <ele>69.4</ele>
    <time>2026-08-13T12:27:22Z</time>
   </trkpt>
   <trkpt lat="37.2122760" lon="127.1075350">
    <ele>69.4</ele>
    <time>2026-08-13T12:27:23Z</time>
   </trkpt>
   <trkpt lat="37.2122660" lon="127.1075210">
    <ele>69.3</ele>
    <time>2026-08-13T12:27:24Z</time>
   </trkpt>
   <trkpt lat="37.2122540" lon="127.1075110">
    <ele>69.2</ele>
    <time>2026-08-13T12:27:25Z</time>
   </trkpt>
   <trkpt lat="37.2122460" lon="127.1074990">
    <ele>69.2</ele>
    <time>2026-08-13T12:27:26Z</time>
   </trkpt>
   <trkpt lat="37.2122390" lon="127.1074880">
    <ele>69.1</ele>
    <time>2026-08-13T12:27:27Z</time>
   </trkpt>
   <trkpt lat="37.2122290" lon="127.1074740">
    <ele>69.1</ele>
    <time>2026-08-13T12:27:28Z</time>
   </trkpt>
   <trkpt lat="37.2122240" lon="127.1074630">
    <ele>69.0</ele>
    <time>2026-08-13T12:27:29Z</time>
   </trkpt>
   <trkpt lat="37.2122170" lon="127.1074500">
    <ele>69.0</ele>
    <time>2026-08-13T12:27:30Z</time>
   </trkpt>
   <trkpt lat="37.2122030" lon="127.1074410">
    <ele>68.9</ele>
    <time>2026-08-13T12:27:31Z</time>
   </trkpt>
   <trkpt lat="37.2121830" lon="127.1074260">
    <ele>68.8</ele>
    <time>2026-08-13T12:27:32Z</time>
   </trkpt>
   <trkpt lat="37.2121810" lon="127.1074170">
    <ele>68.8</ele>
    <time>2026-08-13T12:27:33Z</time>
   </trkpt>
   <trkpt lat="37.2121740" lon="127.1074060">
    <ele>68.7</ele>
    <time>2026-08-13T12:27:34Z</time>
   </trkpt>
   <trkpt lat="37.2121640" lon="127.1073930">
    <ele>68.7</ele>
    <time>2026-08-13T12:27:35Z</time>
   </trkpt>
   <trkpt lat="37.2121610" lon="127.1073770">
    <ele>68.6</ele>
    <time>2026-08-13T12:27:36Z</time>
   </trkpt>
   <trkpt lat="37.2121510" lon="127.1073650">
    <ele>68.6</ele>
    <time>2026-08-13T12:27:37Z</time>
   </trkpt>
   <trkpt lat="37.2121370" lon="127.1073570">
    <ele>68.5</ele>
    <time>2026-08-13T12:27:38Z</time>
   </trkpt>
   <trkpt lat="37.2121220" lon="127.1073500">
    <ele>68.5</ele>
    <time>2026-08-13T12:27:39Z</time>
   </trkpt>
   <trkpt lat="37.2121130" lon="127.1073370">
    <ele>68.4</ele>
    <time>2026-08-13T12:27:40Z</time>
   </trkpt>
   <trkpt lat="37.2121060" lon="127.1073220">
    <ele>68.3</ele>
    <time>2026-08-13T12:27:41Z</time>
   </trkpt>
   <trkpt lat="37.2120990" lon="127.1073090">
    <ele>68.3</ele>
    <time>2026-08-13T12:27:42Z</time>
   </trkpt>
   <trkpt lat="37.2120820" lon="127.1072980">
    <ele>68.2</ele>
    <time>2026-08-13T12:27:43Z</time>
   </trkpt>
   <trkpt lat="37.2120740" lon="127.1072860">
    <ele>68.2</ele>
    <time>2026-08-13T12:27:44Z</time>
   </trkpt>
   <trkpt lat="37.2120620" lon="127.1072780">
    <ele>68.1</ele>
    <time>2026-08-13T12:27:45Z</time>
   </trkpt>
   <trkpt lat="37.2120530" lon="127.1072700">
    <ele>68.1</ele>
    <time>2026-08-13T12:27:46Z</time>
   </trkpt>
   <trkpt lat="37.2120460" lon="127.1072630">
    <ele>68.0</ele>
    <time>2026-08-13T12:27:47Z</time>
   </trkpt>
   <trkpt lat="37.2120390" lon="127.1072480">
    <ele>68.0</ele>
    <time>2026-08-13T12:27:48Z</time>
   </trkpt>
   <trkpt lat="37.2120300" lon="127.1072340">
    <ele>67.9</ele>
    <time>2026-08-13T12:27:49Z</time>
   </trkpt>
   <trkpt lat="37.2120260" lon="127.1072220">
    <ele>67.9</ele>
    <time>2026-08-13T12:27:50Z</time>
   </trkpt>
   <trkpt lat="37.2120160" lon="127.1072110">
    <ele>67.8</ele>
    <time>2026-08-13T12:27:51Z</time>
   </trkpt>
   <trkpt lat="37.2120070" lon="127.1071970">
    <ele>67.8</ele>
    <time>2026-08-13T12:27:52Z</time>
   </trkpt>
   <trkpt lat="37.2119960" lon="127.1071880">
    <ele>67.8</ele>
    <time>2026-08-13T12:27:53Z</time>
   </trkpt>
   <trkpt lat="37.2119930" lon="127.1071810">
    <ele>67.7</ele>
    <time>2026-08-13T12:27:54Z</time>
   </trkpt>
   <trkpt lat="37.2119840" lon="127.1071700">
    <ele>67.7</ele>
    <time>2026-08-13T12:27:55Z</time>
   </trkpt>
   <trkpt lat="37.2119710" lon="127.1071580">
    <ele>67.6</ele>
    <time>2026-08-13T12:27:56Z</time>
   </trkpt>
   <trkpt lat="37.2119600" lon="127.1071440">
    <ele>67.6</ele>
    <time>2026-08-13T12:27:57Z</time>
   </trkpt>
   <trkpt lat="37.2119520" lon="127.1071340">
    <ele>67.5</ele>
    <time>2026-08-13T12:27:58Z</time>
   </trkpt>
   <trkpt lat="37.2119440" lon="127.1071270">
    <ele>67.5</ele>
    <time>2026-08-13T12:27:59Z</time>
   </trkpt>
   <trkpt lat="37.2119360" lon="127.1071210">
    <ele>67.5</ele>
    <time>2026-08-13T12:28:00Z</time>
   </trkpt>
   <trkpt lat="37.2119230" lon="127.1071070">
    <ele>67.4</ele>
    <time>2026-08-13T12:28:01Z</time>
   </trkpt>
   <trkpt lat="37.2119140" lon="127.1070970">
    <ele>67.4</ele>
    <time>2026-08-13T12:28:02Z</time>
   </trkpt>
   <trkpt lat="37.2119040" lon="127.1070900">
    <ele>67.3</ele>
    <time>2026-08-13T12:28:03Z</time>
   </trkpt>
   <trkpt lat="37.2118930" lon="127.1070830">
    <ele>67.3</ele>
    <time>2026-08-13T12:28:04Z</time>
   </trkpt>
   <trkpt lat="37.2118890" lon="127.1070720">
    <ele>67.3</ele>
    <time>2026-08-13T12:28:05Z</time>
   </trkpt>
   <trkpt lat="37.2118810" lon="127.1070630">
    <ele>67.2</ele>
    <time>2026-08-13T12:28:06Z</time>
   </trkpt>
   <trkpt lat="37.2118700" lon="127.1070490">
    <ele>67.2</ele>
    <time>2026-08-13T12:28:07Z</time>
   </trkpt>
   <trkpt lat="37.2118610" lon="127.1070390">
    <ele>67.1</ele>
    <time>2026-08-13T12:28:08Z</time>
   </trkpt>
   <trkpt lat="37.2118520" lon="127.1070280">
    <ele>67.1</ele>
    <time>2026-08-13T12:28:09Z</time>
   </trkpt>
   <trkpt lat="37.2118460" lon="127.1070140">
    <ele>67.0</ele>
    <time>2026-08-13T12:28:10Z</time>
   </trkpt>
   <trkpt lat="37.2118360" lon="127.1070040">
    <ele>67.0</ele>
    <time>2026-08-13T12:28:11Z</time>
   </trkpt>
   <trkpt lat="37.2118320" lon="127.1069940">
    <ele>67.0</ele>
    <time>2026-08-13T12:28:12Z</time>
   </trkpt>
   <trkpt lat="37.2118170" lon="127.1069850">
    <ele>66.9</ele>
    <time>2026-08-13T12:28:13Z</time>
   </trkpt>
   <trkpt lat="37.2118120" lon="127.1069720">
    <ele>66.9</ele>
    <time>2026-08-13T12:28:14Z</time>
   </trkpt>
   <trkpt lat="37.2118040" lon="127.1069630">
    <ele>66.9</ele>
    <time>2026-08-13T12:28:15Z</time>
   </trkpt>
   <trkpt lat="37.2117960" lon="127.1069490">
    <ele>66.8</ele>
    <time>2026-08-13T12:28:16Z</time>
   </trkpt>
   <trkpt lat="37.2117880" lon="127.1069450">
    <ele>66.8</ele>
    <time>2026-08-13T12:28:17Z</time>
   </trkpt>
   <trkpt lat="37.2117750" lon="127.1069240">
    <ele>66.7</ele>
    <time>2026-08-13T12:28:18Z</time>
   </trkpt>
   <trkpt lat="37.2117720" lon="127.1069070">
    <ele>66.7</ele>
    <time>2026-08-13T12:28:19Z</time>
   </trkpt>
   <trkpt lat="37.2117610" lon="127.1068980">
    <ele>66.7</ele>
    <time>2026-08-13T12:28:20Z</time>
   </trkpt>
   <trkpt lat="37.2117550" lon="127.1068890">
    <ele>66.6</ele>
    <time>2026-08-13T12:28:21Z</time>
   </trkpt>
   <trkpt lat="37.2117530" lon="127.1068790">
    <ele>66.6</ele>
    <time>2026-08-13T12:28:22Z</time>
   </trkpt>
   <trkpt lat="37.2117390" lon="127.1068670">
    <ele>66.6</ele>
    <time>2026-08-13T12:28:23Z</time>
   </trkpt>
   <trkpt lat="37.2117190" lon="127.1068580">
    <ele>66.5</ele>
    <time>2026-08-13T12:28:24Z</time>
   </trkpt>
   <trkpt lat="37.2117140" lon="127.1068440">
    <ele>66.5</ele>
    <time>2026-08-13T12:28:25Z</time>
   </trkpt>
   <trkpt lat="37.2117060" lon="127.1068340">
    <ele>66.5</ele>
    <time>2026-08-13T12:28:26Z</time>
   </trkpt>
   <trkpt lat="37.2116960" lon="127.1068190">
    <ele>66.4</ele>
    <time>2026-08-13T12:28:27Z</time>
   </trkpt>
   <trkpt lat="37.2116880" lon="127.1068050">
    <ele>66.4</ele>
    <time>2026-08-13T12:28:28Z</time>
   </trkpt>
   <trkpt lat="37.2116900" lon="127.1067860">
    <ele>66.4</ele>
    <time>2026-08-13T12:28:29Z</time>
   </trkpt>
   <trkpt lat="37.2116900" lon="127.1067750">
    <ele>66.3</ele>
    <time>2026-08-13T12:28:30Z</time>
   </trkpt>
   <trkpt lat="37.2116700" lon="127.1067720">
    <ele>66.3</ele>
    <time>2026-08-13T12:28:31Z</time>
   </trkpt>
   <trkpt lat="37.2116600" lon="127.1067630">
    <ele>66.3</ele>
    <time>2026-08-13T12:28:32Z</time>
   </trkpt>
   <trkpt lat="37.2116430" lon="127.1067510">
    <ele>66.2</ele>
    <time>2026-08-13T12:28:33Z</time>
   </trkpt>
   <trkpt lat="37.2116260" lon="127.1067490">
    <ele>66.2</ele>
    <time>2026-08-13T12:28:34Z</time>
   </trkpt>
   <trkpt lat="37.2116160" lon="127.1067350">
    <ele>66.1</ele>
    <time>2026-08-13T12:28:35Z</time>
   </trkpt>
   <trkpt lat="37.2116010" lon="127.1067300">
    <ele>66.1</ele>
    <time>2026-08-13T12:28:36Z</time>
   </trkpt>
   <trkpt lat="37.2115900" lon="127.1067120">
    <ele>66.0</ele>
    <time>2026-08-13T12:28:37Z</time>
   </trkpt>
   <trkpt lat="37.2115760" lon="127.1067060">
    <ele>66.0</ele>
    <time>2026-08-13T12:28:38Z</time>
   </trkpt>
   <trkpt lat="37.2115630" lon="127.1066980">
    <ele>66.0</ele>
    <time>2026-08-13T12:28:39Z</time>
   </trkpt>
   <trkpt lat="37.2115510" lon="127.1066910">
    <ele>65.9</ele>
    <time>2026-08-13T12:28:40Z</time>
   </trkpt>
   <trkpt lat="37.2115400" lon="127.1066830">
    <ele>65.9</ele>
    <time>2026-08-13T12:28:41Z</time>
   </trkpt>
   <trkpt lat="37.2115290" lon="127.1066780">
    <ele>65.8</ele>
    <time>2026-08-13T12:28:42Z</time>
   </trkpt>
   <trkpt lat="37.2115220" lon="127.1066840">
    <ele>65.8</ele>
    <time>2026-08-13T12:28:43Z</time>
   </trkpt>
   <trkpt lat="37.2115220" lon="127.1066840">
    <ele>65.8</ele>
    <time>2026-08-13T12:28:44Z</time>
   </trkpt>
  </trkseg>
 </trk>
</gpx>
