<?xml version="1.0" encoding="UTF-8"?>
<gpx creator="StravaGPX" version="1.1" xmlns="http://www.topografix.com/GPX/1/1" xmlns:xsi="http://www.w3.org/2001/XMLSchema-instance" xsi:schemaLocation="http://www.topografix.com/GPX/1/1 http://www.topografix.com/GPX/1/1/gpx.xsd">
 <metadata>
  <time>2026-08-13T12:18:54Z</time>
 </metadata>
 <trk>
  <name>윤예진_가파른내리막_1회차</name>
  <type>walking</type>
  <trkseg>
   <trkpt lat="37.2119810" lon="127.1090230">
    <ele>77.8</ele>
    <time>2026-08-13T12:18:54Z</time>
   </trkpt>
   <trkpt lat="37.2119810" lon="127.1090200">
    <ele>77.8</ele>
    <time>2026-08-13T12:18:55Z</time>
   </trkpt>
   <trkpt lat="37.2119780" lon="127.1090100">
    <ele>77.7</ele>
    <time>2026-08-13T12:18:56Z</time>
   </trkpt>
   <trkpt lat="37.2119770" lon="127.1090010">
    <ele>77.7</ele>
    <time>2026-08-13T12:18:57Z</time>
   </trkpt>
   <trkpt lat="37.2119760" lon="127.1089910">
    <ele>77.7</ele>
    <time>2026-08-13T12:18:58Z</time>
   </trkpt>
   <trkpt lat="37.2119740" lon="127.1089790">
    <ele>77.6</ele>
    <time>2026-08-13T12:18:59Z</time>
   </trkpt>
   <trkpt lat="37.2119690" lon="127.1089640">
    <ele>77.6</ele>
    <time>2026-08-13T12:19:00Z</time>
   </trkpt>
   <trkpt lat="37.2119640" lon="127.1089480">
    <ele>77.5</ele>
    <time>2026-08-13T12:19:01Z</time>
   </trkpt>
   <trkpt lat="37.2119590" lon="127.1089300">
    <ele>77.4</ele>
    <time>2026-08-13T12:19:02Z</time>
   </trkpt>
   <trkpt lat="37.2119540" lon="127.1089120">
    <ele>77.4</ele>
    <time>2026-08-13T12:19:03Z</time>
   </trkpt>
   <trkpt lat="37.2119480" lon="127.1088890">
    <ele>77.3</ele>
    <time>2026-08-13T12:19:04Z</time>
   </trkpt>
   <trkpt lat="37.2119420" lon="127.1088710">
    <ele>77.2</ele>
    <time>2026-08-13T12:19:05Z</time>
   </trkpt>
   <trkpt lat="37.2119350" lon="127.1088590">
    <ele>77.1</ele>
    <time>2026-08-13T12:19:06Z</time>
   </trkpt>
   <trkpt lat="37.2119260" lon="127.1088470">
    <ele>77.1</ele>
    <time>2026-08-13T12:19:07Z</time>
   </trkpt>
   <trkpt lat="37.2119160" lon="127.1088330">
    <ele>77.0</ele>
    <time>2026-08-13T12:19:08Z</time>
   </trkpt>
   <trkpt lat="37.2119060" lon="127.1088230">
    <ele>76.9</ele>
    <time>2026-08-13T12:19:09Z</time>
   </trkpt>
   <trkpt lat="37.2119010" lon="127.1088200">
    <ele>76.9</ele>
    <time>2026-08-13T12:19:10Z</time>
   </trkpt>
   <trkpt lat="37.2118950" lon="127.1088190">
    <ele>76.9</ele>
    <time>2026-08-13T12:19:11Z</time>
   </trkpt>
   <trkpt lat="37.2118710" lon="127.1087970">
    <ele>76.7</ele>
    <time>2026-08-13T12:19:12Z</time>
   </trkpt>
   <trkpt lat="37.2118690" lon="127.1087930">
    <ele>76.7</ele>
    <time>2026-08-13T12:19:13Z</time>
   </trkpt>
   <trkpt lat="37.2118700" lon="127.1087710">
    <ele>76.6</ele>
    <time>2026-08-13T12:19:14Z</time>
   </trkpt>
   <trkpt lat="37.2118690" lon="127.1087560">
    <ele>76.5</ele>
    <time>2026-08-13T12:19:15Z</time>
   </trkpt>
   <trkpt lat="37.2118660" lon="127.1087430">
    <ele>76.5</ele>
    <time>2026-08-13T12:19:16Z</time>
   </trkpt>
   <trkpt lat="37.2118670" lon="127.1087310">
    <ele>76.4</ele>
    <time>2026-08-13T12:19:17Z</time>
   </trkpt>
   <trkpt lat="37.2118680" lon="127.1087180">
    <ele>76.4</ele>
    <time>2026-08-13T12:19:18Z</time>
   </trkpt>
   <trkpt lat="37.2118660" lon="127.1087020">
    <ele>76.3</ele>
    <time>2026-08-13T12:19:19Z</time>
   </trkpt>
   <trkpt lat="37.2118660" lon="127.1086950">
    <ele>76.2</ele>
    <time>2026-08-13T12:19:20Z</time>
   </trkpt>
   <trkpt lat="37.2118640" lon="127.1086790">
    <ele>76.2</ele>
    <time>2026-08-13T12:19:21Z</time>
   </trkpt>
   <trkpt lat="37.2118590" lon="127.1086610">
    <ele>76.1</ele>
    <time>2026-08-13T12:19:22Z</time>
   </trkpt>
   <trkpt lat="37.2118560" lon="127.1086510">
    <ele>76.0</ele>
    <time>2026-08-13T12:19:23Z</time>
   </trkpt>
   <trkpt lat="37.2118540" lon="127.1086360">
    <ele>75.9</ele>
    <time>2026-08-13T12:19:24Z</time>
   </trkpt>
   <trkpt lat="37.2118560" lon="127.1086270">
    <ele>75.9</ele>
    <time>2026-08-13T12:19:25Z</time>
   </trkpt>
   <trkpt lat="37.2118540" lon="127.1086170">
    <ele>75.8</ele>
    <time>2026-08-13T12:19:26Z</time>
   </trkpt>
   <trkpt lat="37.2118580" lon="127.1085990">
    <ele>75.7</ele>
    <time>2026-08-13T12:19:27Z</time>
   </trkpt>
   <trkpt lat="37.2118550" lon="127.1085880">
    <ele>75.7</ele>
    <time>2026-08-13T12:19:28Z</time>
   </trkpt>
   <trkpt lat="37.2118540" lon="127.1085660">
    <ele>75.5</ele>
    <time>2026-08-13T12:19:30Z</time>
   </trkpt>
   <trkpt lat="37.2118520" lon="127.1085500">
    <ele>75.4</ele>
    <time>2026-08-13T12:19:31Z</time>
   </trkpt>
   <trkpt lat="37.2118530" lon="127.1085400">
    <ele>75.4</ele>
    <time>2026-08-13T12:19:32Z</time>
   </trkpt>
   <trkpt lat="37.2118490" lon="127.1085310">
    <ele>75.3</ele>
    <time>2026-08-13T12:19:33Z</time>
   </trkpt>
   <trkpt lat="37.2118480" lon="127.1085260">
    <ele>75.3</ele>
    <time>2026-08-13T12:19:34Z</time>
   </trkpt>
   <trkpt lat="37.2118440" lon="127.1085090">
    <ele>75.2</ele>
    <time>2026-08-13T12:19:35Z</time>
   </trkpt>
   <trkpt lat="37.2118450" lon="127.1084830">
    <ele>75.0</ele>
    <time>2026-08-13T12:19:36Z</time>
   </trkpt>
   <trkpt lat="37.2118430" lon="127.1084710">
    <ele>75.0</ele>
    <time>2026-08-13T12:19:37Z</time>
   </trkpt>
   <trkpt lat="37.2118360" lon="127.1084620">
    <ele>74.9</ele>
    <time>2026-08-13T12:19:38Z</time>
   </trkpt>
   <trkpt lat="37.2118290" lon="127.1084550">
    <ele>74.8</ele>
    <time>2026-08-13T12:19:39Z</time>
   </trkpt>
   <trkpt lat="37.2118220" lon="127.1084520">
    <ele>74.8</ele>
    <time>2026-08-13T12:19:40Z</time>
   </trkpt>
   <trkpt lat="37.2118130" lon="127.1084460">
    <ele>74.7</ele>
    <time>2026-08-13T12:19:41Z</time>
   </trkpt>
   <trkpt lat="37.2118040" lon="127.1084400">
    <ele>74.6</ele>
    <time>2026-08-13T12:19:42Z</time>
   </trkpt>
   <trkpt lat="37.2117990" lon="127.1084310">
    <ele>74.5</ele>
    <time>2026-08-13T12:19:43Z</time>
   </trkpt>
   <trkpt lat="37.2117910" lon="127.1084250">
    <ele>74.5</ele>
    <time>2026-08-13T12:19:44Z</time>
   </trkpt>
   <trkpt lat="37.2117800" lon="127.1084210">
    <ele>74.4</ele>
    <time>2026-08-13T12:19:45Z</time>
   </trkpt>
   <trkpt lat="37.2117650" lon="127.1084070">
    <ele>74.2</ele>
    <time>2026-08-13T12:19:46Z</time>
   </trkpt>
   <trkpt lat="37.2117550" lon="127.1084050">
    <ele>74.1</ele>
    <time>2026-08-13T12:19:47Z</time>
   </trkpt>
   <trkpt lat="37.2117480" lon="127.1084020">
    <ele>74.1</ele>
    <time>2026-08-13T12:19:48Z</time>
   </trkpt>
   <trkpt lat="37.2117360" lon="127.1083900">
    <ele>74.0</ele>
    <time>2026-08-13T12:19:49Z</time>
   </trkpt>
   <trkpt lat="37.2117280" lon="127.1083850">
    <ele>73.9</ele>
    <time>2026-08-13T12:19:50Z</time>
   </trkpt>
   <trkpt lat="37.2117160" lon="127.1083730">
    <ele>73.8</ele>
    <time>2026-08-13T12:19:51Z</time>
   </trkpt>
   <trkpt lat="37.2117030" lon="127.1083610">
    <ele>73.6</ele>
    <time>2026-08-13T12:19:52Z</time>
   </trkpt>
   <trkpt lat="37.2116910" lon="127.1083560">
    <ele>73.5</ele>
    <time>2026-08-13T12:19:53Z</time>
   </trkpt>
   <trkpt lat="37.2116820" lon="127.1083470">
    <ele>73.4</ele>
    <time>2026-08-13T12:19:54Z</time>
   </trkpt>
   <trkpt lat="37.2116730" lon="127.1083360">
    <ele>73.3</ele>
    <time>2026-08-13T12:19:55Z</time>
   </trkpt>
   <trkpt lat="37.2116620" lon="127.1083290">
    <ele>73.2</ele>
    <time>2026-08-13T12:19:56Z</time>
   </trkpt>
   <trkpt lat="37.2116540" lon="127.1083190">
    <ele>73.1</ele>
    <time>2026-08-13T12:19:57Z</time>
   </trkpt>
   <trkpt lat="37.2116410" lon="127.1083120">
    <ele>72.9</ele>
    <time>2026-08-13T12:19:58Z</time>
   </trkpt>
   <trkpt lat="37.2116330" lon="127.1083030">
    <ele>72.8</ele>
    <time>2026-08-13T12:19:59Z</time>
   </trkpt>
   <trkpt lat="37.2116180" lon="127.1082950">
    <ele>72.7</ele>
    <time>2026-08-13T12:20:00Z</time>
   </trkpt>
   <trkpt lat="37.2116080" lon="127.1082890">
    <ele>72.6</ele>
    <time>2026-08-13T12:20:01Z</time>
   </trkpt>
   <trkpt lat="37.2115920" lon="127.1082830">
    <ele>72.4</ele>
    <time>2026-08-13T12:20:02Z</time>
   </trkpt>
   <trkpt lat="37.2115810" lon="127.1082700">
    <ele>72.3</ele>
    <time>2026-08-13T12:20:03Z</time>
   </trkpt>
   <trkpt lat="37.2115700" lon="127.1082630">
    <ele>72.2</ele>
    <time>2026-08-13T12:20:04Z</time>
   </trkpt>
   <trkpt lat="37.2115570" lon="127.1082560">
    <ele>72.1</ele>
    <time>2026-08-13T12:20:05Z</time>
   </trkpt>
   <trkpt lat="37.2115430" lon="127.1082440">
    <ele>71.9</ele>
    <time>2026-08-13T12:20:06Z</time>
   </trkpt>
   <trkpt lat="37.2115300" lon="127.1082350">
    <ele>71.8</ele>
    <time>2026-08-13T12:20:07Z</time>
   </trkpt>
   <trkpt lat="37.2115150" lon="127.1082320">
    <ele>71.6</ele>
    <time>2026-08-13T12:20:08Z</time>
   </trkpt>
   <trkpt lat="37.2115040" lon="127.1082220">
    <ele>71.5</ele>
    <time>2026-08-13T12:20:09Z</time>
   </trkpt>
   <trkpt lat="37.2114920" lon="127.1082190">
    <ele>71.4</ele>
    <time>2026-08-13T12:20:10Z</time>
   </trkpt>
   <trkpt lat="37.2114850" lon="127.1082140">
    <ele>71.3</ele>
    <time>2026-08-13T12:20:11Z</time>
   </trkpt>
   <trkpt lat="37.2114730" lon="127.1082120">
    <ele>71.2</ele>
    <time>2026-08-13T12:20:12Z</time>
   </trkpt>
   <trkpt lat="37.2114580" lon="127.1081990">
    <ele>71.1</ele>
    <time>2026-08-13T12:20:13Z</time>
   </trkpt>
   <trkpt lat="37.2114440" lon="127.1081950">
    <ele>70.9</ele>
    <time>2026-08-13T12:20:14Z</time>
   </trkpt>
   <trkpt lat="37.2114350" lon="127.1081870">
    <ele>70.8</ele>
    <time>2026-08-13T12:20:15Z</time>
   </trkpt>
   <trkpt lat="37.2114220" lon="127.1081750">
    <ele>70.7</ele>
    <time>2026-08-13T12:20:16Z</time>
   </trkpt>
   <trkpt lat="37.2114160" lon="127.1081620">
    <ele>70.6</ele>
    <time>2026-08-13T12:20:17Z</time>
   </trkpt>
   <trkpt lat="37.2114080" lon="127.1081540">
    <ele>70.5</ele>
    <time>2026-08-13T12:20:18Z</time>
   </trkpt>
   <trkpt lat="37.2114010" lon="127.1081440">
    <ele>70.4</ele>
    <time>2026-08-13T12:20:19Z</time>
   </trkpt>
   <trkpt lat="37.2113950" lon="127.1081330">
    <ele>70.3</ele>
    <time>2026-08-13T12:20:20Z</time>
   </trkpt>
   <trkpt lat="37.2113870" lon="127.1081190">
    <ele>70.2</ele>
    <time>2026-08-13T12:20:21Z</time>
   </trkpt>
   <trkpt lat="37.2113790" lon="127.1081090">
    <ele>70.1</ele>
    <time>2026-08-13T12:20:22Z</time>
   </trkpt>
   <trkpt lat="37.2113730" lon="127.1080940">
    <ele>70.0</ele>
    <time>2026-08-13T12:20:23Z</time>
   </trkpt>
   <trkpt lat="37.2113640" lon="127.1080820">
    <ele>69.8</ele>
    <time>2026-08-13T12:20:24Z</time>
   </trkpt>
   <trkpt lat="37.2113560" lon="127.1080700">
    <ele>69.7</ele>
    <time>2026-08-13T12:20:25Z</time>
   </trkpt>
   <trkpt lat="37.2113490" lon="127.1080530">
    <ele>69.6</ele>
    <time>2026-08-13T12:20:26Z</time>
   </trkpt>
   <trkpt lat="37.2113440" lon="127.1080380">
    <ele>69.5</ele>
    <time>2026-08-13T12:20:27Z</time>
   </trkpt>
   <trkpt lat="37.2113360" lon="127.1080240">
    <ele>69.4</ele>
    <time>2026-08-13T12:20:28Z</time>
   </trkpt>
   <trkpt lat="37.2113280" lon="127.1080120">
    <ele>69.3</ele>
    <time>2026-08-13T12:20:29Z</time>
   </trkpt>
   <trkpt lat="37.2113190" lon="127.1079990">
    <ele>69.1</ele>
    <time>2026-08-13T12:20:30Z</time>
   </trkpt>
   <trkpt lat="37.2113110" lon="127.1079890">
    <ele>69.0</ele>
    <time>2026-08-13T12:20:31Z</time>
   </trkpt>
   <trkpt lat="37.2113030" lon="127.1079790">
    <ele>68.9</ele>
    <time>2026-08-13T12:20:32Z</time>
   </trkpt>
   <trkpt lat="37.2112950" lon="127.1079690">
    <ele>68.8</ele>
    <time>2026-08-13T12:20:33Z</time>
   </trkpt>
   <trkpt lat="37.2112850" lon="127.1079590">
    <ele>68.7</ele>
    <time>2026-08-13T12:20:34Z</time>
   </trkpt>
   <trkpt lat="37.2112800" lon="127.1079460">
    <ele>68.6</ele>
    <time>2026-08-13T12:20:35Z</time>
   </trkpt>
   <trkpt lat="37.2112750" lon="127.1079320">
    <ele>68.5</ele>
    <time>2026-08-13T12:20:36Z</time>
   </trkpt>
   <trkpt lat="37.2112680" lon="127.1079190">
    <ele>68.4</ele>
    <time>2026-08-13T12:20:37Z</time>
   </trkpt>
   <trkpt lat="37.2112620" lon="127.1079060">
    <ele>68.3</ele>
    <time>2026-08-13T12:20:38Z</time>
   </trkpt>
   <trkpt lat="37.2112540" lon="127.1078980">
    <ele>68.2</ele>
    <time>2026-08-13T12:20:39Z</time>
   </trkpt>
   <trkpt lat="37.2112490" lon="127.1078820">
    <ele>68.1</ele>
    <time>2026-08-13T12:20:40Z</time>
   </trkpt>
   <trkpt lat="37.2112400" lon="127.1078710">
    <ele>68.0</ele>
    <time>2026-08-13T12:20:41Z</time>
   </trkpt>
   <trkpt lat="37.2112340" lon="127.1078560">
    <ele>67.9</ele>
    <time>2026-08-13T12:20:42Z</time>
   </trkpt>
   <trkpt lat="37.2112260" lon="127.1078450">
    <ele>67.8</ele>
    <time>2026-08-13T12:20:43Z</time>
   </trkpt>
   <trkpt lat="37.2112180" lon="127.1078310">
    <ele>67.7</ele>
    <time>2026-08-13T12:20:44Z</time>
   </trkpt>
   <trkpt lat="37.2112060" lon="127.1078190">
    <ele>67.5</ele>
    <time>2026-08-13T12:20:45Z</time>
   </trkpt>
   <trkpt lat="37.2112000" lon="127.1078030">
    <ele>67.4</ele>
    <time>2026-08-13T12:20:46Z</time>
   </trkpt>
   <trkpt lat="37.2111930" lon="127.1077900">
    <ele>67.3</ele>
    <time>2026-08-13T12:20:47Z</time>
   </trkpt>
   <trkpt lat="37.2111820" lon="127.1077800">
    <ele>67.2</ele>
    <time>2026-08-13T12:20:48Z</time>
   </trkpt>
   <trkpt lat="37.2111720" lon="127.1077720">
    <ele>67.1</ele>
    <time>2026-08-13T12:20:49Z</time>
   </trkpt>
   <trkpt lat="37.2111570" lon="127.1077700">
    <ele>67.0</ele>
    <time>2026-08-13T12:20:50Z</time>
   </trkpt>
   <trkpt lat="37.2111470" lon="127.1077640">
    <ele>66.9</ele>
    <time>2026-08-13T12:20:51Z</time>
   </trkpt>
   <trkpt lat="37.2111360" lon="127.1077600">
    <ele>66.8</ele>
    <time>2026-08-13T12:20:52Z</time>
   </trkpt>
   <trkpt lat="37.2111250" lon="127.1077620">
    <ele>66.7</ele>
    <time>2026-08-13T12:20:53Z</time>
   </trkpt>
   <trkpt lat="37.2111150" lon="127.1077660">
    <ele>66.6</ele>
    <time>2026-08-13T12:20:54Z</time>
   </trkpt>
   <trkpt lat="37.2111050" lon="127.1077660">
    <ele>66.5</ele>
    <time>2026-08-13T12:20:55Z</time>
   </trkpt>
   <trkpt lat="37.2110880" lon="127.1077680">
    <ele>66.4</ele>
    <time>2026-08-13T12:20:56Z</time>
   </trkpt>
   <trkpt lat="37.2110760" lon="127.1077730">
    <ele>66.3</ele>
    <time>2026-08-13T12:20:57Z</time>
   </trkpt>
   <trkpt lat="37.2110620" lon="127.1077640">
    <ele>66.2</ele>
    <time>2026-08-13T12:20:58Z</time>
   </trkpt>
   <trkpt lat="37.2110540" lon="127.1077480">
    <ele>66.1</ele>
    <time>2026-08-13T12:20:59Z</time>
   </trkpt>
   <trkpt lat="37.2110540" lon="127.1077360">
    <ele>66.0</ele>
    <time>2026-08-13T12:21:00Z</time>
   </trkpt>
  </trkseg>
 </trk>
</gpx>
