<?xml version="1.0" encoding="UTF-8"?>
<gpx creator="StravaGPX" version="1.1" xmlns="http://www.topografix.com/GPX/1/1" xmlns:xsi="http://www.w3.org/2001/XMLSchema-instance" xsi:schemaLocation="http://www.topografix.com/GPX/1/1 http://www.topografix.com/GPX/1/1/gpx.xsd">
 <metadata>
  <time>2026-08-13T11:19:07Z</time>
 </metadata>
 <trk>
  <name>FLAT1</name>
  <type>walking</type>
  <trkseg>
   <trkpt lat="37.4118290" lon="126.9839980">
    <ele>66.1</ele>
    <time>2026-08-13T11:19:07Z</time>
   </trkpt>
   <trkpt lat="37.4118290" lon="126.9839980">
    <ele>66.1</ele>
    <time>2026-08-13T11:19:08Z</time>
   </trkpt>
   <trkpt lat="37.4118330" lon="126.9839960">
    <ele>66.1</ele>
    <time>2026-08-13T11:19:09Z</time>
   </trkpt>
   <trkpt lat="37.4118330" lon="126.9840020">
    <ele>66.0</ele>
    <time>2026-08-13T11:19:10Z</time>
   </trkpt>
   <trkpt lat="37.4118340" lon="126.9840190">
    <ele>66.0</ele>
    <time>2026-08-13T11:19:11Z</time>
   </trkpt>
   <trkpt lat="37.4118310" lon="126.9840380">
    <ele>66.0</ele>
    <time>2026-08-13T11:19:12Z</time>
   </trkpt>
   <trkpt lat="37.4118300" lon="126.9840520">
    <ele>66.0</ele>
    <time>2026-08-13T11:19:13Z</time>
   </trkpt>
   <trkpt lat="37.4118260" lon="126.9840690">
    <ele>65.9</ele>
    <time>2026-08-13T11:19:14Z</time>
   </trkpt>
   <trkpt lat="37.4118260" lon="126.9840890">
    <ele>65.9</ele>
    <time>2026-08-13T11:19:15Z</time>
   </trkpt>
   <trkpt lat="37.4118210" lon="126.9841030">
    <ele>65.9</ele>
    <time>2026-08-13T11:19:16Z</time>
   </trkpt>
   <trkpt lat="37.4118150" lon="126.9841210">
    <ele>65.9</ele>
    <time>2026-08-13T11:19:17Z</time>
   </trkpt>
   <trkpt lat="37.4118090" lon="126.9841440">
    <ele>65.8</ele>
    <time>2026-08-13T11:19:18Z</time>
   </trkpt>
   <trkpt lat="37.4118080" lon="126.9841680">
    <ele>65.8</ele>
    <time>2026-08-13T11:19:19Z</time>
   </trkpt>
   <trkpt lat="37.4117970" lon="126.9841820">
    <ele>65.8</ele>
    <time>2026-08-13T11:19:20Z</time>
   </trkpt>
   <trkpt lat="37.4117950" lon="126.9841950">
    <ele>65.8</ele>
    <time>2026-08-13T11:19:21Z</time>
   </trkpt>
   <trkpt lat="37.4117900" lon="126.9842260">
    <ele>65.7</ele>
    <time>2026-08-13T11:19:22Z</time>
   </trkpt>
   <trkpt lat="37.4117970" lon="126.9842320">
    <ele>65.7</ele>
    <time>2026-08-13T11:19:23Z</time>
   </trkpt>
   <trkpt lat="37.4117950" lon="126.9842540">
    <ele>65.7</ele>
    <time>2026-08-13T11:19:24Z</time>
   </trkpt>
   <trkpt lat="37.4117890" lon="126.9842750">
    <ele>65.7</ele>
    <time>2026-08-13T11:19:25Z</time>
   </trkpt>
   <trkpt lat="37.4117810" lon="126.9842950">
    <ele>65.6</ele>
    <time>2026-08-13T11:19:26Z</time>
   </trkpt>
   <trkpt lat="37.4117740" lon="126.9843120">
    <ele>65.6</ele>
    <time>2026-08-13T11:19:27Z</time>
   </trkpt>
   <trkpt lat="37.4117700" lon="126.9843220">
    <ele>65.6</ele>
    <time>2026-08-13T11:19:28Z</time>
   </trkpt>
   <trkpt lat="37.4117640" lon="126.9843390">
    <ele>65.6</ele>
    <time>2026-08-13T11:19:29Z</time>
   </trkpt>
   <trkpt lat="37.4117630" lon="126.9843630">
    <ele>65.6</ele>
    <time>2026-08-13T11:19:30Z</time>
   </trkpt>
   <trkpt lat="37.4117600" lon="126.9843860">
    <ele>65.5</ele>
    <time>2026-08-13T11:19:31Z</time>
   </trkpt>
   <trkpt lat="37.4117550" lon="126.9843990">
    <ele>65.5</ele>
    <time>2026-08-13T11:19:32Z</time>
   </trkpt>
   <trkpt lat="37.4117550" lon="126.9844120">
    <ele>65.5</ele>
    <time>2026-08-13T11:19:33Z</time>
   </trkpt>
   <trkpt lat="37.4117530" lon="126.9844270">
    <ele>65.5</ele>
    <time>2026-08-13T11:19:34Z</time>
   </trkpt>
   <trkpt lat="37.4117490" lon="126.9844400">
    <ele>65.5</ele>
    <time>2026-08-13T11:19:35Z</time>
   </trkpt>
   <trkpt lat="37.4117490" lon="126.9844630">
    <ele>65.4</ele>
    <time>2026-08-13T11:19:36Z</time>
   </trkpt>
   <trkpt lat="37.4117500" lon="126.9844800">
    <ele>65.4</ele>
    <time>2026-08-13T11:19:37Z</time>
   </trkpt>
   <trkpt lat="37.4117460" lon="126.9844970">
    <ele>65.4</ele>
    <time>2026-08-13T11:19:38Z</time>
   </trkpt>
   <trkpt lat="37.4117420" lon="126.9845100">
    <ele>65.4</ele>
    <time>2026-08-13T11:19:39Z</time>
   </trkpt>
   <trkpt lat="37.4117440" lon="126.9845270">
    <ele>65.3</ele>
    <time>2026-08-13T11:19:40Z</time>
   </trkpt>
   <trkpt lat="37.4117360" lon="126.9845370">
    <ele>65.3</ele>
    <time>2026-08-13T11:19:41Z</time>
   </trkpt>
   <trkpt lat="37.4117340" lon="126.9845470">
    <ele>65.3</ele>
    <time>2026-08-13T11:19:42Z</time>
   </trkpt>
   <trkpt lat="37.4117300" lon="126.9845650">
    <ele>65.3</ele>
    <time>2026-08-13T11:19:43Z</time>
   </trkpt>
   <trkpt lat="37.4117260" lon="126.9845870">
    <ele>65.2</ele>
    <time>2026-08-13T11:19:44Z</time>
   </trkpt>
   <trkpt lat="37.4117200" lon="126.9846040">
    <ele>65.2</ele>
    <time>2026-08-13T11:19:45Z</time>
   </trkpt>
   <trkpt lat="37.4117160" lon="126.9846230">
    <ele>65.2</ele>
    <time>2026-08-13T11:19:46Z</time>
   </trkpt>
   <trkpt lat="37.4117070" lon="126.9846360">
    <ele>65.2</ele>
    <time>2026-08-13T11:19:47Z</time>
   </trkpt>
   <trkpt lat="37.4117000" lon="126.9846440">
    <ele>65.2</ele>
    <time>2026-08-13T11:19:48Z</time>
   </trkpt>
   <trkpt lat="37.4116980" lon="126.9846600">
    <ele>65.1</ele>
    <time>2026-08-13T11:19:49Z</time>
   </trkpt>
   <trkpt lat="37.4116930" lon="126.9846780">
    <ele>65.1</ele>
    <time>2026-08-13T11:19:50Z</time>
   </trkpt>
   <trkpt lat="37.4116870" lon="126.9846940">
    <ele>65.1</ele>
    <time>2026-08-13T11:19:51Z</time>
   </trkpt>
   <trkpt lat="37.4116840" lon="126.9847100">
    <ele>65.1</ele>
    <time>2026-08-13T11:19:52Z</time>
   </trkpt>
   <trkpt lat="37.4116780" lon="126.9847260">
    <ele>65.1</ele>
    <time>2026-08-13T11:19:53Z</time>
   </trkpt>
   <trkpt lat="37.4116740" lon="126.9847420">
    <ele>65.1</ele>
    <time>2026-08-13T11:19:54Z</time>
   </trkpt>
   <trkpt lat="37.4116690" lon="126.9847620">
    <ele>65.0</ele>
    <time>2026-08-13T11:19:55Z</time>
   </trkpt>
   <trkpt lat="37.4116640" lon="126.9847780">
    <ele>65.0</ele>
    <time>2026-08-13T11:19:56Z</time>
   </trkpt>
   <trkpt lat="37.4116570" lon="126.9847860">
    <ele>65.0</ele>
    <time>2026-08-13T11:19:57Z</time>
   </trkpt>
   <trkpt lat="37.4116520" lon="126.9848020">
    <ele>65.0</ele>
    <time>2026-08-13T11:19:58Z</time>
   </trkpt>
   <trkpt lat="37.4116420" lon="126.9848240">
    <ele>65.0</ele>
    <time>2026-08-13T11:19:59Z</time>
   </trkpt>
   <trkpt lat="37.4116350" lon="126.9848380">
    <ele>65.0</ele>
    <time>2026-08-13T11:20:00Z</time>
   </trkpt>
   <trkpt lat="37.4116320" lon="126.9848550">
    <ele>65.0</ele>
    <time>2026-08-13T11:20:01Z</time>
   </trkpt>
   <trkpt lat="37.4116290" lon="126.9848730">
    <ele>64.9</ele>
    <time>2026-08-13T11:20:02Z</time>
   </trkpt>
   <trkpt lat="37.4116210" lon="126.9848930">
    <ele>64.9</ele>
    <time>2026-08-13T11:20:03Z</time>
   </trkpt>
   <trkpt lat="37.4116170" lon="126.9849120">
    <ele>64.9</ele>
    <time>2026-08-13T11:20:04Z</time>
   </trkpt>
   <trkpt lat="37.4116100" lon="126.9849280">
    <ele>64.9</ele>
    <time>2026-08-13T11:20:05Z</time>
   </trkpt>
   <trkpt lat="37.4116070" lon="126.9849430">
    <ele>64.9</ele>
    <time>2026-08-13T11:20:06Z</time>
   </trkpt>
   <trkpt lat="37.4116020" lon="126.9849600">
    <ele>64.8</ele>
    <time>2026-08-13T11:20:07Z</time>
   </trkpt>
   <trkpt lat="37.4116020" lon="126.9849710">
    <ele>64.8</ele>
    <time>2026-08-13T11:20:08Z</time>
   </trkpt>
   <trkpt lat="37.4116000" lon="126.9849950">
    <ele>64.8</ele>
    <time>2026-08-13T11:20:09Z</time>
   </trkpt>
   <trkpt lat="37.4115870" lon="126.9850120">
    <ele>64.8</ele>
    <time>2026-08-13T11:20:10Z</time>
   </trkpt>
   <trkpt lat="37.4115790" lon="126.9850340">
    <ele>64.7</ele>
    <time>2026-08-13T11:20:11Z</time>
   </trkpt>
   <trkpt lat="37.4115810" lon="126.9850450">
    <ele>64.7</ele>
    <time>2026-08-13T11:20:12Z</time>
   </trkpt>
   <trkpt lat="37.4115770" lon="126.9850580">
    <ele>64.7</ele>
    <time>2026-08-13T11:20:13Z</time>
   </trkpt>
   <trkpt lat="37.4115750" lon="126.9850700">
    <ele>64.7</ele>
    <time>2026-08-13T11:20:14Z</time>
   </trkpt>
   <trkpt lat="37.4115660" lon="126.9850810">
    <ele>64.7</ele>
    <time>2026-08-13T11:20:15Z</time>
   </trkpt>
   <trkpt lat="37.4115670" lon="126.9850940">
    <ele>64.7</ele>
    <time>2026-08-13T11:20:16Z</time>
   </trkpt>
   <trkpt lat="37.4115660" lon="126.9850980">
    <ele>64.7</ele>
    <time>2026-08-13T11:20:17Z</time>
   </trkpt>
   <trkpt lat="37.4115600" lon="126.9851160">
    <ele>64.7</ele>
    <time>2026-08-13T11:20:18Z</time>
   </trkpt>
   <trkpt lat="37.4115600" lon="126.9851420">
    <ele>64.7</ele>
    <time>2026-08-13T11:20:19Z</time>
   </trkpt>
   <trkpt lat="37.4115570" lon="126.9851570">
    <ele>64.7</ele>
    <time>2026-08-13T11:20:20Z</time>
   </trkpt>
   <trkpt lat="37.4115570" lon="126.9851740">
    <ele>64.7</ele>
    <time>2026-08-13T11:20:21Z</time>
   </trkpt>
   <trkpt lat="37.4115550" lon="126.9851870">
    <ele>64.7</ele>
    <time>2026-08-13T11:20:22Z</time>
   </trkpt>
   <trkpt lat="37.4115540" lon="126.9852030">
    <ele>64.7</ele>
    <time>2026-08-13T11:20:23Z</time>
   </trkpt>
   <trkpt lat="37.4115450" lon="126.9852150">
    <ele>64.7</ele>
    <time>2026-08-13T11:20:24Z</time>
   </trkpt>
   <trkpt lat="37.4115450" lon="126.9852290">
    <ele>64.7</ele>
    <time>2026-08-13T11:20:25Z</time>
   </trkpt>
   <trkpt lat="37.4115440" lon="126.9852400">
    <ele>64.7</ele>
    <time>2026-08-13T11:20:26Z</time>
   </trkpt>
   <trkpt lat="37.4115380" lon="126.9852480">
    <ele>64.7</ele>
    <time>2026-08-13T11:20:27Z</time>
   </trkpt>
   <trkpt lat="37.4115310" lon="126.9852570">
    <ele>64.7</ele>
    <time>2026-08-13T11:20:28Z</time>
   </trkpt>
   <trkpt lat="37.4115170" lon="126.9852600">
    <ele>64.7</ele>
    <time>2026-08-13T11:20:29Z</time>
   </trkpt>
   <trkpt lat="37.4115090" lon="126.9852830">
    <ele>64.7</ele>
    <time>2026-08-13T11:20:30Z</time>
   </trkpt>
   <trkpt lat="37.4115020" lon="126.9853020">
    <ele>64.7</ele>
    <time>2026-08-13T11:20:31Z</time>
   </trkpt>
   <trkpt lat="37.4115020" lon="126.9853180">
    <ele>64.7</ele>
    <time>2026-08-13T11:20:32Z</time>
   </trkpt>
   <trkpt lat="37.4115010" lon="126.9853320">
    <ele>64.7</ele>
    <time>2026-08-13T11:20:33Z</time>
   </trkpt>
   <trkpt lat="37.4114830" lon="126.9853380">
    <ele>64.7</ele>
    <time>2026-08-13T11:20:34Z</time>
   </trkpt>
   <trkpt lat="37.4114700" lon="126.9853500">
    <ele>64.7</ele>
    <time>2026-08-13T11:20:35Z</time>
   </trkpt>
   <trkpt lat="37.4114580" lon="126.9853720">
    <ele>64.7</ele>
    <time>2026-08-13T11:20:36Z</time>
   </trkpt>
   <trkpt lat="37.4114480" lon="126.9853880">
    <ele>64.7</ele>
    <time>2026-08-13T11:20:37Z</time>
   </trkpt>
   <trkpt lat="37.4114360" lon="126.9854030">
    <ele>64.7</ele>
    <time>2026-08-13T11:20:38Z</time>
   </trkpt>
   <trkpt lat="37.4114320" lon="126.9854160">
    <ele>64.7</ele>
    <time>2026-08-13T11:20:39Z</time>
   </trkpt>
   <trkpt lat="37.4114280" lon="126.9854310">
    <ele>64.7</ele>
    <time>2026-08-13T11:20:40Z</time>
   </trkpt>
   <trkpt lat="37.4114200" lon="126.9854420">
    <ele>64.7</ele>
    <time>2026-08-13T11:20:41Z</time>
   </trkpt>
   <trkpt lat="37.4114120" lon="126.9854660">
    <ele>64.7</ele>
    <time>2026-08-13T11:20:42Z</time>
   </trkpt>
   <trkpt lat="37.4114060" lon="126.9854850">
    <ele>64.7</ele>
    <time>2026-08-13T11:20:43Z</time>
   </trkpt>
   <trkpt lat="37.4113930" lon="126.9854960">
    <ele>64.7</ele>
    <time>2026-08-13T11:20:44Z</time>
   </trkpt>
   <trkpt lat="37.4113770" lon="126.9855040">
    <ele>64.7</ele>
    <time>2026-08-13T11:20:45Z</time>
   </trkpt>
   <trkpt lat="37.4113660" lon="126.9855250">
    <ele>64.7</ele>
    <time>2026-08-13T11:20:46Z</time>
   </trkpt>
   <trkpt lat="37.4113520" lon="126.9855310">
    <ele>64.7</ele>
    <time>2026-08-13T11:20:47Z</time>
   </trkpt>
   <trkpt lat="37.4113440" lon="126.9855450">
    <ele>64.7</ele>
    <time>2026-08-13T11:20:48Z</time>
   </trkpt>
   <trkpt lat="37.4113420" lon="126.9855650">
    <ele>64.7</ele>
    <time>2026-08-13T11:20:49Z</time>
   </trkpt>
   <trkpt lat="37.4113350" lon="126.9855800">
    <ele>64.7</ele>
    <time>2026-08-13T11:20:50Z</time>
   </trkpt>
   <trkpt lat="37.4113270" lon="126.9855930">
    <ele>64.7</ele>
    <time>2026-08-13T11:20:51Z</time>
   </trkpt>
   <trkpt lat="37.4113160" lon="126.9856020">
    <ele>64.7</ele>
    <time>2026-08-13T11:20:52Z</time>
   </trkpt>
   <trkpt lat="37.4113150" lon="126.9856220">
    <ele>64.7</ele>
    <time>2026-08-13T11:20:53Z</time>
   </trkpt>
   <trkpt lat="37.4113140" lon="126.9856350">
    <ele>64.7</ele>
    <time>2026-08-13T11:20:54Z</time>
   </trkpt>
   <trkpt lat="37.4113110" lon="126.9856560">
    <ele>64.7</ele>
    <time>2026-08-13T11:20:55Z</time>
   </trkpt>
   <trkpt lat="37.4113100" lon="126.9856740">
    <ele>64.7</ele>
    <time>2026-08-13T11:20:56Z</time>
   </trkpt>
   <trkpt lat="37.4113030" lon="126.9856890">
    <ele>64.7</ele>
    <time>2026-08-13T11:20:57Z</time>
   </trkpt>
   <trkpt lat="37.4112970" lon="126.9857050">
    <ele>64.7</ele>
    <time>2026-08-13T11:20:58Z</time>
   </trkpt>
   <trkpt lat="37.4112890" lon="126.9857210">
    <ele>64.7</ele>
    <time>2026-08-13T11:20:59Z</time>
   </trkpt>
   <trkpt lat="37.4112820" lon="126.9857360">
    <ele>64.7</ele>
    <time>2026-08-13T11:21:00Z</time>
   </trkpt>
   <trkpt lat="37.4112790" lon="126.9857510">
    <ele>64.7</ele>
    <time>2026-08-13T11:21:01Z</time>
   </trkpt>
   <trkpt lat="37.4112740" lon="126.9857540">
    <ele>64.7</ele>
    <time>2026-08-13T11:21:02Z</time>
   </trkpt>
   <trkpt lat="37.4112700" lon="126.9857830">
    <ele>64.7</ele>
    <time>2026-08-13T11:21:03Z</time>
   </trkpt>
   <trkpt lat="37.4112580" lon="126.9857990">
    <ele>64.7</ele>
    <time>2026-08-13T11:21:04Z</time>
   </trkpt>
   <trkpt lat="37.4112530" lon="126.9858120">
    <ele>64.7</ele>
    <time>2026-08-13T11:21:05Z</time>
   </trkpt>
   <trkpt lat="37.4112490" lon="126.9858270">
    <ele>64.7</ele>
    <time>2026-08-13T11:21:06Z</time>
   </trkpt>
   <trkpt lat="37.4112480" lon="126.9858440">
    <ele>64.7</ele>
    <time>2026-08-13T11:21:07Z</time>
   </trkpt>
   <trkpt lat="37.4112450" lon="126.9858650">
    <ele>64.7</ele>
    <time>2026-08-13T11:21:08Z</time>
   </trkpt>
   <trkpt lat="37.4112420" lon="126.9858810">
    <ele>64.7</ele>
    <time>2026-08-13T11:21:09Z</time>
   </trkpt>
   <trkpt lat="37.4112390" lon="126.9858950">
    <ele>64.7</ele>
    <time>2026-08-13T11:21:10Z</time>
   </trkpt>
   <trkpt lat="37.4112320" lon="126.9859090">
    <ele>64.7</ele>
    <time>2026-08-13T11:21:11Z</time>
   </trkpt>
   <trkpt lat="37.4112300" lon="126.9859220">
    <ele>64.7</ele>
    <time>2026-08-13T11:21:12Z</time>
   </trkpt>
   <trkpt lat="37.4112240" lon="126.9859400">
    <ele>64.7</ele>
    <time>2026-08-13T11:21:13Z</time>
   </trkpt>
   <trkpt lat="37.4112270" lon="126.9859550">
    <ele>64.7</ele>
    <time>2026-08-13T11:21:14Z</time>
   </trkpt>
   <trkpt lat="37.4112230" lon="126.9859670">
    <ele>64.7</ele>
    <time>2026-08-13T11:21:15Z</time>
   </trkpt>
   <trkpt lat="37.4112170" lon="126.9859830">
    <ele>64.7</ele>
    <time>2026-08-13T11:21:16Z</time>
   </trkpt>
   <trkpt lat="37.4112140" lon="126.9860030">
    <ele>64.7</ele>
    <time>2026-08-13T11:21:17Z</time>
   </trkpt>
   <trkpt lat="37.4112090" lon="126.9860210">
    <ele>64.7</ele>
    <time>2026-08-13T11:21:18Z</time>
   </trkpt>
   <trkpt lat="37.4112040" lon="126.9860340">
    <ele>64.7</ele>
    <time>2026-08-13T11:21:19Z</time>
   </trkpt>
   <trkpt lat="37.4111970" lon="126.9860480">
    <ele>64.7</ele>
    <time>2026-08-13T11:21:20Z</time>
   </trkpt>
   <trkpt lat="37.4111940" lon="126.9860640">
    <ele>64.7</ele>
    <time>2026-08-13T11:21:21Z</time>
   </trkpt>
   <trkpt lat="37.4111900" lon="126.9860810">
    <ele>64.7</ele>
    <time>2026-08-13T11:21:22Z</time>
   </trkpt>
   <trkpt lat="37.4111860" lon="126.9860980">
    <ele>64.7</ele>
    <time>2026-08-13T11:21:23Z</time>
   </trkpt>
   <trkpt lat="37.4111880" lon="126.9861130">
    <ele>64.7</ele>
    <time>2026-08-13T11:21:24Z</time>
   </trkpt>
   <trkpt lat="37.4111850" lon="126.9861250">
    <ele>64.7</ele>
    <time>2026-08-13T11:21:25Z</time>
   </trkpt>
  </trkseg>
 </trk>
</gpx>
