<?xml version="1.0" encoding="UTF-8"?>
<gpx creator="StravaGPX" version="1.1" xmlns="http://www.topografix.com/GPX/1/1" xmlns:xsi="http://www.w3.org/2001/XMLSchema-instance" xsi:schemaLocation="http://www.topografix.com/GPX/1/1 http://www.topografix.com/GPX/1/1/gpx.xsd">
 <metadata>
  <time>2026-08-13T11:45:44Z</time>
 </metadata>
 <trk>
  <name>declivous_test2</name>
  <type>walking</type>
  <trkseg>
   <trkpt lat="37.4113710" lon="126.9865840">
    <ele>64.9</ele>
    <time>2026-08-13T11:45:44Z</time>
   </trkpt>
   <trkpt lat="37.4113650" lon="126.9865770">
    <ele>64.9</ele>
    <time>2026-08-13T11:45:45Z</time>
   </trkpt>
   <trkpt lat="37.4113750" lon="126.9865790">
    <ele>64.9</ele>
    <time>2026-08-13T11:45:46Z</time>
   </trkpt>
   <trkpt lat="37.4113960" lon="126.9865770">
    <ele>65.0</ele>
    <time>2026-08-13T11:45:47Z</time>
   </trkpt>
   <trkpt lat="37.4114100" lon="126.9865900">
    <ele>65.0</ele>
    <time>2026-08-13T11:45:48Z</time>
   </trkpt>
   <trkpt lat="37.4114220" lon="126.9866070">
    <ele>65.0</ele>
    <time>2026-08-13T11:45:49Z</time>
   </trkpt>
   <trkpt lat="37.4114430" lon="126.9866160">
    <ele>65.0</ele>
    <time>2026-08-13T11:45:50Z</time>
   </trkpt>
   <trkpt lat="37.4114590" lon="126.9866270">
    <ele>65.1</ele>
    <time>2026-08-13T11:45:51Z</time>
   </trkpt>
   <trkpt lat="37.4114740" lon="126.9866360">
    <ele>65.1</ele>
    <time>2026-08-13T11:45:52Z</time>
   </trkpt>
   <trkpt lat="37.4114840" lon="126.9866510">
    <ele>65.1</ele>
    <time>2026-08-13T11:45:53Z</time>
   </trkpt>
   <trkpt lat="37.4114890" lon="126.9866530">
    <ele>65.1</ele>
    <time>2026-08-13T11:45:54Z</time>
   </trkpt>
   <trkpt lat="37.4115110" lon="126.9866630">
    <ele>65.2</ele>
    <time>2026-08-13T11:45:55Z</time>
   </trkpt>
   <trkpt lat="37.4115350" lon="126.9866670">
    <ele>65.2</ele>
    <time>2026-08-13T11:45:56Z</time>
   </trkpt>
   <trkpt lat="37.4115450" lon="126.9866760">
    <ele>65.2</ele>
    <time>2026-08-13T11:45:57Z</time>
   </trkpt>
   <trkpt lat="37.4115600" lon="126.9866820">
    <ele>65.2</ele>
    <time>2026-08-13T11:45:58Z</time>
   </trkpt>
   <trkpt lat="37.4115560" lon="126.9866920">
    <ele>65.3</ele>
    <time>2026-08-13T11:45:59Z</time>
   </trkpt>
   <trkpt lat="37.4115700" lon="126.9867020">
    <ele>65.3</ele>
    <time>2026-08-13T11:46:00Z</time>
   </trkpt>
   <trkpt lat="37.4115900" lon="126.9867090">
    <ele>65.3</ele>
    <time>2026-08-13T11:46:01Z</time>
   </trkpt>
   <trkpt lat="37.4116030" lon="126.9867140">
    <ele>65.3</ele>
    <time>2026-08-13T11:46:02Z</time>
   </trkpt>
   <trkpt lat="37.4116150" lon="126.9867170">
    <ele>65.4</ele>
    <time>2026-08-13T11:46:03Z</time>
   </trkpt>
   <trkpt lat="37.4116310" lon="126.9867230">
    <ele>65.4</ele>
    <time>2026-08-13T11:46:04Z</time>
   </trkpt>
   <trkpt lat="37.4116420" lon="126.9867320">
    <ele>65.4</ele>
    <time>2026-08-13T11:46:06Z</time>
   </trkpt>
   <trkpt lat="37.4116580" lon="126.9867420">
    <ele>65.5</ele>
    <time>2026-08-13T11:46:07Z</time>
   </trkpt>
   <trkpt lat="37.4116640" lon="126.9867410">
    <ele>65.5</ele>
    <time>2026-08-13T11:46:08Z</time>
   </trkpt>
   <trkpt lat="37.4116770" lon="126.9867440">
    <ele>65.5</ele>
    <time>2026-08-13T11:46:09Z</time>
   </trkpt>
   <trkpt lat="37.4116860" lon="126.9867530">
    <ele>65.6</ele>
    <time>2026-08-13T11:46:10Z</time>
   </trkpt>
   <trkpt lat="37.4116990" lon="126.9867570">
    <ele>65.6</ele>
    <time>2026-08-13T11:46:11Z</time>
   </trkpt>
   <trkpt lat="37.4117050" lon="126.9867700">
    <ele>65.6</ele>
    <time>2026-08-13T11:46:12Z</time>
   </trkpt>
   <trkpt lat="37.4117180" lon="126.9867820">
    <ele>65.7</ele>
    <time>2026-08-13T11:46:13Z</time>
   </trkpt>
   <trkpt lat="37.4117310" lon="126.9867940">
    <ele>65.7</ele>
    <time>2026-08-13T11:46:14Z</time>
   </trkpt>
   <trkpt lat="37.4117400" lon="126.9868040">
    <ele>65.8</ele>
    <time>2026-08-13T11:46:15Z</time>
   </trkpt>
   <trkpt lat="37.4117530" lon="126.9868140">
    <ele>65.8</ele>
    <time>2026-08-13T11:46:16Z</time>
   </trkpt>
   <trkpt lat="37.4117620" lon="126.9868280">
    <ele>65.9</ele>
    <time>2026-08-13T11:46:17Z</time>
   </trkpt>
   <trkpt lat="37.4117720" lon="126.9868400">
    <ele>65.9</ele>
    <time>2026-08-13T11:46:18Z</time>
   </trkpt>
   <trkpt lat="37.4117850" lon="126.9868530">
    <ele>66.0</ele>
    <time>2026-08-13T11:46:19Z</time>
   </trkpt>
   <trkpt lat="37.4117940" lon="126.9868670">
    <ele>66.0</ele>
    <time>2026-08-13T11:46:20Z</time>
   </trkpt>
   <trkpt lat="37.4118080" lon="126.9868720">
    <ele>66.1</ele>
    <time>2026-08-13T11:46:21Z</time>
   </trkpt>
   <trkpt lat="37.4118150" lon="126.9868790">
    <ele>66.1</ele>
    <time>2026-08-13T11:46:22Z</time>
   </trkpt>
   <trkpt lat="37.4118300" lon="126.9868820">
    <ele>66.1</ele>
    <time>2026-08-13T11:46:23Z</time>
   </trkpt>
   <trkpt lat="37.4118400" lon="126.9868880">
    <ele>66.2</ele>
    <time>2026-08-13T11:46:24Z</time>
   </trkpt>
   <trkpt lat="37.4118500" lon="126.9868970">
    <ele>66.2</ele>
    <time>2026-08-13T11:46:25Z</time>
   </trkpt>
   <trkpt lat="37.4118630" lon="126.9868950">
    <ele>66.3</ele>
    <time>2026-08-13T11:46:26Z</time>
   </trkpt>
   <trkpt lat="37.4118750" lon="126.9868960">
    <ele>66.3</ele>
    <time>2026-08-13T11:46:27Z</time>
   </trkpt>
   <trkpt lat="37.4118870" lon="126.9869000">
    <ele>66.3</ele>
    <time>2026-08-13T11:46:28Z</time>
   </trkpt>
   <trkpt lat="37.4119030" lon="126.9868930">
    <ele>66.4</ele>
    <time>2026-08-13T11:46:29Z</time>
   </trkpt>
   <trkpt lat="37.4119160" lon="126.9868980">
    <ele>66.4</ele>
    <time>2026-08-13T11:46:30Z</time>
   </trkpt>
   <trkpt lat="37.4119280" lon="126.9869020">
    <ele>66.5</ele>
    <time>2026-08-13T11:46:31Z</time>
   </trkpt>
   <trkpt lat="37.4119380" lon="126.9869140">
    <ele>66.5</ele>
    <time>2026-08-13T11:46:32Z</time>
   </trkpt>
   <trkpt lat="37.4119510" lon="126.9869160">
    <ele>66.6</ele>
    <time>2026-08-13T11:46:33Z</time>
   </trkpt>
   <trkpt lat="37.4119630" lon="126.9869220">
    <ele>66.6</ele>
    <time>2026-08-13T11:46:34Z</time>
   </trkpt>
   <trkpt lat="37.4119720" lon="126.9869280">
    <ele>66.6</ele>
    <time>2026-08-13T11:46:35Z</time>
   </trkpt>
   <trkpt lat="37.4119870" lon="126.9869360">
    <ele>66.7</ele>
    <time>2026-08-13T11:46:36Z</time>
   </trkpt>
   <trkpt lat="37.4119990" lon="126.9869430">
    <ele>66.7</ele>
    <time>2026-08-13T11:46:37Z</time>
   </trkpt>
   <trkpt lat="37.4120150" lon="126.9869510">
    <ele>66.8</ele>
    <time>2026-08-13T11:46:38Z</time>
   </trkpt>
   <trkpt lat="37.4120260" lon="126.9869600">
    <ele>66.8</ele>
    <time>2026-08-13T11:46:39Z</time>
   </trkpt>
   <trkpt lat="37.4120440" lon="126.9869590">
    <ele>66.9</ele>
    <time>2026-08-13T11:46:40Z</time>
   </trkpt>
   <trkpt lat="37.4120570" lon="126.9869710">
    <ele>66.9</ele>
    <time>2026-08-13T11:46:41Z</time>
   </trkpt>
   <trkpt lat="37.4120710" lon="126.9869780">
    <ele>67.0</ele>
    <time>2026-08-13T11:46:42Z</time>
   </trkpt>
   <trkpt lat="37.4120830" lon="126.9869900">
    <ele>67.0</ele>
    <time>2026-08-13T11:46:43Z</time>
   </trkpt>
   <trkpt lat="37.4120950" lon="126.9869970">
    <ele>67.1</ele>
    <time>2026-08-13T11:46:44Z</time>
   </trkpt>
   <trkpt lat="37.4121080" lon="126.9870040">
    <ele>67.1</ele>
    <time>2026-08-13T11:46:45Z</time>
   </trkpt>
   <trkpt lat="37.4121190" lon="126.9870130">
    <ele>67.2</ele>
    <time>2026-08-13T11:46:46Z</time>
   </trkpt>
   <trkpt lat="37.4121360" lon="126.9870150">
    <ele>67.2</ele>
    <time>2026-08-13T11:46:47Z</time>
   </trkpt>
   <trkpt lat="37.4121530" lon="126.9870190">
    <ele>67.3</ele>
    <time>2026-08-13T11:46:48Z</time>
   </trkpt>
   <trkpt lat="37.4121660" lon="126.9870290">
    <ele>67.3</ele>
    <time>2026-08-13T11:46:49Z</time>
   </trkpt>
   <trkpt lat="37.4121770" lon="126.9870370">
    <ele>67.3</ele>
    <time>2026-08-13T11:46:50Z</time>
   </trkpt>
   <trkpt lat="37.4121900" lon="126.9870420">
    <ele>67.4</ele>
    <time>2026-08-13T11:46:51Z</time>
   </trkpt>
   <trkpt lat="37.4122060" lon="126.9870430">
    <ele>67.4</ele>
    <time>2026-08-13T11:46:52Z</time>
   </trkpt>
   <trkpt lat="37.4122180" lon="126.9870520">
    <ele>67.5</ele>
    <time>2026-08-13T11:46:53Z</time>
   </trkpt>
   <trkpt lat="37.4122350" lon="126.9870600">
    <ele>67.5</ele>
    <time>2026-08-13T11:46:54Z</time>
   </trkpt>
   <trkpt lat="37.4122530" lon="126.9870680">
    <ele>67.6</ele>
    <time>2026-08-13T11:46:55Z</time>
   </trkpt>
   <trkpt lat="37.4122670" lon="126.9870800">
    <ele>67.6</ele>
    <time>2026-08-13T11:46:56Z</time>
   </trkpt>
   <trkpt lat="37.4122820" lon="126.9870940">
    <ele>67.7</ele>
    <time>2026-08-13T11:46:57Z</time>
   </trkpt>
   <trkpt lat="37.4122960" lon="126.9871010">
    <ele>67.7</ele>
    <time>2026-08-13T11:46:58Z</time>
   </trkpt>
   <trkpt lat="37.4123090" lon="126.9871140">
    <ele>67.8</ele>
    <time>2026-08-13T11:46:59Z</time>
   </trkpt>
   <trkpt lat="37.4123220" lon="126.9871230">
    <ele>67.8</ele>
    <time>2026-08-13T11:47:00Z</time>
   </trkpt>
   <trkpt lat="37.4123360" lon="126.9871380">
    <ele>67.8</ele>
    <time>2026-08-13T11:47:01Z</time>
   </trkpt>
   <trkpt lat="37.4123500" lon="126.9871450">
    <ele>67.9</ele>
    <time>2026-08-13T11:47:02Z</time>
   </trkpt>
   <trkpt lat="37.4123610" lon="126.9871570">
    <ele>67.9</ele>
    <time>2026-08-13T11:47:03Z</time>
   </trkpt>
   <trkpt lat="37.4123720" lon="126.9871690">
    <ele>68.0</ele>
    <time>2026-08-13T11:47:04Z</time>
   </trkpt>
   <trkpt lat="37.4123870" lon="126.9871760">
    <ele>68.0</ele>
    <time>2026-08-13T11:47:05Z</time>
   </trkpt>
   <trkpt lat="37.4123990" lon="126.9871900">
    <ele>68.0</ele>
    <time>2026-08-13T11:47:06Z</time>
   </trkpt>
   <trkpt lat="37.4124110" lon="126.9871970">
    <ele>68.1</ele>
    <time>2026-08-13T11:47:07Z</time>
   </trkpt>
   <trkpt lat="37.4124190" lon="126.9871990">
    <ele>68.1</ele>
    <time>2026-08-13T11:47:08Z</time>
   </trkpt>
   <trkpt lat="37.4124240" lon="126.9872060">
    <ele>68.1</ele>
    <time>2026-08-13T11:47:09Z</time>
   </trkpt>
   <trkpt lat="37.4124370" lon="126.9872140">
    <ele>68.2</ele>
    <time>2026-08-13T11:47:10Z</time>
   </trkpt>
   <trkpt lat="37.4124430" lon="126.9872210">
    <ele>68.2</ele>
    <time>2026-08-13T11:47:11Z</time>
   </trkpt>
   <trkpt lat="37.4124540" lon="126.9872290">
    <ele>68.2</ele>
    <time>2026-08-13T11:47:12Z</time>
   </trkpt>
   <trkpt lat="37.4124590" lon="126.9872350">
    <ele>68.2</ele>
    <time>2026-08-13T11:47:13Z</time>
   </trkpt>
   <trkpt lat="37.4124730" lon="126.9872450">
    <ele>68.3</ele>
    <time>2026-08-13T11:47:14Z</time>
   </trkpt>
   <trkpt lat="37.4124850" lon="126.9872570">
    <ele>68.3</ele>
    <time>2026-08-13T11:47:15Z</time>
   </trkpt>
   <trkpt lat="37.4125020" lon="126.9872680">
    <ele>68.4</ele>
    <time>2026-08-13T11:47:16Z</time>
   </trkpt>
   <trkpt lat="37.4125170" lon="126.9872750">
    <ele>68.4</ele>
    <time>2026-08-13T11:47:17Z</time>
   </trkpt>
   <trkpt lat="37.4125330" lon="126.9872870">
    <ele>68.5</ele>
    <time>2026-08-13T11:47:18Z</time>
   </trkpt>
   <trkpt lat="37.4125480" lon="126.9873050">
    <ele>68.5</ele>
    <time>2026-08-13T11:47:19Z</time>
   </trkpt>
   <trkpt lat="37.4125590" lon="126.9873180">
    <ele>68.6</ele>
    <time>2026-08-13T11:47:20Z</time>
   </trkpt>
   <trkpt lat="37.4125700" lon="126.9873220">
    <ele>68.6</ele>
    <time>2026-08-13T11:47:21Z</time>
   </trkpt>
   <trkpt lat="37.4125790" lon="126.9873280">
    <ele>68.6</ele>
    <time>2026-08-13T11:47:22Z</time>
   </trkpt>
   <trkpt lat="37.4125920" lon="126.9873340">
    <ele>68.7</ele>
    <time>2026-08-13T11:47:23Z</time>
   </trkpt>
   <trkpt lat="37.4126020" lon="126.9873430">
    <ele>68.7</ele>
    <time>2026-08-13T11:47:24Z</time>
   </trkpt>
   <trkpt lat="37.4126230" lon="126.9873480">
    <ele>68.7</ele>
    <time>2026-08-13T11:47:25Z</time>
   </trkpt>
   <trkpt lat="37.4126350" lon="126.9873610">
    <ele>68.8</ele>
    <time>2026-08-13T11:47:26Z</time>
   </trkpt>
   <trkpt lat="37.4126490" lon="126.9873740">
    <ele>68.8</ele>
    <time>2026-08-13T11:47:27Z</time>
   </trkpt>
   <trkpt lat="37.4126580" lon="126.9873820">
    <ele>68.9</ele>
    <time>2026-08-13T11:47:28Z</time>
   </trkpt>
   <trkpt lat="37.4126710" lon="126.9873920">
    <ele>68.9</ele>
    <time>2026-08-13T11:47:29Z</time>
   </trkpt>
   <trkpt lat="37.4126820" lon="126.9874080">
    <ele>68.9</ele>
    <time>2026-08-13T11:47:30Z</time>
   </trkpt>
   <trkpt lat="37.4126940" lon="126.9874210">
    <ele>69.0</ele>
    <time>2026-08-13T11:47:31Z</time>
   </trkpt>
   <trkpt lat="37.4126970" lon="126.9874370">
    <ele>69.0</ele>
    <time>2026-08-13T11:47:32Z</time>
   </trkpt>
   <trkpt lat="37.4127070" lon="126.9874510">
    <ele>69.0</ele>
    <time>2026-08-13T11:47:33Z</time>
   </trkpt>
   <trkpt lat="37.4127190" lon="126.9874650">
    <ele>69.1</ele>
    <time>2026-08-13T11:47:34Z</time>
   </trkpt>
   <trkpt lat="37.4127320" lon="126.9874770">
    <ele>69.1</ele>
    <time>2026-08-13T11:47:35Z</time>
   </trkpt>
   <trkpt lat="37.4127430" lon="126.9874890">
    <ele>69.2</ele>
    <time>2026-08-13T11:47:36Z</time>
   </trkpt>
   <trkpt lat="37.4127580" lon="126.9874940">
    <ele>69.2</ele>
    <time>2026-08-13T11:47:37Z</time>
   </trkpt>
   <trkpt lat="37.4127720" lon="126.9875030">
    <ele>69.2</ele>
    <time>2026-08-13T11:47:38Z</time>
   </trkpt>
   <trkpt lat="37.4127850" lon="126.9875120">
    <ele>69.3</ele>
    <time>2026-08-13T11:47:39Z</time>
   </trkpt>
   <trkpt lat="37.4127950" lon="126.9875260">
    <ele>69.3</ele>
    <time>2026-08-13T11:47:40Z</time>
   </trkpt>
   <trkpt lat="37.4128060" lon="126.9875380">
    <ele>69.3</ele>
    <time>2026-08-13T11:47:41Z</time>
   </trkpt>
   <trkpt lat="37.4128190" lon="126.9875440">
    <ele>69.4</ele>
    <time>2026-08-13T11:47:42Z</time>
   </trkpt>
   <trkpt lat="37.4128300" lon="126.9875550">
    <ele>69.4</ele>
    <time>2026-08-13T11:47:43Z</time>
   </trkpt>
   <trkpt lat="37.4128410" lon="126.9875640">
    <ele>69.4</ele>
    <time>2026-08-13T11:47:44Z</time>
   </trkpt>
   <trkpt lat="37.4128540" lon="126.9875720">
    <ele>69.5</ele>
    <time>2026-08-13T11:47:45Z</time>
   </trkpt>
   <trkpt lat="37.4128630" lon="126.9875830">
    <ele>69.5</ele>
    <time>2026-08-13T11:47:46Z</time>
   </trkpt>
   <trkpt lat="37.4128740" lon="126.9875940">
    <ele>69.6</ele>
    <time>2026-08-13T11:47:47Z</time>
   </trkpt>
   <trkpt lat="37.4128830" lon="126.9876090">
    <ele>69.6</ele>
    <time>2026-08-13T11:47:48Z</time>
   </trkpt>
   <trkpt lat="37.4129110" lon="126.9876230">
    <ele>69.7</ele>
    <time>2026-08-13T11:47:49Z</time>
   </trkpt>
   <trkpt lat="37.4129240" lon="126.9876340">
    <ele>69.7</ele>
    <time>2026-08-13T11:47:50Z</time>
   </trkpt>
   <trkpt lat="37.4129380" lon="126.9876420">
    <ele>69.8</ele>
    <time>2026-08-13T11:47:51Z</time>
   </trkpt>
   <trkpt lat="37.4129520" lon="126.9876430">
    <ele>69.8</ele>
    <time>2026-08-13T11:47:52Z</time>
   </trkpt>
   <trkpt lat="37.4129640" lon="126.9876560">
    <ele>69.8</ele>
    <time>2026-08-13T11:47:53Z</time>
   </trkpt>
   <trkpt lat="37.4129780" lon="126.9876680">
    <ele>69.9</ele>
    <time>2026-08-13T11:47:54Z</time>
   </trkpt>
  </trkseg>
 </trk>
</gpx>
