<?xml version="1.0" encoding="UTF-8"?>
<gpx creator="StravaGPX" version="1.1" xmlns="http://www.topografix.com/GPX/1/1" xmlns:xsi="http://www.w3.org/2001/XMLSchema-instance" xsi:schemaLocation="http://www.topografix.com/GPX/1/1 http://www.topografix.com/GPX/1/1/gpx.xsd">
 <metadata>
  <time>2026-08-15T22:03:13Z</time>
 </metadata>
 <trk>
  <name>김재형_평지_6회차</name>
  <type>walking</type>
  <trkseg>
   <trkpt lat="37.2407820" lon="127.0792100">
    <ele>78.8</ele>
    <time>2026-08-15T22:03:13Z</time>
   </trkpt>
   <trkpt lat="37.2407820" lon="127.0792100">
    <ele>78.8</ele>
    <time>2026-08-15T22:03:14Z</time>
   </trkpt>
   <trkpt lat="37.2407710" lon="127.0792110">
    <ele>78.8</ele>
    <time>2026-08-15T22:03:15Z</time>
   </trkpt>
   <trkpt lat="37.2407600" lon="127.0792100">
    <ele>78.8</ele>
    <time>2026-08-15T22:03:16Z</time>
   </trkpt>
   <trkpt lat="37.2407470" lon="127.0792110">
    <ele>78.8</ele>
    <time>2026-08-15T22:03:17Z</time>
   </trkpt>
   <trkpt lat="37.2407370" lon="127.0792120">
    <ele>78.8</ele>
    <time>2026-08-15T22:03:18Z</time>
   </trkpt>
   <trkpt lat="37.2407200" lon="127.0792100">
    <ele>78.8</ele>
    <time>2026-08-15T22:03:19Z</time>
   </trkpt>
   <trkpt lat="37.2407080" lon="127.0792140">
    <ele>78.8</ele>
    <time>2026-08-15T22:03:20Z</time>
   </trkpt>
   <trkpt lat="37.2406960" lon="127.0792180">
    <ele>78.8</ele>
    <time>2026-08-15T22:03:21Z</time>
   </trkpt>
   <trkpt lat="37.2406810" lon="127.0792200">
    <ele>78.8</ele>
    <time>2026-08-15T22:03:22Z</time>
   </trkpt>
   <trkpt lat="37.2406680" lon="127.0792160">
    <ele>78.8</ele>
    <time>2026-08-15T22:03:23Z</time>
   </trkpt>
   <trkpt lat="37.2406570" lon="127.0792140">
    <ele>78.8</ele>
    <time>2026-08-15T22:03:24Z</time>
   </trkpt>
   <trkpt lat="37.2406450" lon="127.0792130">
    <ele>78.8</ele>
    <time>2026-08-15T22:03:25Z</time>
   </trkpt>
   <trkpt lat="37.2406370" lon="127.0792120">
    <ele>78.8</ele>
    <time>2026-08-15T22:03:26Z</time>
   </trkpt>
   <trkpt lat="37.2406290" lon="127.0792100">
    <ele>78.8</ele>
    <time>2026-08-15T22:03:27Z</time>
   </trkpt>
   <trkpt lat="37.2406140" lon="127.0792070">
    <ele>78.8</ele>
    <time>2026-08-15T22:03:28Z</time>
   </trkpt>
   <trkpt lat="37.2406010" lon="127.0792090">
    <ele>78.8</ele>
    <time>2026-08-15T22:03:29Z</time>
   </trkpt>
   <trkpt lat="37.2405910" lon="127.0792130">
    <ele>78.8</ele>
    <time>2026-08-15T22:03:30Z</time>
   </trkpt>
   <trkpt lat="37.2405810" lon="127.0792090">
    <ele>78.8</ele>
    <time>2026-08-15T22:03:31Z</time>
   </trkpt>
   <trkpt lat="37.2405750" lon="127.0792080">
    <ele>78.8</ele>
    <time>2026-08-15T22:03:32Z</time>
   </trkpt>
   <trkpt lat="37.2405620" lon="127.0792120">
    <ele>78.7</ele>
    <time>2026-08-15T22:03:33Z</time>
   </trkpt>
   <trkpt lat="37.2405530" lon="127.0792130">
    <ele>78.7</ele>
    <time>2026-08-15T22:03:34Z</time>
   </trkpt>
   <trkpt lat="37.2405420" lon="127.0792170">
    <ele>78.7</ele>
    <time>2026-08-15T22:03:35Z</time>
   </trkpt>
   <trkpt lat="37.2405300" lon="127.0792190">
    <ele>78.7</ele>
    <time>2026-08-15T22:03:36Z</time>
   </trkpt>
   <trkpt lat="37.2405200" lon="127.0792270">
    <ele>78.7</ele>
    <time>2026-08-15T22:03:37Z</time>
   </trkpt>
   <trkpt lat="37.2405090" lon="127.0792380">
    <ele>78.7</ele>
    <time>2026-08-15T22:03:38Z</time>
   </trkpt>
   <trkpt lat="37.2405020" lon="127.0792470">
    <ele>78.7</ele>
    <time>2026-08-15T22:03:39Z</time>
   </trkpt>
   <trkpt lat="37.2404910" lon="127.0792640">
    <ele>78.7</ele>
    <time>2026-08-15T22:03:40Z</time>
   </trkpt>
   <trkpt lat="37.2404860" lon="127.0792700">
    <ele>78.7</ele>
    <time>2026-08-15T22:03:41Z</time>
   </trkpt>
   <trkpt lat="37.2404770" lon="127.0792760">
    <ele>78.7</ele>
    <time>2026-08-15T22:03:42Z</time>
   </trkpt>
   <trkpt lat="37.2404680" lon="127.0792970">
    <ele>78.7</ele>
    <time>2026-08-15T22:03:43Z</time>
   </trkpt>
   <trkpt lat="37.2404570" lon="127.0793080">
    <ele>78.7</ele>
    <time>2026-08-15T22:03:44Z</time>
   </trkpt>
   <trkpt lat="37.2404510" lon="127.0793110">
    <ele>78.7</ele>
    <time>2026-08-15T22:03:45Z</time>
   </trkpt>
   <trkpt lat="37.2404460" lon="127.0793170">
    <ele>78.7</ele>
    <time>2026-08-15T22:03:46Z</time>
   </trkpt>
   <trkpt lat="37.2404390" lon="127.0793330">
    <ele>78.7</ele>
    <time>2026-08-15T22:03:47Z</time>
   </trkpt>
   <trkpt lat="37.2404360" lon="127.0793390">
    <ele>78.7</ele>
    <time>2026-08-15T22:03:48Z</time>
   </trkpt>
   <trkpt lat="37.2404300" lon="127.0793520">
    <ele>78.7</ele>
    <time>2026-08-15T22:03:49Z</time>
   </trkpt>
   <trkpt lat="37.2404230" lon="127.0793640">
    <ele>78.7</ele>
    <time>2026-08-15T22:03:50Z</time>
   </trkpt>
   <trkpt lat="37.2404180" lon="127.0793760">
    <ele>78.7</ele>
    <time>2026-08-15T22:03:51Z</time>
   </trkpt>
   <trkpt lat="37.2404060" lon="127.0793830">
    <ele>78.7</ele>
    <time>2026-08-15T22:03:52Z</time>
   </trkpt>
   <trkpt lat="37.2404000" lon="127.0793970">
    <ele>78.7</ele>
    <time>2026-08-15T22:03:53Z</time>
   </trkpt>
   <trkpt lat="37.2403880" lon="127.0794020">
    <ele>78.7</ele>
    <time>2026-08-15T22:03:54Z</time>
   </trkpt>
   <trkpt lat="37.2403790" lon="127.0794120">
    <ele>78.7</ele>
    <time>2026-08-15T22:03:55Z</time>
   </trkpt>
   <trkpt lat="37.2403700" lon="127.0794210">
    <ele>78.7</ele>
    <time>2026-08-15T22:03:56Z</time>
   </trkpt>
   <trkpt lat="37.2403570" lon="127.0794300">
    <ele>78.7</ele>
    <time>2026-08-15T22:03:57Z</time>
   </trkpt>
   <trkpt lat="37.2403500" lon="127.0794420">
    <ele>78.7</ele>
    <time>2026-08-15T22:03:58Z</time>
   </trkpt>
   <trkpt lat="37.2403480" lon="127.0794530">
    <ele>78.7</ele>
    <time>2026-08-15T22:03:59Z</time>
   </trkpt>
   <trkpt lat="37.2403420" lon="127.0794680">
    <ele>78.7</ele>
    <time>2026-08-15T22:04:00Z</time>
   </trkpt>
   <trkpt lat="37.2403440" lon="127.0794830">
    <ele>78.7</ele>
    <time>2026-08-15T22:04:01Z</time>
   </trkpt>
   <trkpt lat="37.2403410" lon="127.0795010">
    <ele>78.7</ele>
    <time>2026-08-15T22:04:02Z</time>
   </trkpt>
   <trkpt lat="37.2403420" lon="127.0795150">
    <ele>78.7</ele>
    <time>2026-08-15T22:04:03Z</time>
   </trkpt>
   <trkpt lat="37.2403350" lon="127.0795290">
    <ele>78.7</ele>
    <time>2026-08-15T22:04:04Z</time>
   </trkpt>
   <trkpt lat="37.2403350" lon="127.0795480">
    <ele>78.7</ele>
    <time>2026-08-15T22:04:05Z</time>
   </trkpt>
   <trkpt lat="37.2403380" lon="127.0795710">
    <ele>78.7</ele>
    <time>2026-08-15T22:04:06Z</time>
   </trkpt>
   <trkpt lat="37.2403410" lon="127.0795830">
    <ele>78.7</ele>
    <time>2026-08-15T22:04:07Z</time>
   </trkpt>
   <trkpt lat="37.2403480" lon="127.0796030">
    <ele>78.7</ele>
    <time>2026-08-15T22:04:08Z</time>
   </trkpt>
   <trkpt lat="37.2403440" lon="127.0796150">
    <ele>78.7</ele>
    <time>2026-08-15T22:04:09Z</time>
   </trkpt>
   <trkpt lat="37.2403470" lon="127.0796330">
    <ele>78.7</ele>
    <time>2026-08-15T22:04:10Z</time>
   </trkpt>
   <trkpt lat="37.2403460" lon="127.0796460">
    <ele>78.7</ele>
    <time>2026-08-15T22:04:11Z</time>
   </trkpt>
   <trkpt lat="37.2403470" lon="127.0796590">
    <ele>78.7</ele>
    <time>2026-08-15T22:04:12Z</time>
   </trkpt>
   <trkpt lat="37.2403500" lon="127.0796750">
    <ele>78.7</ele>
    <time>2026-08-15T22:04:13Z</time>
   </trkpt>
   <trkpt lat="37.2403560" lon="127.0796930">
    <ele>78.7</ele>
    <time>2026-08-15T22:04:14Z</time>
   </trkpt>
   <trkpt lat="37.2403570" lon="127.0797090">
    <ele>78.7</ele>
    <time>2026-08-15T22:04:15Z</time>
   </trkpt>
   <trkpt lat="37.2403660" lon="127.0797310">
    <ele>78.7</ele>
    <time>2026-08-15T22:04:16Z</time>
   </trkpt>
   <trkpt lat="37.2403680" lon="127.0797470">
    <ele>78.7</ele>
    <time>2026-08-15T22:04:17Z</time>
   </trkpt>
   <trkpt lat="37.2403710" lon="127.0797650">
    <ele>78.7</ele>
    <time>2026-08-15T22:04:18Z</time>
   </trkpt>
   <trkpt lat="37.2403710" lon="127.0797830">
    <ele>78.7</ele>
    <time>2026-08-15T22:04:19Z</time>
   </trkpt>
   <trkpt lat="37.2403700" lon="127.0797980">
    <ele>78.7</ele>
    <time>2026-08-15T22:04:20Z</time>
   </trkpt>
   <trkpt lat="37.2403700" lon="127.0798220">
    <ele>78.7</ele>
    <time>2026-08-15T22:04:21Z</time>
   </trkpt>
   <trkpt lat="37.2403710" lon="127.0798390">
    <ele>78.7</ele>
    <time>2026-08-15T22:04:22Z</time>
   </trkpt>
   <trkpt lat="37.2403710" lon="127.0798660">
    <ele>78.6</ele>
    <time>2026-08-15T22:04:23Z</time>
   </trkpt>
   <trkpt lat="37.2403740" lon="127.0798800">
    <ele>78.6</ele>
    <time>2026-08-15T22:04:24Z</time>
   </trkpt>
   <trkpt lat="37.2403660" lon="127.0798880">
    <ele>78.6</ele>
    <time>2026-08-15T22:04:25Z</time>
   </trkpt>
   <trkpt lat="37.2403660" lon="127.0799080">
    <ele>78.6</ele>
    <time>2026-08-15T22:04:26Z</time>
   </trkpt>
   <trkpt lat="37.2403620" lon="127.0799230">
    <ele>78.6</ele>
    <time>2026-08-15T22:04:27Z</time>
   </trkpt>
   <trkpt lat="37.2403650" lon="127.0799350">
    <ele>78.6</ele>
    <time>2026-08-15T22:04:28Z</time>
   </trkpt>
   <trkpt lat="37.2403640" lon="127.0799510">
    <ele>78.6</ele>
    <time>2026-08-15T22:04:29Z</time>
   </trkpt>
   <trkpt lat="37.2403600" lon="127.0799630">
    <ele>78.6</ele>
    <time>2026-08-15T22:04:30Z</time>
   </trkpt>
   <trkpt lat="37.2403430" lon="127.0799880">
    <ele>78.5</ele>
    <time>2026-08-15T22:04:31Z</time>
   </trkpt>
   <trkpt lat="37.2403440" lon="127.0799970">
    <ele>78.5</ele>
    <time>2026-08-15T22:04:32Z</time>
   </trkpt>
   <trkpt lat="37.2403400" lon="127.0800180">
    <ele>78.5</ele>
    <time>2026-08-15T22:04:33Z</time>
   </trkpt>
   <trkpt lat="37.2403340" lon="127.0800330">
    <ele>78.5</ele>
    <time>2026-08-15T22:04:34Z</time>
   </trkpt>
   <trkpt lat="37.2403340" lon="127.0800430">
    <ele>78.4</ele>
    <time>2026-08-15T22:04:35Z</time>
   </trkpt>
   <trkpt lat="37.2403300" lon="127.0800640">
    <ele>78.4</ele>
    <time>2026-08-15T22:04:36Z</time>
   </trkpt>
   <trkpt lat="37.2403270" lon="127.0800790">
    <ele>78.4</ele>
    <time>2026-08-15T22:04:37Z</time>
   </trkpt>
   <trkpt lat="37.2403290" lon="127.0800900">
    <ele>78.4</ele>
    <time>2026-08-15T22:04:38Z</time>
   </trkpt>
   <trkpt lat="37.2403260" lon="127.0800990">
    <ele>78.4</ele>
    <time>2026-08-15T22:04:39Z</time>
   </trkpt>
   <trkpt lat="37.2403260" lon="127.0801180">
    <ele>78.3</ele>
    <time>2026-08-15T22:04:40Z</time>
   </trkpt>
   <trkpt lat="37.2403270" lon="127.0801340">
    <ele>78.3</ele>
    <time>2026-08-15T22:04:41Z</time>
   </trkpt>
   <trkpt lat="37.2403300" lon="127.0801500">
    <ele>78.3</ele>
    <time>2026-08-15T22:04:42Z</time>
   </trkpt>
   <trkpt lat="37.2403260" lon="127.0801660">
    <ele>78.3</ele>
    <time>2026-08-15T22:04:43Z</time>
   </trkpt>
   <trkpt lat="37.2403240" lon="127.0801780">
    <ele>78.2</ele>
    <time>2026-08-15T22:04:44Z</time>
   </trkpt>
   <trkpt lat="37.2403240" lon="127.0801910">
    <ele>78.2</ele>
    <time>2026-08-15T22:04:45Z</time>
   </trkpt>
   <trkpt lat="37.2403200" lon="127.0802050">
    <ele>78.2</ele>
    <time>2026-08-15T22:04:46Z</time>
   </trkpt>
   <trkpt lat="37.2403130" lon="127.0802160">
    <ele>78.2</ele>
    <time>2026-08-15T22:04:47Z</time>
   </trkpt>
   <trkpt lat="37.2403130" lon="127.0802390">
    <ele>78.1</ele>
    <time>2026-08-15T22:04:48Z</time>
   </trkpt>
   <trkpt lat="37.2403150" lon="127.0802490">
    <ele>78.1</ele>
    <time>2026-08-15T22:04:49Z</time>
   </trkpt>
   <trkpt lat="37.2403110" lon="127.0802680">
    <ele>78.1</ele>
    <time>2026-08-15T22:04:50Z</time>
   </trkpt>
   <trkpt lat="37.2403120" lon="127.0802810">
    <ele>78.1</ele>
    <time>2026-08-15T22:04:51Z</time>
   </trkpt>
   <trkpt lat="37.2403100" lon="127.0802900">
    <ele>78.0</ele>
    <time>2026-08-15T22:04:52Z</time>
   </trkpt>
   <trkpt lat="37.2403030" lon="127.0803010">
    <ele>78.0</ele>
    <time>2026-08-15T22:04:53Z</time>
   </trkpt>
   <trkpt lat="37.2403030" lon="127.0803170">
    <ele>78.0</ele>
    <time>2026-08-15T22:04:54Z</time>
   </trkpt>
   <trkpt lat="37.2403060" lon="127.0803270">
    <ele>78.0</ele>
    <time>2026-08-15T22:04:55Z</time>
   </trkpt>
   <trkpt lat="37.2403070" lon="127.0803440">
    <ele>77.9</ele>
    <time>2026-08-15T22:04:56Z</time>
   </trkpt>
   <trkpt lat="37.2403120" lon="127.0803570">
    <ele>77.9</ele>
    <time>2026-08-15T22:04:57Z</time>
   </trkpt>
   <trkpt lat="37.2403130" lon="127.0803720">
    <ele>77.9</ele>
    <time>2026-08-15T22:04:58Z</time>
   </trkpt>
   <trkpt lat="37.2403080" lon="127.0803870">
    <ele>77.8</ele>
    <time>2026-08-15T22:04:59Z</time>
   </trkpt>
   <trkpt lat="37.2403060" lon="127.0803970">
    <ele>77.8</ele>
    <time>2026-08-15T22:05:00Z</time>
   </trkpt>
   <trkpt lat="37.2403060" lon="127.0804150">
    <ele>77.8</ele>
    <time>2026-08-15T22:05:01Z</time>
   </trkpt>
   <trkpt lat="37.2403040" lon="127.0804230">
    <ele>77.8</ele>
    <time>2026-08-15T22:05:02Z</time>
   </trkpt>
   <trkpt lat="37.2403090" lon="127.0804450">
    <ele>77.7</ele>
    <time>2026-08-15T22:05:03Z</time>
   </trkpt>
   <trkpt lat="37.2403090" lon="127.0804600">
    <ele>77.7</ele>
    <time>2026-08-15T22:05:04Z</time>
   </trkpt>
   <trkpt lat="37.2403090" lon="127.0804730">
    <ele>77.6</ele>
    <time>2026-08-15T22:05:05Z</time>
   </trkpt>
   <trkpt lat="37.2403000" lon="127.0804860">
    <ele>77.6</ele>
    <time>2026-08-15T22:05:07Z</time>
   </trkpt>
   <trkpt lat="37.2403010" lon="127.0804950">
    <ele>77.6</ele>
    <time>2026-08-15T22:05:08Z</time>
   </trkpt>
   <trkpt lat="37.2402990" lon="127.0805100">
    <ele>77.6</ele>
    <time>2026-08-15T22:05:09Z</time>
   </trkpt>
   <trkpt lat="37.2403070" lon="127.0805250">
    <ele>77.5</ele>
    <time>2026-08-15T22:05:10Z</time>
   </trkpt>
   <trkpt lat="37.2403100" lon="127.0805420">
    <ele>77.5</ele>
    <time>2026-08-15T22:05:11Z</time>
   </trkpt>
   <trkpt lat="37.2403080" lon="127.0805520">
    <ele>77.5</ele>
    <time>2026-08-15T22:05:12Z</time>
   </trkpt>
   <trkpt lat="37.2403070" lon="127.0805700">
    <ele>77.4</ele>
    <time>2026-08-15T22:05:13Z</time>
   </trkpt>
   <trkpt lat="37.2403040" lon="127.0805800">
    <ele>77.4</ele>
    <time>2026-08-15T22:05:14Z</time>
   </trkpt>
   <trkpt lat="37.2403010" lon="127.0805960">
    <ele>77.4</ele>
    <time>2026-08-15T22:05:15Z</time>
   </trkpt>
   <trkpt lat="37.2403010" lon="127.0806110">
    <ele>77.3</ele>
    <time>2026-08-15T22:05:16Z</time>
   </trkpt>
   <trkpt lat="37.2403040" lon="127.0806230">
    <ele>77.3</ele>
    <time>2026-08-15T22:05:17Z</time>
   </trkpt>
   <trkpt lat="37.2403060" lon="127.0806390">
    <ele>77.3</ele>
    <time>2026-08-15T22:05:18Z</time>
   </trkpt>
   <trkpt lat="37.2403060" lon="127.0806510">
    <ele>77.2</ele>
    <time>2026-08-15T22:05:19Z</time>
   </trkpt>
   <trkpt lat="37.2403040" lon="127.0806650">
    <ele>77.2</ele>
    <time>2026-08-15T22:05:20Z</time>
   </trkpt>
   <trkpt lat="37.2402970" lon="127.0806790">
    <ele>77.2</ele>
    <time>2026-08-15T22:05:21Z</time>
   </trkpt>
   <trkpt lat="37.2402920" lon="127.0806910">
    <ele>77.1</ele>
    <time>2026-08-15T22:05:22Z</time>
   </trkpt>
   <trkpt lat="37.2402940" lon="127.0807080">
    <ele>77.1</ele>
    <time>2026-08-15T22:05:23Z</time>
   </trkpt>
   <trkpt lat="37.2402920" lon="127.0807260">
    <ele>77.1</ele>
    <time>2026-08-15T22:05:24Z</time>
   </trkpt>
   <trkpt lat="37.2402940" lon="127.0807460">
    <ele>77.0</ele>
    <time>2026-08-15T22:05:25Z</time>
   </trkpt>
   <trkpt lat="37.2402930" lon="127.0807560">
    <ele>77.0</ele>
    <time>2026-08-15T22:05:26Z</time>
   </trkpt>
   <trkpt lat="37.2402930" lon="127.0807700">
    <ele>77.0</ele>
    <time>2026-08-15T22:05:27Z</time>
   </trkpt>
   <trkpt lat="37.2402960" lon="127.0807900">
    <ele>76.9</ele>
    <time>2026-08-15T22:05:28Z</time>
   </trkpt>
   <trkpt lat="37.2402930" lon="127.0808030">
    <ele>76.9</ele>
    <time>2026-08-15T22:05:29Z</time>
   </trkpt>
   <trkpt lat="37.2402930" lon="127.0808220">
    <ele>76.9</ele>
    <time>2026-08-15T22:05:30Z</time>
   </trkpt>
   <trkpt lat="37.2402910" lon="127.0808340">
    <ele>76.8</ele>
    <time>2026-08-15T22:05:31Z</time>
   </trkpt>
   <trkpt lat="37.2402920" lon="127.0808470">
    <ele>76.8</ele>
    <time>2026-08-15T22:05:32Z</time>
   </trkpt>
   <trkpt lat="37.2402910" lon="127.0808620">
    <ele>76.8</ele>
    <time>2026-08-15T22:05:33Z</time>
   </trkpt>
   <trkpt lat="37.2402920" lon="127.0808790">
    <ele>76.7</ele>
    <time>2026-08-15T22:05:34Z</time>
   </trkpt>
   <trkpt lat="37.2402900" lon="127.0808960">
    <ele>76.7</ele>
    <time>2026-08-15T22:05:35Z</time>
   </trkpt>
   <trkpt lat="37.2402900" lon="127.0809300">
    <ele>76.6</ele>
    <time>2026-08-15T22:05:36Z</time>
   </trkpt>
   <trkpt lat="37.2402910" lon="127.0809470">
    <ele>76.6</ele>
    <time>2026-08-15T22:05:37Z</time>
   </trkpt>
   <trkpt lat="37.2402900" lon="127.0809600">
    <ele>76.5</ele>
    <time>2026-08-15T22:05:38Z</time>
   </trkpt>
   <trkpt lat="37.2402870" lon="127.0809760">
    <ele>76.5</ele>
    <time>2026-08-15T22:05:39Z</time>
   </trkpt>
   <trkpt lat="37.2402830" lon="127.0809900">
    <ele>76.5</ele>
    <time>2026-08-15T22:05:40Z</time>
   </trkpt>
   <trkpt lat="37.2402810" lon="127.0810060">
    <ele>76.4</ele>
    <time>2026-08-15T22:05:41Z</time>
   </trkpt>
   <trkpt lat="37.2402810" lon="127.0810190">
    <ele>76.4</ele>
    <time>2026-08-15T22:05:42Z</time>
   </trkpt>
   <trkpt lat="37.2402770" lon="127.0810330">
    <ele>76.4</ele>
    <time>2026-08-15T22:05:43Z</time>
   </trkpt>
   <trkpt lat="37.2402820" lon="127.0810540">
    <ele>76.3</ele>
    <time>2026-08-15T22:05:44Z</time>
   </trkpt>
   <trkpt lat="37.2402790" lon="127.0810650">
    <ele>76.3</ele>
    <time>2026-08-15T22:05:45Z</time>
   </trkpt>
   <trkpt lat="37.2402800" lon="127.0810820">
    <ele>76.3</ele>
    <time>2026-08-15T22:05:46Z</time>
   </trkpt>
   <trkpt lat="37.2402830" lon="127.0810950">
    <ele>76.2</ele>
    <time>2026-08-15T22:05:47Z</time>
   </trkpt>
   <trkpt lat="37.2402770" lon="127.0811070">
    <ele>76.2</ele>
    <time>2026-08-15T22:05:48Z</time>
   </trkpt>
   <trkpt lat="37.2402810" lon="127.0811260">
    <ele>76.2</ele>
    <time>2026-08-15T22:05:49Z</time>
   </trkpt>
   <trkpt lat="37.2402830" lon="127.0811370">
    <ele>76.1</ele>
    <time>2026-08-15T22:05:50Z</time>
   </trkpt>
   <trkpt lat="37.2402880" lon="127.0811540">
    <ele>76.1</ele>
    <time>2026-08-15T22:05:51Z</time>
   </trkpt>
   <trkpt lat="37.2402870" lon="127.0811680">
    <ele>76.1</ele>
    <time>2026-08-15T22:05:52Z</time>
   </trkpt>
   <trkpt lat="37.2402880" lon="127.0811860">
    <ele>76.0</ele>
    <time>2026-08-15T22:05:53Z</time>
   </trkpt>
   <trkpt lat="37.2402870" lon="127.0812030">
    <ele>76.0</ele>
    <time>2026-08-15T22:05:54Z</time>
   </trkpt>
   <trkpt lat="37.2402920" lon="127.0812210">
    <ele>76.0</ele>
    <time>2026-08-15T22:05:55Z</time>
   </trkpt>
   <trkpt lat="37.2402950" lon="127.0812400">
    <ele>75.9</ele>
    <time>2026-08-15T22:05:56Z</time>
   </trkpt>
   <trkpt lat="37.2402950" lon="127.0812540">
    <ele>75.9</ele>
    <time>2026-08-15T22:05:57Z</time>
   </trkpt>
   <trkpt lat="37.2402990" lon="127.0812720">
    <ele>75.8</ele>
    <time>2026-08-15T22:05:58Z</time>
   </trkpt>
   <trkpt lat="37.2402970" lon="127.0812860">
    <ele>75.8</ele>
    <time>2026-08-15T22:05:59Z</time>
   </trkpt>
   <trkpt lat="37.2402960" lon="127.0813010">
    <ele>75.8</ele>
    <time>2026-08-15T22:06:00Z</time>
   </trkpt>
   <trkpt lat="37.2402980" lon="127.0813170">
    <ele>75.7</ele>
    <time>2026-08-15T22:06:01Z</time>
   </trkpt>
   <trkpt lat="37.2402990" lon="127.0813320">
    <ele>75.7</ele>
    <time>2026-08-15T22:06:02Z</time>
   </trkpt>
   <trkpt lat="37.2402980" lon="127.0813460">
    <ele>75.7</ele>
    <time>2026-08-15T22:06:03Z</time>
   </trkpt>
   <trkpt lat="37.2402980" lon="127.0813610">
    <ele>75.7</ele>
    <time>2026-08-15T22:06:04Z</time>
   </trkpt>
   <trkpt lat="37.2402960" lon="127.0813800">
    <ele>75.6</ele>
    <time>2026-08-15T22:06:05Z</time>
   </trkpt>
   <trkpt lat="37.2402970" lon="127.0813960">
    <ele>75.6</ele>
    <time>2026-08-15T22:06:06Z</time>
   </trkpt>
   <trkpt lat="37.2402880" lon="127.0814090">
    <ele>75.5</ele>
    <time>2026-08-15T22:06:07Z</time>
   </trkpt>
   <trkpt lat="37.2402860" lon="127.0814250">
    <ele>75.5</ele>
    <time>2026-08-15T22:06:08Z</time>
   </trkpt>
   <trkpt lat="37.2402810" lon="127.0814420">
    <ele>75.5</ele>
    <time>2026-08-15T22:06:09Z</time>
   </trkpt>
   <trkpt lat="37.2402840" lon="127.0814560">
    <ele>75.4</ele>
    <time>2026-08-15T22:06:10Z</time>
   </trkpt>
   <trkpt lat="37.2402840" lon="127.0814690">
    <ele>75.4</ele>
    <time>2026-08-15T22:06:11Z</time>
   </trkpt>
   <trkpt lat="37.2402840" lon="127.0814850">
    <ele>75.4</ele>
    <time>2026-08-15T22:06:12Z</time>
   </trkpt>
   <trkpt lat="37.2402870" lon="127.0814930">
    <ele>75.4</ele>
    <time>2026-08-15T22:06:13Z</time>
   </trkpt>
   <trkpt lat="37.2402880" lon="127.0815120">
    <ele>75.3</ele>
    <time>2026-08-15T22:06:14Z</time>
   </trkpt>
   <trkpt lat="37.2402810" lon="127.0815310">
    <ele>75.3</ele>
    <time>2026-08-15T22:06:15Z</time>
   </trkpt>
   <trkpt lat="37.2402820" lon="127.0815440">
    <ele>75.2</ele>
    <time>2026-08-15T22:06:16Z</time>
   </trkpt>
   <trkpt lat="37.2402810" lon="127.0815610">
    <ele>75.2</ele>
    <time>2026-08-15T22:06:17Z</time>
   </trkpt>
   <trkpt lat="37.2402830" lon="127.0815770">
    <ele>75.2</ele>
    <time>2026-08-15T22:06:18Z</time>
   </trkpt>
   <trkpt lat="37.2402840" lon="127.0815940">
    <ele>75.1</ele>
    <time>2026-08-15T22:06:19Z</time>
   </trkpt>
   <trkpt lat="37.2402800" lon="127.0816120">
    <ele>75.1</ele>
    <time>2026-08-15T22:06:20Z</time>
   </trkpt>
   <trkpt lat="37.2402810" lon="127.0816270">
    <ele>75.0</ele>
    <time>2026-08-15T22:06:21Z</time>
   </trkpt>
   <trkpt lat="37.2402770" lon="127.0816420">
    <ele>75.0</ele>
    <time>2026-08-15T22:06:22Z</time>
   </trkpt>
   <trkpt lat="37.2402800" lon="127.0816560">
    <ele>75.0</ele>
    <time>2026-08-15T22:06:23Z</time>
   </trkpt>
   <trkpt lat="37.2402800" lon="127.0816560">
    <ele>75.0</ele>
    <time>2026-08-15T22:06:24Z</time>
   </trkpt>
  </trkseg>
 </trk>
</gpx>
