<?xml version="1.0" encoding="UTF-8"?>
<gpx creator="StravaGPX" version="1.1" xmlns="http://www.topografix.com/GPX/1/1" xmlns:xsi="http://www.w3.org/2001/XMLSchema-instance" xsi:schemaLocation="http://www.topografix.com/GPX/1/1 http://www.topografix.com/GPX/1/1/gpx.xsd">
 <metadata>
  <time>2026-08-19T11:06:50Z</time>
 </metadata>
 <trk>
  <name>김재형_급경사내리막_5회차</name>
  <type>walking</type>
  <trkseg>
   <trkpt lat="37.2416070" lon="127.0774720">
    <ele>76.9</ele>
    <time>2026-08-19T11:06:50Z</time>
   </trkpt>
   <trkpt lat="37.2416070" lon="127.0774720">
    <ele>76.9</ele>
    <time>2026-08-19T11:06:51Z</time>
   </trkpt>
   <trkpt lat="37.2416110" lon="127.0774640">
    <ele>76.8</ele>
    <time>2026-08-19T11:06:52Z</time>
   </trkpt>
   <trkpt lat="37.2416160" lon="127.0774580">
    <ele>76.7</ele>
    <time>2026-08-19T11:06:53Z</time>
   </trkpt>
   <trkpt lat="37.2416180" lon="127.0774490">
    <ele>76.7</ele>
    <time>2026-08-19T11:06:54Z</time>
   </trkpt>
   <trkpt lat="37.2416190" lon="127.0774370">
    <ele>76.6</ele>
    <time>2026-08-19T11:06:55Z</time>
   </trkpt>
   <trkpt lat="37.2416220" lon="127.0774250">
    <ele>76.4</ele>
    <time>2026-08-19T11:06:56Z</time>
   </trkpt>
   <trkpt lat="37.2416260" lon="127.0774120">
    <ele>76.3</ele>
    <time>2026-08-19T11:06:57Z</time>
   </trkpt>
   <trkpt lat="37.2416240" lon="127.0773990">
    <ele>76.2</ele>
    <time>2026-08-19T11:06:58Z</time>
   </trkpt>
   <trkpt lat="37.2416220" lon="127.0773860">
    <ele>76.1</ele>
    <time>2026-08-19T11:06:59Z</time>
   </trkpt>
   <trkpt lat="37.2416200" lon="127.0773740">
    <ele>76.0</ele>
    <time>2026-08-19T11:07:00Z</time>
   </trkpt>
   <trkpt lat="37.2416230" lon="127.0773600">
    <ele>75.8</ele>
    <time>2026-08-19T11:07:01Z</time>
   </trkpt>
   <trkpt lat="37.2416240" lon="127.0773470">
    <ele>75.7</ele>
    <time>2026-08-19T11:07:02Z</time>
   </trkpt>
   <trkpt lat="37.2416250" lon="127.0773360">
    <ele>75.6</ele>
    <time>2026-08-19T11:07:03Z</time>
   </trkpt>
   <trkpt lat="37.2416290" lon="127.0773280">
    <ele>75.4</ele>
    <time>2026-08-19T11:07:04Z</time>
   </trkpt>
   <trkpt lat="37.2416320" lon="127.0773180">
    <ele>75.3</ele>
    <time>2026-08-19T11:07:05Z</time>
   </trkpt>
   <trkpt lat="37.2416320" lon="127.0773010">
    <ele>75.1</ele>
    <time>2026-08-19T11:07:06Z</time>
   </trkpt>
   <trkpt lat="37.2416300" lon="127.0772860">
    <ele>75.0</ele>
    <time>2026-08-19T11:07:07Z</time>
   </trkpt>
   <trkpt lat="37.2416260" lon="127.0772720">
    <ele>74.8</ele>
    <time>2026-08-19T11:07:08Z</time>
   </trkpt>
   <trkpt lat="37.2416240" lon="127.0772600">
    <ele>74.6</ele>
    <time>2026-08-19T11:07:09Z</time>
   </trkpt>
   <trkpt lat="37.2416230" lon="127.0772460">
    <ele>74.5</ele>
    <time>2026-08-19T11:07:10Z</time>
   </trkpt>
   <trkpt lat="37.2416220" lon="127.0772370">
    <ele>74.4</ele>
    <time>2026-08-19T11:07:11Z</time>
   </trkpt>
   <trkpt lat="37.2416200" lon="127.0772240">
    <ele>74.2</ele>
    <time>2026-08-19T11:07:12Z</time>
   </trkpt>
   <trkpt lat="37.2416200" lon="127.0772120">
    <ele>74.0</ele>
    <time>2026-08-19T11:07:13Z</time>
   </trkpt>
   <trkpt lat="37.2416190" lon="127.0772010">
    <ele>73.9</ele>
    <time>2026-08-19T11:07:14Z</time>
   </trkpt>
   <trkpt lat="37.2416180" lon="127.0771890">
    <ele>73.8</ele>
    <time>2026-08-19T11:07:15Z</time>
   </trkpt>
   <trkpt lat="37.2416180" lon="127.0771770">
    <ele>73.6</ele>
    <time>2026-08-19T11:07:16Z</time>
   </trkpt>
   <trkpt lat="37.2416180" lon="127.0771630">
    <ele>73.4</ele>
    <time>2026-08-19T11:07:17Z</time>
   </trkpt>
   <trkpt lat="37.2416170" lon="127.0771490">
    <ele>73.3</ele>
    <time>2026-08-19T11:07:18Z</time>
   </trkpt>
   <trkpt lat="37.2416160" lon="127.0771400">
    <ele>73.1</ele>
    <time>2026-08-19T11:07:19Z</time>
   </trkpt>
   <trkpt lat="37.2416140" lon="127.0771250">
    <ele>72.9</ele>
    <time>2026-08-19T11:07:20Z</time>
   </trkpt>
   <trkpt lat="37.2416160" lon="127.0771150">
    <ele>72.8</ele>
    <time>2026-08-19T11:07:21Z</time>
   </trkpt>
   <trkpt lat="37.2416170" lon="127.0771050">
    <ele>72.7</ele>
    <time>2026-08-19T11:07:22Z</time>
   </trkpt>
   <trkpt lat="37.2416190" lon="127.0770950">
    <ele>72.6</ele>
    <time>2026-08-19T11:07:23Z</time>
   </trkpt>
   <trkpt lat="37.2416210" lon="127.0770850">
    <ele>72.4</ele>
    <time>2026-08-19T11:07:24Z</time>
   </trkpt>
   <trkpt lat="37.2416230" lon="127.0770750">
    <ele>72.3</ele>
    <time>2026-08-19T11:07:25Z</time>
   </trkpt>
   <trkpt lat="37.2416280" lon="127.0770650">
    <ele>72.2</ele>
    <time>2026-08-19T11:07:26Z</time>
   </trkpt>
   <trkpt lat="37.2416320" lon="127.0770490">
    <ele>72.0</ele>
    <time>2026-08-19T11:07:27Z</time>
   </trkpt>
   <trkpt lat="37.2416380" lon="127.0770350">
    <ele>71.8</ele>
    <time>2026-08-19T11:07:28Z</time>
   </trkpt>
   <trkpt lat="37.2416420" lon="127.0770240">
    <ele>71.6</ele>
    <time>2026-08-19T11:07:29Z</time>
   </trkpt>
   <trkpt lat="37.2416420" lon="127.0770160">
    <ele>71.6</ele>
    <time>2026-08-19T11:07:30Z</time>
   </trkpt>
   <trkpt lat="37.2416450" lon="127.0770030">
    <ele>71.4</ele>
    <time>2026-08-19T11:07:31Z</time>
   </trkpt>
   <trkpt lat="37.2416470" lon="127.0769900">
    <ele>71.2</ele>
    <time>2026-08-19T11:07:32Z</time>
   </trkpt>
   <trkpt lat="37.2416450" lon="127.0769800">
    <ele>71.1</ele>
    <time>2026-08-19T11:07:33Z</time>
   </trkpt>
   <trkpt lat="37.2416460" lon="127.0769660">
    <ele>71.0</ele>
    <time>2026-08-19T11:07:34Z</time>
   </trkpt>
   <trkpt lat="37.2416470" lon="127.0769560">
    <ele>71.0</ele>
    <time>2026-08-19T11:07:35Z</time>
   </trkpt>
   <trkpt lat="37.2416440" lon="127.0769470">
    <ele>70.9</ele>
    <time>2026-08-19T11:07:36Z</time>
   </trkpt>
   <trkpt lat="37.2416440" lon="127.0769340">
    <ele>70.9</ele>
    <time>2026-08-19T11:07:37Z</time>
   </trkpt>
   <trkpt lat="37.2416450" lon="127.0769230">
    <ele>70.9</ele>
    <time>2026-08-19T11:07:38Z</time>
   </trkpt>
   <trkpt lat="37.2416460" lon="127.0769070">
    <ele>70.8</ele>
    <time>2026-08-19T11:07:39Z</time>
   </trkpt>
   <trkpt lat="37.2416480" lon="127.0769030">
    <ele>70.8</ele>
    <time>2026-08-19T11:07:40Z</time>
   </trkpt>
   <trkpt lat="37.2416500" lon="127.0768940">
    <ele>70.8</ele>
    <time>2026-08-19T11:07:41Z</time>
   </trkpt>
   <trkpt lat="37.2416520" lon="127.0768870">
    <ele>70.8</ele>
    <time>2026-08-19T11:07:42Z</time>
   </trkpt>
   <trkpt lat="37.2416560" lon="127.0768800">
    <ele>70.7</ele>
    <time>2026-08-19T11:07:43Z</time>
   </trkpt>
   <trkpt lat="37.2416580" lon="127.0768640">
    <ele>70.7</ele>
    <time>2026-08-19T11:07:44Z</time>
   </trkpt>
   <trkpt lat="37.2416550" lon="127.0768530">
    <ele>70.6</ele>
    <time>2026-08-19T11:07:45Z</time>
   </trkpt>
   <trkpt lat="37.2416540" lon="127.0768380">
    <ele>70.6</ele>
    <time>2026-08-19T11:07:46Z</time>
   </trkpt>
   <trkpt lat="37.2416550" lon="127.0768310">
    <ele>70.5</ele>
    <time>2026-08-19T11:07:47Z</time>
   </trkpt>
   <trkpt lat="37.2416500" lon="127.0768210">
    <ele>70.5</ele>
    <time>2026-08-19T11:07:48Z</time>
   </trkpt>
   <trkpt lat="37.2416510" lon="127.0768080">
    <ele>70.4</ele>
    <time>2026-08-19T11:07:49Z</time>
   </trkpt>
   <trkpt lat="37.2416520" lon="127.0767950">
    <ele>70.4</ele>
    <time>2026-08-19T11:07:50Z</time>
   </trkpt>
   <trkpt lat="37.2416500" lon="127.0767820">
    <ele>70.3</ele>
    <time>2026-08-19T11:07:51Z</time>
   </trkpt>
   <trkpt lat="37.2416500" lon="127.0767730">
    <ele>70.3</ele>
    <time>2026-08-19T11:07:52Z</time>
   </trkpt>
   <trkpt lat="37.2416520" lon="127.0767620">
    <ele>70.2</ele>
    <time>2026-08-19T11:07:53Z</time>
   </trkpt>
   <trkpt lat="37.2416540" lon="127.0767520">
    <ele>70.2</ele>
    <time>2026-08-19T11:07:54Z</time>
   </trkpt>
   <trkpt lat="37.2416570" lon="127.0767370">
    <ele>70.1</ele>
    <time>2026-08-19T11:07:55Z</time>
   </trkpt>
   <trkpt lat="37.2416600" lon="127.0767240">
    <ele>70.0</ele>
    <time>2026-08-19T11:07:56Z</time>
   </trkpt>
   <trkpt lat="37.2416660" lon="127.0767110">
    <ele>69.9</ele>
    <time>2026-08-19T11:07:57Z</time>
   </trkpt>
   <trkpt lat="37.2416680" lon="127.0766980">
    <ele>69.8</ele>
    <time>2026-08-19T11:07:58Z</time>
   </trkpt>
   <trkpt lat="37.2416680" lon="127.0766940">
    <ele>69.8</ele>
    <time>2026-08-19T11:07:59Z</time>
   </trkpt>
   <trkpt lat="37.2416700" lon="127.0766820">
    <ele>69.7</ele>
    <time>2026-08-19T11:08:00Z</time>
   </trkpt>
   <trkpt lat="37.2416720" lon="127.0766710">
    <ele>69.6</ele>
    <time>2026-08-19T11:08:01Z</time>
   </trkpt>
   <trkpt lat="37.2416720" lon="127.0766570">
    <ele>69.5</ele>
    <time>2026-08-19T11:08:02Z</time>
   </trkpt>
   <trkpt lat="37.2416720" lon="127.0766450">
    <ele>69.5</ele>
    <time>2026-08-19T11:08:03Z</time>
   </trkpt>
   <trkpt lat="37.2416740" lon="127.0766370">
    <ele>69.4</ele>
    <time>2026-08-19T11:08:04Z</time>
   </trkpt>
   <trkpt lat="37.2416740" lon="127.0766230">
    <ele>69.3</ele>
    <time>2026-08-19T11:08:05Z</time>
   </trkpt>
   <trkpt lat="37.2416730" lon="127.0766140">
    <ele>69.2</ele>
    <time>2026-08-19T11:08:06Z</time>
   </trkpt>
   <trkpt lat="37.2416740" lon="127.0766010">
    <ele>69.1</ele>
    <time>2026-08-19T11:08:07Z</time>
   </trkpt>
   <trkpt lat="37.2416750" lon="127.0765940">
    <ele>69.1</ele>
    <time>2026-08-19T11:08:08Z</time>
   </trkpt>
   <trkpt lat="37.2416750" lon="127.0765830">
    <ele>69.0</ele>
    <time>2026-08-19T11:08:09Z</time>
   </trkpt>
   <trkpt lat="37.2416760" lon="127.0765750">
    <ele>69.0</ele>
    <time>2026-08-19T11:08:10Z</time>
   </trkpt>
   <trkpt lat="37.2416760" lon="127.0765620">
    <ele>68.9</ele>
    <time>2026-08-19T11:08:11Z</time>
   </trkpt>
   <trkpt lat="37.2416770" lon="127.0765510">
    <ele>68.8</ele>
    <time>2026-08-19T11:08:12Z</time>
   </trkpt>
   <trkpt lat="37.2416770" lon="127.0765450">
    <ele>68.7</ele>
    <time>2026-08-19T11:08:13Z</time>
   </trkpt>
   <trkpt lat="37.2416780" lon="127.0765360">
    <ele>68.7</ele>
    <time>2026-08-19T11:08:14Z</time>
   </trkpt>
   <trkpt lat="37.2416800" lon="127.0765260">
    <ele>68.6</ele>
    <time>2026-08-19T11:08:15Z</time>
   </trkpt>
   <trkpt lat="37.2416820" lon="127.0765150">
    <ele>68.5</ele>
    <time>2026-08-19T11:08:16Z</time>
   </trkpt>
   <trkpt lat="37.2416850" lon="127.0765030">
    <ele>68.4</ele>
    <time>2026-08-19T11:08:17Z</time>
   </trkpt>
   <trkpt lat="37.2416890" lon="127.0764950">
    <ele>68.4</ele>
    <time>2026-08-19T11:08:18Z</time>
   </trkpt>
   <trkpt lat="37.2416950" lon="127.0764880">
    <ele>68.3</ele>
    <time>2026-08-19T11:08:19Z</time>
   </trkpt>
   <trkpt lat="37.2417000" lon="127.0764790">
    <ele>68.2</ele>
    <time>2026-08-19T11:08:20Z</time>
   </trkpt>
   <trkpt lat="37.2417020" lon="127.0764660">
    <ele>68.1</ele>
    <time>2026-08-19T11:08:21Z</time>
   </trkpt>
   <trkpt lat="37.2417040" lon="127.0764530">
    <ele>68.0</ele>
    <time>2026-08-19T11:08:22Z</time>
   </trkpt>
   <trkpt lat="37.2417050" lon="127.0764460">
    <ele>68.0</ele>
    <time>2026-08-19T11:08:23Z</time>
   </trkpt>
   <trkpt lat="37.2417080" lon="127.0764360">
    <ele>67.9</ele>
    <time>2026-08-19T11:08:24Z</time>
   </trkpt>
   <trkpt lat="37.2417130" lon="127.0764240">
    <ele>67.8</ele>
    <time>2026-08-19T11:08:25Z</time>
   </trkpt>
   <trkpt lat="37.2417150" lon="127.0764110">
    <ele>67.7</ele>
    <time>2026-08-19T11:08:26Z</time>
   </trkpt>
   <trkpt lat="37.2417190" lon="127.0764050">
    <ele>67.6</ele>
    <time>2026-08-19T11:08:27Z</time>
   </trkpt>
   <trkpt lat="37.2417230" lon="127.0763960">
    <ele>67.5</ele>
    <time>2026-08-19T11:08:28Z</time>
   </trkpt>
   <trkpt lat="37.2417290" lon="127.0763850">
    <ele>67.5</ele>
    <time>2026-08-19T11:08:29Z</time>
   </trkpt>
   <trkpt lat="37.2417320" lon="127.0763720">
    <ele>67.4</ele>
    <time>2026-08-19T11:08:30Z</time>
   </trkpt>
   <trkpt lat="37.2417360" lon="127.0763630">
    <ele>67.3</ele>
    <time>2026-08-19T11:08:31Z</time>
   </trkpt>
   <trkpt lat="37.2417430" lon="127.0763550">
    <ele>67.2</ele>
    <time>2026-08-19T11:08:32Z</time>
   </trkpt>
   <trkpt lat="37.2417490" lon="127.0763440">
    <ele>67.1</ele>
    <time>2026-08-19T11:08:33Z</time>
   </trkpt>
   <trkpt lat="37.2417540" lon="127.0763360">
    <ele>67.0</ele>
    <time>2026-08-19T11:08:34Z</time>
   </trkpt>
   <trkpt lat="37.2417630" lon="127.0763260">
    <ele>66.9</ele>
    <time>2026-08-19T11:08:35Z</time>
   </trkpt>
   <trkpt lat="37.2417720" lon="127.0763170">
    <ele>66.8</ele>
    <time>2026-08-19T11:08:36Z</time>
   </trkpt>
   <trkpt lat="37.2417760" lon="127.0763130">
    <ele>66.8</ele>
    <time>2026-08-19T11:08:37Z</time>
   </trkpt>
   <trkpt lat="37.2417830" lon="127.0763050">
    <ele>66.7</ele>
    <time>2026-08-19T11:08:38Z</time>
   </trkpt>
   <trkpt lat="37.2417910" lon="127.0763000">
    <ele>66.6</ele>
    <time>2026-08-19T11:08:39Z</time>
   </trkpt>
   <trkpt lat="37.2418010" lon="127.0762920">
    <ele>66.5</ele>
    <time>2026-08-19T11:08:40Z</time>
   </trkpt>
   <trkpt lat="37.2418080" lon="127.0762860">
    <ele>66.4</ele>
    <time>2026-08-19T11:08:41Z</time>
   </trkpt>
   <trkpt lat="37.2418150" lon="127.0762810">
    <ele>66.4</ele>
    <time>2026-08-19T11:08:42Z</time>
   </trkpt>
   <trkpt lat="37.2418240" lon="127.0762740">
    <ele>66.3</ele>
    <time>2026-08-19T11:08:43Z</time>
   </trkpt>
   <trkpt lat="37.2418320" lon="127.0762710">
    <ele>66.2</ele>
    <time>2026-08-19T11:08:44Z</time>
   </trkpt>
   <trkpt lat="37.2418400" lon="127.0762650">
    <ele>66.1</ele>
    <time>2026-08-19T11:08:45Z</time>
   </trkpt>
   <trkpt lat="37.2418480" lon="127.0762570">
    <ele>66.0</ele>
    <time>2026-08-19T11:08:46Z</time>
   </trkpt>
   <trkpt lat="37.2418540" lon="127.0762530">
    <ele>66.0</ele>
    <time>2026-08-19T11:08:47Z</time>
   </trkpt>
   <trkpt lat="37.2418600" lon="127.0762490">
    <ele>65.9</ele>
    <time>2026-08-19T11:08:48Z</time>
   </trkpt>
   <trkpt lat="37.2418700" lon="127.0762440">
    <ele>65.8</ele>
    <time>2026-08-19T11:08:49Z</time>
   </trkpt>
   <trkpt lat="37.2418760" lon="127.0762400">
    <ele>65.8</ele>
    <time>2026-08-19T11:08:50Z</time>
   </trkpt>
   <trkpt lat="37.2418830" lon="127.0762340">
    <ele>65.7</ele>
    <time>2026-08-19T11:08:51Z</time>
   </trkpt>
   <trkpt lat="37.2418910" lon="127.0762270">
    <ele>65.7</ele>
    <time>2026-08-19T11:08:52Z</time>
   </trkpt>
   <trkpt lat="37.2418970" lon="127.0762220">
    <ele>65.6</ele>
    <time>2026-08-19T11:08:53Z</time>
   </trkpt>
   <trkpt lat="37.2419080" lon="127.0762180">
    <ele>65.5</ele>
    <time>2026-08-19T11:08:54Z</time>
   </trkpt>
   <trkpt lat="37.2419160" lon="127.0762060">
    <ele>65.5</ele>
    <time>2026-08-19T11:08:55Z</time>
   </trkpt>
   <trkpt lat="37.2419210" lon="127.0761970">
    <ele>65.4</ele>
    <time>2026-08-19T11:08:56Z</time>
   </trkpt>
   <trkpt lat="37.2419270" lon="127.0761900">
    <ele>65.4</ele>
    <time>2026-08-19T11:08:57Z</time>
   </trkpt>
   <trkpt lat="37.2419310" lon="127.0761790">
    <ele>65.3</ele>
    <time>2026-08-19T11:08:58Z</time>
   </trkpt>
   <trkpt lat="37.2419350" lon="127.0761710">
    <ele>65.3</ele>
    <time>2026-08-19T11:08:59Z</time>
   </trkpt>
   <trkpt lat="37.2419420" lon="127.0761580">
    <ele>65.2</ele>
    <time>2026-08-19T11:09:00Z</time>
   </trkpt>
   <trkpt lat="37.2419480" lon="127.0761460">
    <ele>65.1</ele>
    <time>2026-08-19T11:09:01Z</time>
   </trkpt>
   <trkpt lat="37.2419560" lon="127.0761350">
    <ele>65.1</ele>
    <time>2026-08-19T11:09:02Z</time>
   </trkpt>
   <trkpt lat="37.2419580" lon="127.0761240">
    <ele>65.0</ele>
    <time>2026-08-19T11:09:03Z</time>
   </trkpt>
   <trkpt lat="37.2419650" lon="127.0761110">
    <ele>64.8</ele>
    <time>2026-08-19T11:09:04Z</time>
   </trkpt>
   <trkpt lat="37.2419700" lon="127.0760970">
    <ele>64.6</ele>
    <time>2026-08-19T11:09:05Z</time>
   </trkpt>
   <trkpt lat="37.2419710" lon="127.0760880">
    <ele>64.4</ele>
    <time>2026-08-19T11:09:06Z</time>
   </trkpt>
   <trkpt lat="37.2419750" lon="127.0760780">
    <ele>64.2</ele>
    <time>2026-08-19T11:09:07Z</time>
   </trkpt>
   <trkpt lat="37.2419670" lon="127.0760720">
    <ele>64.0</ele>
    <time>2026-08-19T11:09:08Z</time>
   </trkpt>
   <trkpt lat="37.2419590" lon="127.0760510">
    <ele>63.7</ele>
    <time>2026-08-19T11:09:09Z</time>
   </trkpt>
   <trkpt lat="37.2419590" lon="127.0760360">
    <ele>63.4</ele>
    <time>2026-08-19T11:09:10Z</time>
   </trkpt>
   <trkpt lat="37.2419630" lon="127.0760250">
    <ele>63.2</ele>
    <time>2026-08-19T11:09:11Z</time>
   </trkpt>
   <trkpt lat="37.2419690" lon="127.0760140">
    <ele>63.0</ele>
    <time>2026-08-19T11:09:12Z</time>
   </trkpt>
  </trkseg>
 </trk>
</gpx>
