<?xml version="1.0" encoding="UTF-8"?>
<gpx creator="StravaGPX" version="1.1" xmlns="http://www.topografix.com/GPX/1/1" xmlns:xsi="http://www.w3.org/2001/XMLSchema-instance" xsi:schemaLocation="http://www.topografix.com/GPX/1/1 http://www.topografix.com/GPX/1/1/gpx.xsd">
 <metadata>
  <time>2026-08-18T07:48:33Z</time>
 </metadata>
 <trk>
  <name>김재형_평지_7회차</name>
  <type>walking</type>
  <trkseg>
   <trkpt lat="37.2395540" lon="127.0743890">
    <ele>51.5</ele>
    <time>2026-08-18T07:48:33Z</time>
   </trkpt>
   <trkpt lat="37.2395540" lon="127.0743890">
    <ele>51.5</ele>
    <time>2026-08-18T07:48:34Z</time>
   </trkpt>
   <trkpt lat="37.2395520" lon="127.0743810">
    <ele>51.4</ele>
    <time>2026-08-18T07:48:35Z</time>
   </trkpt>
   <trkpt lat="37.2395470" lon="127.0743720">
    <ele>51.4</ele>
    <time>2026-08-18T07:48:36Z</time>
   </trkpt>
   <trkpt lat="37.2395410" lon="127.0743620">
    <ele>51.4</ele>
    <time>2026-08-18T07:48:37Z</time>
   </trkpt>
   <trkpt lat="37.2395300" lon="127.0743550">
    <ele>51.4</ele>
    <time>2026-08-18T07:48:38Z</time>
   </trkpt>
   <trkpt lat="37.2395270" lon="127.0743470">
    <ele>51.4</ele>
    <time>2026-08-18T07:48:39Z</time>
   </trkpt>
   <trkpt lat="37.2395230" lon="127.0743420">
    <ele>51.4</ele>
    <time>2026-08-18T07:48:40Z</time>
   </trkpt>
   <trkpt lat="37.2395170" lon="127.0743330">
    <ele>51.4</ele>
    <time>2026-08-18T07:48:41Z</time>
   </trkpt>
   <trkpt lat="37.2395140" lon="127.0743370">
    <ele>51.3</ele>
    <time>2026-08-18T07:48:42Z</time>
   </trkpt>
   <trkpt lat="37.2395150" lon="127.0743360">
    <ele>51.3</ele>
    <time>2026-08-18T07:48:43Z</time>
   </trkpt>
   <trkpt lat="37.2395110" lon="127.0743320">
    <ele>51.3</ele>
    <time>2026-08-18T07:48:44Z</time>
   </trkpt>
   <trkpt lat="37.2394970" lon="127.0743070">
    <ele>51.3</ele>
    <time>2026-08-18T07:48:45Z</time>
   </trkpt>
   <trkpt lat="37.2394880" lon="127.0742950">
    <ele>51.3</ele>
    <time>2026-08-18T07:48:46Z</time>
   </trkpt>
   <trkpt lat="37.2394750" lon="127.0742850">
    <ele>51.2</ele>
    <time>2026-08-18T07:48:47Z</time>
   </trkpt>
   <trkpt lat="37.2394650" lon="127.0742750">
    <ele>51.2</ele>
    <time>2026-08-18T07:48:48Z</time>
   </trkpt>
   <trkpt lat="37.2394570" lon="127.0742690">
    <ele>51.2</ele>
    <time>2026-08-18T07:48:49Z</time>
   </trkpt>
   <trkpt lat="37.2394430" lon="127.0742640">
    <ele>51.2</ele>
    <time>2026-08-18T07:48:50Z</time>
   </trkpt>
   <trkpt lat="37.2394170" lon="127.0742440">
    <ele>51.1</ele>
    <time>2026-08-18T07:48:51Z</time>
   </trkpt>
   <trkpt lat="37.2393940" lon="127.0741990">
    <ele>51.1</ele>
    <time>2026-08-18T07:48:52Z</time>
   </trkpt>
   <trkpt lat="37.2393950" lon="127.0741970">
    <ele>51.1</ele>
    <time>2026-08-18T07:48:53Z</time>
   </trkpt>
   <trkpt lat="37.2393880" lon="127.0741850">
    <ele>51.0</ele>
    <time>2026-08-18T07:48:54Z</time>
   </trkpt>
   <trkpt lat="37.2393780" lon="127.0741810">
    <ele>51.0</ele>
    <time>2026-08-18T07:48:55Z</time>
   </trkpt>
   <trkpt lat="37.2393760" lon="127.0741780">
    <ele>51.0</ele>
    <time>2026-08-18T07:48:56Z</time>
   </trkpt>
   <trkpt lat="37.2393710" lon="127.0741730">
    <ele>51.0</ele>
    <time>2026-08-18T07:48:57Z</time>
   </trkpt>
   <trkpt lat="37.2393620" lon="127.0741670">
    <ele>51.0</ele>
    <time>2026-08-18T07:48:58Z</time>
   </trkpt>
   <trkpt lat="37.2393490" lon="127.0741570">
    <ele>51.0</ele>
    <time>2026-08-18T07:48:59Z</time>
   </trkpt>
   <trkpt lat="37.2393160" lon="127.0741440">
    <ele>50.9</ele>
    <time>2026-08-18T07:49:00Z</time>
   </trkpt>
   <trkpt lat="37.2393130" lon="127.0741470">
    <ele>50.9</ele>
    <time>2026-08-18T07:49:01Z</time>
   </trkpt>
   <trkpt lat="37.2393010" lon="127.0741340">
    <ele>50.9</ele>
    <time>2026-08-18T07:49:02Z</time>
   </trkpt>
   <trkpt lat="37.2392950" lon="127.0741390">
    <ele>50.9</ele>
    <time>2026-08-18T07:49:03Z</time>
   </trkpt>
   <trkpt lat="37.2393000" lon="127.0741310">
    <ele>50.8</ele>
    <time>2026-08-18T07:49:04Z</time>
   </trkpt>
   <trkpt lat="37.2392920" lon="127.0741230">
    <ele>50.8</ele>
    <time>2026-08-18T07:49:05Z</time>
   </trkpt>
   <trkpt lat="37.2392860" lon="127.0741230">
    <ele>50.8</ele>
    <time>2026-08-18T07:49:06Z</time>
   </trkpt>
   <trkpt lat="37.2392800" lon="127.0741170">
    <ele>50.8</ele>
    <time>2026-08-18T07:49:07Z</time>
   </trkpt>
   <trkpt lat="37.2392710" lon="127.0741100">
    <ele>50.8</ele>
    <time>2026-08-18T07:49:08Z</time>
   </trkpt>
   <trkpt lat="37.2392630" lon="127.0741010">
    <ele>50.8</ele>
    <time>2026-08-18T07:49:09Z</time>
   </trkpt>
   <trkpt lat="37.2392570" lon="127.0740950">
    <ele>50.8</ele>
    <time>2026-08-18T07:49:10Z</time>
   </trkpt>
   <trkpt lat="37.2392460" lon="127.0740830">
    <ele>50.8</ele>
    <time>2026-08-18T07:49:11Z</time>
   </trkpt>
   <trkpt lat="37.2392390" lon="127.0740710">
    <ele>50.7</ele>
    <time>2026-08-18T07:49:12Z</time>
   </trkpt>
   <trkpt lat="37.2392310" lon="127.0740690">
    <ele>50.7</ele>
    <time>2026-08-18T07:49:13Z</time>
   </trkpt>
   <trkpt lat="37.2392230" lon="127.0740630">
    <ele>50.7</ele>
    <time>2026-08-18T07:49:14Z</time>
   </trkpt>
   <trkpt lat="37.2392130" lon="127.0740600">
    <ele>50.7</ele>
    <time>2026-08-18T07:49:15Z</time>
   </trkpt>
   <trkpt lat="37.2392040" lon="127.0740520">
    <ele>50.7</ele>
    <time>2026-08-18T07:49:16Z</time>
   </trkpt>
   <trkpt lat="37.2391910" lon="127.0740410">
    <ele>50.7</ele>
    <time>2026-08-18T07:49:17Z</time>
   </trkpt>
   <trkpt lat="37.2391780" lon="127.0740330">
    <ele>50.6</ele>
    <time>2026-08-18T07:49:18Z</time>
   </trkpt>
   <trkpt lat="37.2391680" lon="127.0740360">
    <ele>50.6</ele>
    <time>2026-08-18T07:49:19Z</time>
   </trkpt>
   <trkpt lat="37.2391610" lon="127.0740360">
    <ele>50.6</ele>
    <time>2026-08-18T07:49:21Z</time>
   </trkpt>
   <trkpt lat="37.2391560" lon="127.0740310">
    <ele>50.6</ele>
    <time>2026-08-18T07:49:22Z</time>
   </trkpt>
   <trkpt lat="37.2391570" lon="127.0740140">
    <ele>50.6</ele>
    <time>2026-08-18T07:49:23Z</time>
   </trkpt>
   <trkpt lat="37.2391550" lon="127.0740080">
    <ele>50.6</ele>
    <time>2026-08-18T07:49:24Z</time>
   </trkpt>
   <trkpt lat="37.2391440" lon="127.0739920">
    <ele>50.6</ele>
    <time>2026-08-18T07:49:25Z</time>
   </trkpt>
   <trkpt lat="37.2391310" lon="127.0739820">
    <ele>50.5</ele>
    <time>2026-08-18T07:49:26Z</time>
   </trkpt>
   <trkpt lat="37.2391180" lon="127.0739750">
    <ele>50.5</ele>
    <time>2026-08-18T07:49:27Z</time>
   </trkpt>
   <trkpt lat="37.2391160" lon="127.0739660">
    <ele>50.5</ele>
    <time>2026-08-18T07:49:28Z</time>
   </trkpt>
   <trkpt lat="37.2391120" lon="127.0739540">
    <ele>50.5</ele>
    <time>2026-08-18T07:49:29Z</time>
   </trkpt>
   <trkpt lat="37.2390960" lon="127.0739480">
    <ele>50.5</ele>
    <time>2026-08-18T07:49:30Z</time>
   </trkpt>
   <trkpt lat="37.2390900" lon="127.0739480">
    <ele>50.5</ele>
    <time>2026-08-18T07:49:31Z</time>
   </trkpt>
   <trkpt lat="37.2390900" lon="127.0739350">
    <ele>50.4</ele>
    <time>2026-08-18T07:49:32Z</time>
   </trkpt>
   <trkpt lat="37.2390870" lon="127.0739250">
    <ele>50.4</ele>
    <time>2026-08-18T07:49:33Z</time>
   </trkpt>
   <trkpt lat="37.2390860" lon="127.0739150">
    <ele>50.4</ele>
    <time>2026-08-18T07:49:34Z</time>
   </trkpt>
   <trkpt lat="37.2390750" lon="127.0739050">
    <ele>50.4</ele>
    <time>2026-08-18T07:49:35Z</time>
   </trkpt>
   <trkpt lat="37.2390690" lon="127.0738960">
    <ele>50.4</ele>
    <time>2026-08-18T07:49:36Z</time>
   </trkpt>
   <trkpt lat="37.2390660" lon="127.0738940">
    <ele>50.4</ele>
    <time>2026-08-18T07:49:37Z</time>
   </trkpt>
   <trkpt lat="37.2390570" lon="127.0738820">
    <ele>50.4</ele>
    <time>2026-08-18T07:49:38Z</time>
   </trkpt>
   <trkpt lat="37.2390430" lon="127.0738750">
    <ele>50.4</ele>
    <time>2026-08-18T07:49:39Z</time>
   </trkpt>
   <trkpt lat="37.2390370" lon="127.0738730">
    <ele>50.3</ele>
    <time>2026-08-18T07:49:40Z</time>
   </trkpt>
   <trkpt lat="37.2390280" lon="127.0738750">
    <ele>50.3</ele>
    <time>2026-08-18T07:49:41Z</time>
   </trkpt>
   <trkpt lat="37.2390200" lon="127.0738690">
    <ele>50.3</ele>
    <time>2026-08-18T07:49:42Z</time>
   </trkpt>
   <trkpt lat="37.2390170" lon="127.0738620">
    <ele>50.3</ele>
    <time>2026-08-18T07:49:43Z</time>
   </trkpt>
   <trkpt lat="37.2390160" lon="127.0738570">
    <ele>50.3</ele>
    <time>2026-08-18T07:49:44Z</time>
   </trkpt>
   <trkpt lat="37.2390110" lon="127.0738470">
    <ele>50.3</ele>
    <time>2026-08-18T07:49:45Z</time>
   </trkpt>
   <trkpt lat="37.2390070" lon="127.0738230">
    <ele>50.3</ele>
    <time>2026-08-18T07:49:46Z</time>
   </trkpt>
   <trkpt lat="37.2390020" lon="127.0738060">
    <ele>50.2</ele>
    <time>2026-08-18T07:49:47Z</time>
   </trkpt>
   <trkpt lat="37.2390020" lon="127.0737970">
    <ele>50.2</ele>
    <time>2026-08-18T07:49:48Z</time>
   </trkpt>
   <trkpt lat="37.2390000" lon="127.0737900">
    <ele>50.2</ele>
    <time>2026-08-18T07:49:49Z</time>
   </trkpt>
   <trkpt lat="37.2390050" lon="127.0737780">
    <ele>50.2</ele>
    <time>2026-08-18T07:49:50Z</time>
   </trkpt>
   <trkpt lat="37.2390030" lon="127.0737600">
    <ele>50.2</ele>
    <time>2026-08-18T07:49:51Z</time>
   </trkpt>
   <trkpt lat="37.2390050" lon="127.0737450">
    <ele>50.2</ele>
    <time>2026-08-18T07:49:52Z</time>
   </trkpt>
   <trkpt lat="37.2390050" lon="127.0737270">
    <ele>50.2</ele>
    <time>2026-08-18T07:49:53Z</time>
   </trkpt>
   <trkpt lat="37.2390060" lon="127.0737160">
    <ele>50.1</ele>
    <time>2026-08-18T07:49:54Z</time>
   </trkpt>
   <trkpt lat="37.2390030" lon="127.0737050">
    <ele>50.1</ele>
    <time>2026-08-18T07:49:55Z</time>
   </trkpt>
   <trkpt lat="37.2390010" lon="127.0736820">
    <ele>50.1</ele>
    <time>2026-08-18T07:49:56Z</time>
   </trkpt>
   <trkpt lat="37.2390020" lon="127.0736850">
    <ele>50.1</ele>
    <time>2026-08-18T07:49:57Z</time>
   </trkpt>
   <trkpt lat="37.2389950" lon="127.0736640">
    <ele>50.1</ele>
    <time>2026-08-18T07:49:58Z</time>
   </trkpt>
   <trkpt lat="37.2389900" lon="127.0736440">
    <ele>50.1</ele>
    <time>2026-08-18T07:49:59Z</time>
   </trkpt>
   <trkpt lat="37.2389950" lon="127.0736340">
    <ele>50.0</ele>
    <time>2026-08-18T07:50:00Z</time>
   </trkpt>
   <trkpt lat="37.2389920" lon="127.0736250">
    <ele>50.0</ele>
    <time>2026-08-18T07:50:01Z</time>
   </trkpt>
   <trkpt lat="37.2389900" lon="127.0736150">
    <ele>50.0</ele>
    <time>2026-08-18T07:50:02Z</time>
   </trkpt>
   <trkpt lat="37.2389900" lon="127.0736030">
    <ele>50.0</ele>
    <time>2026-08-18T07:50:03Z</time>
   </trkpt>
   <trkpt lat="37.2389820" lon="127.0735940">
    <ele>50.0</ele>
    <time>2026-08-18T07:50:04Z</time>
   </trkpt>
   <trkpt lat="37.2389750" lon="127.0735960">
    <ele>50.0</ele>
    <time>2026-08-18T07:50:05Z</time>
   </trkpt>
   <trkpt lat="37.2389700" lon="127.0735890">
    <ele>50.0</ele>
    <time>2026-08-18T07:50:06Z</time>
   </trkpt>
   <trkpt lat="37.2389580" lon="127.0735760">
    <ele>49.9</ele>
    <time>2026-08-18T07:50:07Z</time>
   </trkpt>
   <trkpt lat="37.2389460" lon="127.0735690">
    <ele>49.9</ele>
    <time>2026-08-18T07:50:08Z</time>
   </trkpt>
   <trkpt lat="37.2389450" lon="127.0735650">
    <ele>49.9</ele>
    <time>2026-08-18T07:50:09Z</time>
   </trkpt>
   <trkpt lat="37.2389320" lon="127.0735600">
    <ele>49.9</ele>
    <time>2026-08-18T07:50:10Z</time>
   </trkpt>
   <trkpt lat="37.2389070" lon="127.0735500">
    <ele>49.9</ele>
    <time>2026-08-18T07:50:11Z</time>
   </trkpt>
   <trkpt lat="37.2388940" lon="127.0735450">
    <ele>49.8</ele>
    <time>2026-08-18T07:50:12Z</time>
   </trkpt>
   <trkpt lat="37.2388830" lon="127.0735430">
    <ele>49.8</ele>
    <time>2026-08-18T07:50:13Z</time>
   </trkpt>
   <trkpt lat="37.2388740" lon="127.0735410">
    <ele>49.8</ele>
    <time>2026-08-18T07:50:14Z</time>
   </trkpt>
   <trkpt lat="37.2388660" lon="127.0735350">
    <ele>49.8</ele>
    <time>2026-08-18T07:50:15Z</time>
   </trkpt>
   <trkpt lat="37.2388680" lon="127.0735250">
    <ele>49.8</ele>
    <time>2026-08-18T07:50:16Z</time>
   </trkpt>
   <trkpt lat="37.2388620" lon="127.0735110">
    <ele>49.8</ele>
    <time>2026-08-18T07:50:17Z</time>
   </trkpt>
   <trkpt lat="37.2388540" lon="127.0735080">
    <ele>49.7</ele>
    <time>2026-08-18T07:50:18Z</time>
   </trkpt>
   <trkpt lat="37.2388490" lon="127.0735000">
    <ele>49.7</ele>
    <time>2026-08-18T07:50:19Z</time>
   </trkpt>
   <trkpt lat="37.2388450" lon="127.0734970">
    <ele>49.7</ele>
    <time>2026-08-18T07:50:20Z</time>
   </trkpt>
   <trkpt lat="37.2388360" lon="127.0734770">
    <ele>49.7</ele>
    <time>2026-08-18T07:50:21Z</time>
   </trkpt>
   <trkpt lat="37.2388280" lon="127.0734640">
    <ele>49.7</ele>
    <time>2026-08-18T07:50:22Z</time>
   </trkpt>
   <trkpt lat="37.2388210" lon="127.0734590">
    <ele>49.7</ele>
    <time>2026-08-18T07:50:23Z</time>
   </trkpt>
   <trkpt lat="37.2388130" lon="127.0734510">
    <ele>49.6</ele>
    <time>2026-08-18T07:50:24Z</time>
   </trkpt>
   <trkpt lat="37.2388080" lon="127.0734460">
    <ele>49.6</ele>
    <time>2026-08-18T07:50:25Z</time>
   </trkpt>
   <trkpt lat="37.2387980" lon="127.0734380">
    <ele>49.6</ele>
    <time>2026-08-18T07:50:26Z</time>
   </trkpt>
   <trkpt lat="37.2387900" lon="127.0734310">
    <ele>49.6</ele>
    <time>2026-08-18T07:50:27Z</time>
   </trkpt>
   <trkpt lat="37.2387870" lon="127.0734190">
    <ele>49.6</ele>
    <time>2026-08-18T07:50:28Z</time>
   </trkpt>
   <trkpt lat="37.2387790" lon="127.0734060">
    <ele>49.5</ele>
    <time>2026-08-18T07:50:29Z</time>
   </trkpt>
   <trkpt lat="37.2387700" lon="127.0733950">
    <ele>49.5</ele>
    <time>2026-08-18T07:50:30Z</time>
   </trkpt>
   <trkpt lat="37.2387580" lon="127.0733930">
    <ele>49.5</ele>
    <time>2026-08-18T07:50:31Z</time>
   </trkpt>
   <trkpt lat="37.2387480" lon="127.0733860">
    <ele>49.5</ele>
    <time>2026-08-18T07:50:32Z</time>
   </trkpt>
   <trkpt lat="37.2387390" lon="127.0733790">
    <ele>49.5</ele>
    <time>2026-08-18T07:50:33Z</time>
   </trkpt>
   <trkpt lat="37.2387270" lon="127.0733720">
    <ele>49.4</ele>
    <time>2026-08-18T07:50:34Z</time>
   </trkpt>
   <trkpt lat="37.2387180" lon="127.0733670">
    <ele>49.4</ele>
    <time>2026-08-18T07:50:35Z</time>
   </trkpt>
   <trkpt lat="37.2387060" lon="127.0733640">
    <ele>49.4</ele>
    <time>2026-08-18T07:50:36Z</time>
   </trkpt>
   <trkpt lat="37.2386940" lon="127.0733570">
    <ele>49.4</ele>
    <time>2026-08-18T07:50:37Z</time>
   </trkpt>
   <trkpt lat="37.2386870" lon="127.0733480">
    <ele>49.4</ele>
    <time>2026-08-18T07:50:38Z</time>
   </trkpt>
   <trkpt lat="37.2386800" lon="127.0733420">
    <ele>49.3</ele>
    <time>2026-08-18T07:50:39Z</time>
   </trkpt>
   <trkpt lat="37.2386750" lon="127.0733410">
    <ele>49.3</ele>
    <time>2026-08-18T07:50:40Z</time>
   </trkpt>
   <trkpt lat="37.2386710" lon="127.0733380">
    <ele>49.3</ele>
    <time>2026-08-18T07:50:41Z</time>
   </trkpt>
   <trkpt lat="37.2386620" lon="127.0733210">
    <ele>49.3</ele>
    <time>2026-08-18T07:50:42Z</time>
   </trkpt>
   <trkpt lat="37.2386600" lon="127.0733150">
    <ele>49.3</ele>
    <time>2026-08-18T07:50:43Z</time>
   </trkpt>
   <trkpt lat="37.2386480" lon="127.0733050">
    <ele>49.3</ele>
    <time>2026-08-18T07:50:44Z</time>
   </trkpt>
   <trkpt lat="37.2386400" lon="127.0732930">
    <ele>49.2</ele>
    <time>2026-08-18T07:50:45Z</time>
   </trkpt>
   <trkpt lat="37.2386350" lon="127.0732920">
    <ele>49.2</ele>
    <time>2026-08-18T07:50:46Z</time>
   </trkpt>
   <trkpt lat="37.2386260" lon="127.0732870">
    <ele>49.2</ele>
    <time>2026-08-18T07:50:47Z</time>
   </trkpt>
   <trkpt lat="37.2386130" lon="127.0732740">
    <ele>49.2</ele>
    <time>2026-08-18T07:50:48Z</time>
   </trkpt>
   <trkpt lat="37.2386100" lon="127.0732690">
    <ele>49.2</ele>
    <time>2026-08-18T07:50:49Z</time>
   </trkpt>
   <trkpt lat="37.2386010" lon="127.0732630">
    <ele>49.1</ele>
    <time>2026-08-18T07:50:50Z</time>
   </trkpt>
   <trkpt lat="37.2385940" lon="127.0732490">
    <ele>49.1</ele>
    <time>2026-08-18T07:50:51Z</time>
   </trkpt>
   <trkpt lat="37.2385880" lon="127.0732480">
    <ele>49.1</ele>
    <time>2026-08-18T07:50:52Z</time>
   </trkpt>
   <trkpt lat="37.2385830" lon="127.0732310">
    <ele>49.1</ele>
    <time>2026-08-18T07:50:53Z</time>
   </trkpt>
   <trkpt lat="37.2385800" lon="127.0732270">
    <ele>49.1</ele>
    <time>2026-08-18T07:50:54Z</time>
   </trkpt>
   <trkpt lat="37.2385720" lon="127.0732230">
    <ele>49.0</ele>
    <time>2026-08-18T07:50:55Z</time>
   </trkpt>
   <trkpt lat="37.2385540" lon="127.0732120">
    <ele>49.0</ele>
    <time>2026-08-18T07:50:56Z</time>
   </trkpt>
   <trkpt lat="37.2385350" lon="127.0732090">
    <ele>49.0</ele>
    <time>2026-08-18T07:50:57Z</time>
   </trkpt>
   <trkpt lat="37.2385290" lon="127.0732040">
    <ele>48.9</ele>
    <time>2026-08-18T07:50:58Z</time>
   </trkpt>
   <trkpt lat="37.2385210" lon="127.0731950">
    <ele>48.9</ele>
    <time>2026-08-18T07:50:59Z</time>
   </trkpt>
   <trkpt lat="37.2385150" lon="127.0731940">
    <ele>48.9</ele>
    <time>2026-08-18T07:51:00Z</time>
   </trkpt>
   <trkpt lat="37.2385070" lon="127.0731850">
    <ele>48.9</ele>
    <time>2026-08-18T07:51:01Z</time>
   </trkpt>
   <trkpt lat="37.2385010" lon="127.0731760">
    <ele>48.9</ele>
    <time>2026-08-18T07:51:02Z</time>
   </trkpt>
   <trkpt lat="37.2384900" lon="127.0731700">
    <ele>48.9</ele>
    <time>2026-08-18T07:51:03Z</time>
   </trkpt>
   <trkpt lat="37.2384880" lon="127.0731560">
    <ele>48.8</ele>
    <time>2026-08-18T07:51:04Z</time>
   </trkpt>
   <trkpt lat="37.2384820" lon="127.0731500">
    <ele>48.8</ele>
    <time>2026-08-18T07:51:05Z</time>
   </trkpt>
   <trkpt lat="37.2384720" lon="127.0731430">
    <ele>48.8</ele>
    <time>2026-08-18T07:51:06Z</time>
   </trkpt>
   <trkpt lat="37.2384630" lon="127.0731330">
    <ele>48.8</ele>
    <time>2026-08-18T07:51:07Z</time>
   </trkpt>
   <trkpt lat="37.2384550" lon="127.0731290">
    <ele>48.8</ele>
    <time>2026-08-18T07:51:08Z</time>
   </trkpt>
   <trkpt lat="37.2384440" lon="127.0731230">
    <ele>48.8</ele>
    <time>2026-08-18T07:51:09Z</time>
   </trkpt>
   <trkpt lat="37.2384370" lon="127.0731220">
    <ele>48.7</ele>
    <time>2026-08-18T07:51:10Z</time>
   </trkpt>
   <trkpt lat="37.2384250" lon="127.0731150">
    <ele>48.7</ele>
    <time>2026-08-18T07:51:11Z</time>
   </trkpt>
   <trkpt lat="37.2384180" lon="127.0731050">
    <ele>48.7</ele>
    <time>2026-08-18T07:51:12Z</time>
   </trkpt>
   <trkpt lat="37.2384140" lon="127.0731000">
    <ele>48.7</ele>
    <time>2026-08-18T07:51:13Z</time>
   </trkpt>
   <trkpt lat="37.2384080" lon="127.0730860">
    <ele>48.7</ele>
    <time>2026-08-18T07:51:14Z</time>
   </trkpt>
   <trkpt lat="37.2384050" lon="127.0730820">
    <ele>48.7</ele>
    <time>2026-08-18T07:51:15Z</time>
   </trkpt>
   <trkpt lat="37.2383960" lon="127.0730740">
    <ele>48.6</ele>
    <time>2026-08-18T07:51:16Z</time>
   </trkpt>
   <trkpt lat="37.2383870" lon="127.0730660">
    <ele>48.6</ele>
    <time>2026-08-18T07:51:17Z</time>
   </trkpt>
   <trkpt lat="37.2383730" lon="127.0730520">
    <ele>48.6</ele>
    <time>2026-08-18T07:51:18Z</time>
   </trkpt>
   <trkpt lat="37.2383670" lon="127.0730460">
    <ele>48.6</ele>
    <time>2026-08-18T07:51:19Z</time>
   </trkpt>
   <trkpt lat="37.2383620" lon="127.0730410">
    <ele>48.6</ele>
    <time>2026-08-18T07:51:20Z</time>
   </trkpt>
   <trkpt lat="37.2383510" lon="127.0730330">
    <ele>48.6</ele>
    <time>2026-08-18T07:51:21Z</time>
   </trkpt>
   <trkpt lat="37.2383420" lon="127.0730250">
    <ele>48.5</ele>
    <time>2026-08-18T07:51:22Z</time>
   </trkpt>
   <trkpt lat="37.2383370" lon="127.0730210">
    <ele>48.5</ele>
    <time>2026-08-18T07:51:23Z</time>
   </trkpt>
   <trkpt lat="37.2383280" lon="127.0730110">
    <ele>48.5</ele>
    <time>2026-08-18T07:51:24Z</time>
   </trkpt>
   <trkpt lat="37.2383170" lon="127.0729970">
    <ele>48.5</ele>
    <time>2026-08-18T07:51:25Z</time>
   </trkpt>
   <trkpt lat="37.2383130" lon="127.0729940">
    <ele>48.5</ele>
    <time>2026-08-18T07:51:26Z</time>
   </trkpt>
   <trkpt lat="37.2383080" lon="127.0729860">
    <ele>48.5</ele>
    <time>2026-08-18T07:51:27Z</time>
   </trkpt>
   <trkpt lat="37.2382960" lon="127.0729790">
    <ele>48.4</ele>
    <time>2026-08-18T07:51:28Z</time>
   </trkpt>
   <trkpt lat="37.2382910" lon="127.0729810">
    <ele>48.4</ele>
    <time>2026-08-18T07:51:29Z</time>
   </trkpt>
   <trkpt lat="37.2382790" lon="127.0729700">
    <ele>48.4</ele>
    <time>2026-08-18T07:51:30Z</time>
   </trkpt>
   <trkpt lat="37.2382690" lon="127.0729660">
    <ele>48.4</ele>
    <time>2026-08-18T07:51:31Z</time>
   </trkpt>
   <trkpt lat="37.2382650" lon="127.0729660">
    <ele>48.4</ele>
    <time>2026-08-18T07:51:32Z</time>
   </trkpt>
   <trkpt lat="37.2382550" lon="127.0729650">
    <ele>48.4</ele>
    <time>2026-08-18T07:51:33Z</time>
   </trkpt>
   <trkpt lat="37.2382540" lon="127.0729650">
    <ele>48.4</ele>
    <time>2026-08-18T07:51:34Z</time>
   </trkpt>
   <trkpt lat="37.2382410" lon="127.0729600">
    <ele>48.3</ele>
    <time>2026-08-18T07:51:35Z</time>
   </trkpt>
   <trkpt lat="37.2382260" lon="127.0729560">
    <ele>48.3</ele>
    <time>2026-08-18T07:51:36Z</time>
   </trkpt>
   <trkpt lat="37.2382080" lon="127.0729540">
    <ele>48.3</ele>
    <time>2026-08-18T07:51:37Z</time>
   </trkpt>
   <trkpt lat="37.2382020" lon="127.0729470">
    <ele>48.3</ele>
    <time>2026-08-18T07:51:38Z</time>
   </trkpt>
   <trkpt lat="37.2381950" lon="127.0729430">
    <ele>48.2</ele>
    <time>2026-08-18T07:51:39Z</time>
   </trkpt>
   <trkpt lat="37.2381900" lon="127.0729370">
    <ele>48.2</ele>
    <time>2026-08-18T07:51:40Z</time>
   </trkpt>
   <trkpt lat="37.2381790" lon="127.0729340">
    <ele>48.2</ele>
    <time>2026-08-18T07:51:41Z</time>
   </trkpt>
   <trkpt lat="37.2381640" lon="127.0729250">
    <ele>48.2</ele>
    <time>2026-08-18T07:51:42Z</time>
   </trkpt>
   <trkpt lat="37.2381570" lon="127.0729160">
    <ele>48.2</ele>
    <time>2026-08-18T07:51:43Z</time>
   </trkpt>
   <trkpt lat="37.2381530" lon="127.0729070">
    <ele>48.1</ele>
    <time>2026-08-18T07:51:44Z</time>
   </trkpt>
   <trkpt lat="37.2381450" lon="127.0728950">
    <ele>48.1</ele>
    <time>2026-08-18T07:51:45Z</time>
   </trkpt>
   <trkpt lat="37.2381340" lon="127.0728840">
    <ele>48.1</ele>
    <time>2026-08-18T07:51:46Z</time>
   </trkpt>
   <trkpt lat="37.2381270" lon="127.0728700">
    <ele>48.1</ele>
    <time>2026-08-18T07:51:47Z</time>
   </trkpt>
   <trkpt lat="37.2381130" lon="127.0728670">
    <ele>48.1</ele>
    <time>2026-08-18T07:51:48Z</time>
   </trkpt>
   <trkpt lat="37.2381140" lon="127.0728520">
    <ele>48.0</ele>
    <time>2026-08-18T07:51:49Z</time>
   </trkpt>
   <trkpt lat="37.2381060" lon="127.0728400">
    <ele>48.0</ele>
    <time>2026-08-18T07:51:51Z</time>
   </trkpt>
   <trkpt lat="37.2380990" lon="127.0728350">
    <ele>48.0</ele>
    <time>2026-08-18T07:51:52Z</time>
   </trkpt>
   <trkpt lat="37.2380980" lon="127.0728260">
    <ele>48.0</ele>
    <time>2026-08-18T07:51:53Z</time>
   </trkpt>
   <trkpt lat="37.2380980" lon="127.0728140">
    <ele>48.0</ele>
    <time>2026-08-18T07:51:54Z</time>
   </trkpt>
   <trkpt lat="37.2380850" lon="127.0728130">
    <ele>47.9</ele>
    <time>2026-08-18T07:51:55Z</time>
   </trkpt>
   <trkpt lat="37.2380790" lon="127.0728020">
    <ele>47.9</ele>
    <time>2026-08-18T07:51:56Z</time>
   </trkpt>
   <trkpt lat="37.2380730" lon="127.0727970">
    <ele>47.9</ele>
    <time>2026-08-18T07:51:57Z</time>
   </trkpt>
   <trkpt lat="37.2380640" lon="127.0727930">
    <ele>47.9</ele>
    <time>2026-08-18T07:51:58Z</time>
   </trkpt>
   <trkpt lat="37.2380440" lon="127.0727920">
    <ele>47.8</ele>
    <time>2026-08-18T07:51:59Z</time>
   </trkpt>
   <trkpt lat="37.2380260" lon="127.0727890">
    <ele>47.8</ele>
    <time>2026-08-18T07:52:00Z</time>
   </trkpt>
   <trkpt lat="37.2380130" lon="127.0727800">
    <ele>47.8</ele>
    <time>2026-08-18T07:52:01Z</time>
   </trkpt>
  </trkseg>
 </trk>
</gpx>
