<?xml version="1.0" encoding="UTF-8"?>
<gpx creator="StravaGPX" version="1.1" xmlns="http://www.topografix.com/GPX/1/1" xmlns:xsi="http://www.w3.org/2001/XMLSchema-instance" xsi:schemaLocation="http://www.topografix.com/GPX/1/1 http://www.topografix.com/GPX/1/1/gpx.xsd">
 <metadata>
  <time>2026-08-14T18:38:42Z</time>
 </metadata>
 <trk>
  <name>김재형_완만오르막_1회차</name>
  <type>walking</type>
  <trkseg>
   <trkpt lat="37.2404430" lon="127.0729290">
    <ele>47.0</ele>
    <time>2026-08-14T18:38:42Z</time>
   </trkpt>
   <trkpt lat="37.2404430" lon="127.0729290">
    <ele>47.0</ele>
    <time>2026-08-14T18:38:43Z</time>
   </trkpt>
   <trkpt lat="37.2404410" lon="127.0729250">
    <ele>47.1</ele>
    <time>2026-08-14T18:38:44Z</time>
   </trkpt>
   <trkpt lat="37.2404390" lon="127.0729290">
    <ele>47.1</ele>
    <time>2026-08-14T18:38:45Z</time>
   </trkpt>
   <trkpt lat="37.2404310" lon="127.0729360">
    <ele>47.1</ele>
    <time>2026-08-14T18:38:46Z</time>
   </trkpt>
   <trkpt lat="37.2404280" lon="127.0729490">
    <ele>47.2</ele>
    <time>2026-08-14T18:38:47Z</time>
   </trkpt>
   <trkpt lat="37.2404350" lon="127.0729610">
    <ele>47.2</ele>
    <time>2026-08-14T18:38:48Z</time>
   </trkpt>
   <trkpt lat="37.2404410" lon="127.0729680">
    <ele>47.2</ele>
    <time>2026-08-14T18:38:49Z</time>
   </trkpt>
   <trkpt lat="37.2404400" lon="127.0729810">
    <ele>47.3</ele>
    <time>2026-08-14T18:38:50Z</time>
   </trkpt>
   <trkpt lat="37.2404370" lon="127.0729970">
    <ele>47.3</ele>
    <time>2026-08-14T18:38:51Z</time>
   </trkpt>
   <trkpt lat="37.2404330" lon="127.0730040">
    <ele>47.3</ele>
    <time>2026-08-14T18:38:52Z</time>
   </trkpt>
   <trkpt lat="37.2404290" lon="127.0730190">
    <ele>47.4</ele>
    <time>2026-08-14T18:38:53Z</time>
   </trkpt>
   <trkpt lat="37.2404270" lon="127.0730300">
    <ele>47.4</ele>
    <time>2026-08-14T18:38:54Z</time>
   </trkpt>
   <trkpt lat="37.2404240" lon="127.0730600">
    <ele>47.5</ele>
    <time>2026-08-14T18:38:55Z</time>
   </trkpt>
   <trkpt lat="37.2404150" lon="127.0730660">
    <ele>47.6</ele>
    <time>2026-08-14T18:38:56Z</time>
   </trkpt>
   <trkpt lat="37.2404160" lon="127.0730740">
    <ele>47.6</ele>
    <time>2026-08-14T18:38:57Z</time>
   </trkpt>
   <trkpt lat="37.2404150" lon="127.0730810">
    <ele>47.6</ele>
    <time>2026-08-14T18:38:58Z</time>
   </trkpt>
   <trkpt lat="37.2404140" lon="127.0730940">
    <ele>47.7</ele>
    <time>2026-08-14T18:38:59Z</time>
   </trkpt>
   <trkpt lat="37.2404080" lon="127.0731060">
    <ele>47.7</ele>
    <time>2026-08-14T18:39:00Z</time>
   </trkpt>
   <trkpt lat="37.2404050" lon="127.0731130">
    <ele>47.7</ele>
    <time>2026-08-14T18:39:01Z</time>
   </trkpt>
   <trkpt lat="37.2403930" lon="127.0731090">
    <ele>47.8</ele>
    <time>2026-08-14T18:39:02Z</time>
   </trkpt>
   <trkpt lat="37.2403860" lon="127.0731290">
    <ele>47.9</ele>
    <time>2026-08-14T18:39:03Z</time>
   </trkpt>
   <trkpt lat="37.2403840" lon="127.0731400">
    <ele>47.9</ele>
    <time>2026-08-14T18:39:04Z</time>
   </trkpt>
   <trkpt lat="37.2403890" lon="127.0731560">
    <ele>47.9</ele>
    <time>2026-08-14T18:39:05Z</time>
   </trkpt>
   <trkpt lat="37.2403900" lon="127.0731690">
    <ele>48.0</ele>
    <time>2026-08-14T18:39:06Z</time>
   </trkpt>
   <trkpt lat="37.2403900" lon="127.0731810">
    <ele>48.0</ele>
    <time>2026-08-14T18:39:07Z</time>
   </trkpt>
   <trkpt lat="37.2403890" lon="127.0731950">
    <ele>48.1</ele>
    <time>2026-08-14T18:39:08Z</time>
   </trkpt>
   <trkpt lat="37.2403880" lon="127.0732080">
    <ele>48.1</ele>
    <time>2026-08-14T18:39:09Z</time>
   </trkpt>
   <trkpt lat="37.2403870" lon="127.0732210">
    <ele>48.2</ele>
    <time>2026-08-14T18:39:10Z</time>
   </trkpt>
   <trkpt lat="37.2403840" lon="127.0732370">
    <ele>48.2</ele>
    <time>2026-08-14T18:39:11Z</time>
   </trkpt>
   <trkpt lat="37.2403930" lon="127.0732670">
    <ele>48.3</ele>
    <time>2026-08-14T18:39:12Z</time>
   </trkpt>
   <trkpt lat="37.2403980" lon="127.0732820">
    <ele>48.4</ele>
    <time>2026-08-14T18:39:13Z</time>
   </trkpt>
   <trkpt lat="37.2403940" lon="127.0732900">
    <ele>48.4</ele>
    <time>2026-08-14T18:39:14Z</time>
   </trkpt>
   <trkpt lat="37.2403960" lon="127.0733020">
    <ele>48.4</ele>
    <time>2026-08-14T18:39:15Z</time>
   </trkpt>
   <trkpt lat="37.2403940" lon="127.0733150">
    <ele>48.5</ele>
    <time>2026-08-14T18:39:16Z</time>
   </trkpt>
   <trkpt lat="37.2403910" lon="127.0733280">
    <ele>48.5</ele>
    <time>2026-08-14T18:39:17Z</time>
   </trkpt>
   <trkpt lat="37.2403930" lon="127.0733420">
    <ele>48.6</ele>
    <time>2026-08-14T18:39:18Z</time>
   </trkpt>
   <trkpt lat="37.2403830" lon="127.0733510">
    <ele>48.6</ele>
    <time>2026-08-14T18:39:19Z</time>
   </trkpt>
   <trkpt lat="37.2403790" lon="127.0733650">
    <ele>48.7</ele>
    <time>2026-08-14T18:39:20Z</time>
   </trkpt>
   <trkpt lat="37.2403750" lon="127.0733780">
    <ele>48.7</ele>
    <time>2026-08-14T18:39:21Z</time>
   </trkpt>
   <trkpt lat="37.2403710" lon="127.0733960">
    <ele>48.8</ele>
    <time>2026-08-14T18:39:22Z</time>
   </trkpt>
   <trkpt lat="37.2403660" lon="127.0734010">
    <ele>48.8</ele>
    <time>2026-08-14T18:39:23Z</time>
   </trkpt>
   <trkpt lat="37.2403660" lon="127.0734100">
    <ele>48.8</ele>
    <time>2026-08-14T18:39:24Z</time>
   </trkpt>
   <trkpt lat="37.2403660" lon="127.0734200">
    <ele>48.8</ele>
    <time>2026-08-14T18:39:25Z</time>
   </trkpt>
   <trkpt lat="37.2403640" lon="127.0734390">
    <ele>48.9</ele>
    <time>2026-08-14T18:39:26Z</time>
   </trkpt>
   <trkpt lat="37.2403660" lon="127.0734720">
    <ele>49.0</ele>
    <time>2026-08-14T18:39:27Z</time>
   </trkpt>
   <trkpt lat="37.2403670" lon="127.0734820">
    <ele>49.0</ele>
    <time>2026-08-14T18:39:28Z</time>
   </trkpt>
   <trkpt lat="37.2403580" lon="127.0734920">
    <ele>49.0</ele>
    <time>2026-08-14T18:39:29Z</time>
   </trkpt>
   <trkpt lat="37.2403580" lon="127.0735050">
    <ele>49.1</ele>
    <time>2026-08-14T18:39:30Z</time>
   </trkpt>
   <trkpt lat="37.2403560" lon="127.0735100">
    <ele>49.1</ele>
    <time>2026-08-14T18:39:31Z</time>
   </trkpt>
   <trkpt lat="37.2403510" lon="127.0735250">
    <ele>49.1</ele>
    <time>2026-08-14T18:39:32Z</time>
   </trkpt>
   <trkpt lat="37.2403480" lon="127.0735390">
    <ele>49.1</ele>
    <time>2026-08-14T18:39:33Z</time>
   </trkpt>
   <trkpt lat="37.2403460" lon="127.0735540">
    <ele>49.2</ele>
    <time>2026-08-14T18:39:34Z</time>
   </trkpt>
   <trkpt lat="37.2403420" lon="127.0735650">
    <ele>49.2</ele>
    <time>2026-08-14T18:39:35Z</time>
   </trkpt>
   <trkpt lat="37.2403400" lon="127.0735750">
    <ele>49.2</ele>
    <time>2026-08-14T18:39:36Z</time>
   </trkpt>
   <trkpt lat="37.2403370" lon="127.0735900">
    <ele>49.3</ele>
    <time>2026-08-14T18:39:37Z</time>
   </trkpt>
   <trkpt lat="37.2403320" lon="127.0736030">
    <ele>49.3</ele>
    <time>2026-08-14T18:39:38Z</time>
   </trkpt>
   <trkpt lat="37.2403300" lon="127.0736170">
    <ele>49.3</ele>
    <time>2026-08-14T18:39:39Z</time>
   </trkpt>
   <trkpt lat="37.2403270" lon="127.0736350">
    <ele>49.4</ele>
    <time>2026-08-14T18:39:40Z</time>
   </trkpt>
   <trkpt lat="37.2403220" lon="127.0736450">
    <ele>49.4</ele>
    <time>2026-08-14T18:39:41Z</time>
   </trkpt>
   <trkpt lat="37.2403190" lon="127.0736560">
    <ele>49.4</ele>
    <time>2026-08-14T18:39:42Z</time>
   </trkpt>
   <trkpt lat="37.2403190" lon="127.0736700">
    <ele>49.5</ele>
    <time>2026-08-14T18:39:43Z</time>
   </trkpt>
   <trkpt lat="37.2403110" lon="127.0736820">
    <ele>49.5</ele>
    <time>2026-08-14T18:39:44Z</time>
   </trkpt>
   <trkpt lat="37.2403040" lon="127.0736980">
    <ele>49.5</ele>
    <time>2026-08-14T18:39:45Z</time>
   </trkpt>
   <trkpt lat="37.2402950" lon="127.0737060">
    <ele>49.6</ele>
    <time>2026-08-14T18:39:46Z</time>
   </trkpt>
   <trkpt lat="37.2402890" lon="127.0737170">
    <ele>49.6</ele>
    <time>2026-08-14T18:39:47Z</time>
   </trkpt>
   <trkpt lat="37.2402830" lon="127.0737280">
    <ele>49.6</ele>
    <time>2026-08-14T18:39:48Z</time>
   </trkpt>
   <trkpt lat="37.2402760" lon="127.0737380">
    <ele>49.7</ele>
    <time>2026-08-14T18:39:49Z</time>
   </trkpt>
   <trkpt lat="37.2402710" lon="127.0737520">
    <ele>49.7</ele>
    <time>2026-08-14T18:39:50Z</time>
   </trkpt>
   <trkpt lat="37.2402670" lon="127.0737620">
    <ele>49.7</ele>
    <time>2026-08-14T18:39:51Z</time>
   </trkpt>
   <trkpt lat="37.2402630" lon="127.0737740">
    <ele>49.8</ele>
    <time>2026-08-14T18:39:52Z</time>
   </trkpt>
   <trkpt lat="37.2402610" lon="127.0737770">
    <ele>49.8</ele>
    <time>2026-08-14T18:39:53Z</time>
   </trkpt>
   <trkpt lat="37.2402580" lon="127.0737890">
    <ele>49.8</ele>
    <time>2026-08-14T18:39:54Z</time>
   </trkpt>
   <trkpt lat="37.2402520" lon="127.0738030">
    <ele>49.8</ele>
    <time>2026-08-14T18:39:55Z</time>
   </trkpt>
   <trkpt lat="37.2402460" lon="127.0738140">
    <ele>49.9</ele>
    <time>2026-08-14T18:39:56Z</time>
   </trkpt>
   <trkpt lat="37.2402420" lon="127.0738240">
    <ele>49.9</ele>
    <time>2026-08-14T18:39:57Z</time>
   </trkpt>
   <trkpt lat="37.2402410" lon="127.0738340">
    <ele>49.9</ele>
    <time>2026-08-14T18:39:58Z</time>
   </trkpt>
   <trkpt lat="37.2402390" lon="127.0738520">
    <ele>50.0</ele>
    <time>2026-08-14T18:39:59Z</time>
   </trkpt>
   <trkpt lat="37.2402350" lon="127.0738590">
    <ele>50.0</ele>
    <time>2026-08-14T18:40:00Z</time>
   </trkpt>
   <trkpt lat="37.2402330" lon="127.0738680">
    <ele>50.0</ele>
    <time>2026-08-14T18:40:01Z</time>
   </trkpt>
   <trkpt lat="37.2402290" lon="127.0738780">
    <ele>50.0</ele>
    <time>2026-08-14T18:40:02Z</time>
   </trkpt>
   <trkpt lat="37.2402260" lon="127.0738950">
    <ele>50.1</ele>
    <time>2026-08-14T18:40:03Z</time>
   </trkpt>
   <trkpt lat="37.2402220" lon="127.0739090">
    <ele>50.1</ele>
    <time>2026-08-14T18:40:04Z</time>
   </trkpt>
   <trkpt lat="37.2402200" lon="127.0739170">
    <ele>50.1</ele>
    <time>2026-08-14T18:40:05Z</time>
   </trkpt>
   <trkpt lat="37.2402150" lon="127.0739310">
    <ele>50.2</ele>
    <time>2026-08-14T18:40:06Z</time>
   </trkpt>
   <trkpt lat="37.2402100" lon="127.0739440">
    <ele>50.2</ele>
    <time>2026-08-14T18:40:07Z</time>
   </trkpt>
   <trkpt lat="37.2402040" lon="127.0739540">
    <ele>50.2</ele>
    <time>2026-08-14T18:40:08Z</time>
   </trkpt>
   <trkpt lat="37.2401940" lon="127.0739650">
    <ele>50.3</ele>
    <time>2026-08-14T18:40:09Z</time>
   </trkpt>
   <trkpt lat="37.2401870" lon="127.0739700">
    <ele>50.3</ele>
    <time>2026-08-14T18:40:10Z</time>
   </trkpt>
   <trkpt lat="37.2401790" lon="127.0739790">
    <ele>50.3</ele>
    <time>2026-08-14T18:40:11Z</time>
   </trkpt>
   <trkpt lat="37.2401700" lon="127.0739930">
    <ele>50.4</ele>
    <time>2026-08-14T18:40:12Z</time>
   </trkpt>
   <trkpt lat="37.2401610" lon="127.0740010">
    <ele>50.4</ele>
    <time>2026-08-14T18:40:13Z</time>
   </trkpt>
   <trkpt lat="37.2401530" lon="127.0740070">
    <ele>50.4</ele>
    <time>2026-08-14T18:40:14Z</time>
   </trkpt>
   <trkpt lat="37.2401510" lon="127.0740180">
    <ele>50.4</ele>
    <time>2026-08-14T18:40:15Z</time>
   </trkpt>
   <trkpt lat="37.2401460" lon="127.0740230">
    <ele>50.5</ele>
    <time>2026-08-14T18:40:16Z</time>
   </trkpt>
   <trkpt lat="37.2401410" lon="127.0740390">
    <ele>50.5</ele>
    <time>2026-08-14T18:40:17Z</time>
   </trkpt>
   <trkpt lat="37.2401370" lon="127.0740520">
    <ele>50.5</ele>
    <time>2026-08-14T18:40:18Z</time>
   </trkpt>
   <trkpt lat="37.2401360" lon="127.0740600">
    <ele>50.5</ele>
    <time>2026-08-14T18:40:19Z</time>
   </trkpt>
   <trkpt lat="37.2401320" lon="127.0740700">
    <ele>50.6</ele>
    <time>2026-08-14T18:40:20Z</time>
   </trkpt>
   <trkpt lat="37.2401270" lon="127.0740780">
    <ele>50.6</ele>
    <time>2026-08-14T18:40:21Z</time>
   </trkpt>
   <trkpt lat="37.2401210" lon="127.0740880">
    <ele>50.6</ele>
    <time>2026-08-14T18:40:22Z</time>
   </trkpt>
   <trkpt lat="37.2401130" lon="127.0740980">
    <ele>50.6</ele>
    <time>2026-08-14T18:40:23Z</time>
   </trkpt>
   <trkpt lat="37.2401080" lon="127.0741160">
    <ele>50.7</ele>
    <time>2026-08-14T18:40:24Z</time>
   </trkpt>
   <trkpt lat="37.2401060" lon="127.0741300">
    <ele>50.7</ele>
    <time>2026-08-14T18:40:25Z</time>
   </trkpt>
   <trkpt lat="37.2401110" lon="127.0741430">
    <ele>50.8</ele>
    <time>2026-08-14T18:40:26Z</time>
   </trkpt>
   <trkpt lat="37.2401120" lon="127.0741600">
    <ele>50.8</ele>
    <time>2026-08-14T18:40:27Z</time>
   </trkpt>
   <trkpt lat="37.2401030" lon="127.0741760">
    <ele>50.8</ele>
    <time>2026-08-14T18:40:28Z</time>
   </trkpt>
   <trkpt lat="37.2400950" lon="127.0741800">
    <ele>50.9</ele>
    <time>2026-08-14T18:40:29Z</time>
   </trkpt>
   <trkpt lat="37.2400870" lon="127.0741990">
    <ele>50.9</ele>
    <time>2026-08-14T18:40:30Z</time>
   </trkpt>
   <trkpt lat="37.2400880" lon="127.0742110">
    <ele>50.9</ele>
    <time>2026-08-14T18:40:31Z</time>
   </trkpt>
   <trkpt lat="37.2400820" lon="127.0742180">
    <ele>51.0</ele>
    <time>2026-08-14T18:40:32Z</time>
   </trkpt>
   <trkpt lat="37.2400760" lon="127.0742300">
    <ele>51.0</ele>
    <time>2026-08-14T18:40:33Z</time>
   </trkpt>
   <trkpt lat="37.2400710" lon="127.0742460">
    <ele>51.0</ele>
    <time>2026-08-14T18:40:34Z</time>
   </trkpt>
   <trkpt lat="37.2400640" lon="127.0742510">
    <ele>51.1</ele>
    <time>2026-08-14T18:40:35Z</time>
   </trkpt>
   <trkpt lat="37.2400600" lon="127.0742650">
    <ele>51.1</ele>
    <time>2026-08-14T18:40:36Z</time>
   </trkpt>
   <trkpt lat="37.2400570" lon="127.0742810">
    <ele>51.1</ele>
    <time>2026-08-14T18:40:37Z</time>
   </trkpt>
   <trkpt lat="37.2400530" lon="127.0742990">
    <ele>51.2</ele>
    <time>2026-08-14T18:40:38Z</time>
   </trkpt>
   <trkpt lat="37.2400430" lon="127.0743160">
    <ele>51.2</ele>
    <time>2026-08-14T18:40:39Z</time>
   </trkpt>
   <trkpt lat="37.2400430" lon="127.0743140">
    <ele>51.2</ele>
    <time>2026-08-14T18:40:40Z</time>
   </trkpt>
   <trkpt lat="37.2400360" lon="127.0743250">
    <ele>51.3</ele>
    <time>2026-08-14T18:40:41Z</time>
   </trkpt>
   <trkpt lat="37.2400310" lon="127.0743330">
    <ele>51.3</ele>
    <time>2026-08-14T18:40:42Z</time>
   </trkpt>
   <trkpt lat="37.2400250" lon="127.0743460">
    <ele>51.3</ele>
    <time>2026-08-14T18:40:43Z</time>
   </trkpt>
   <trkpt lat="37.2400240" lon="127.0743550">
    <ele>51.3</ele>
    <time>2026-08-14T18:40:44Z</time>
   </trkpt>
   <trkpt lat="37.2400180" lon="127.0743680">
    <ele>51.4</ele>
    <time>2026-08-14T18:40:45Z</time>
   </trkpt>
   <trkpt lat="37.2400140" lon="127.0743770">
    <ele>51.4</ele>
    <time>2026-08-14T18:40:46Z</time>
   </trkpt>
   <trkpt lat="37.2400040" lon="127.0743890">
    <ele>51.4</ele>
    <time>2026-08-14T18:40:47Z</time>
   </trkpt>
   <trkpt lat="37.2399870" lon="127.0744100">
    <ele>51.5</ele>
    <time>2026-08-14T18:40:48Z</time>
   </trkpt>
   <trkpt lat="37.2399850" lon="127.0744150">
    <ele>51.5</ele>
    <time>2026-08-14T18:40:49Z</time>
   </trkpt>
   <trkpt lat="37.2399790" lon="127.0744230">
    <ele>51.6</ele>
    <time>2026-08-14T18:40:50Z</time>
   </trkpt>
   <trkpt lat="37.2399670" lon="127.0744290">
    <ele>51.6</ele>
    <time>2026-08-14T18:40:51Z</time>
   </trkpt>
   <trkpt lat="37.2399600" lon="127.0744350">
    <ele>51.6</ele>
    <time>2026-08-14T18:40:52Z</time>
   </trkpt>
   <trkpt lat="37.2399460" lon="127.0744400">
    <ele>51.7</ele>
    <time>2026-08-14T18:40:53Z</time>
   </trkpt>
   <trkpt lat="37.2399320" lon="127.0744500">
    <ele>51.7</ele>
    <time>2026-08-14T18:40:54Z</time>
   </trkpt>
   <trkpt lat="37.2399320" lon="127.0744500">
    <ele>51.7</ele>
    <time>2026-08-14T18:40:55Z</time>
   </trkpt>
  </trkseg>
 </trk>
</gpx>
