<?xml version="1.0" encoding="UTF-8"?>
<gpx creator="StravaGPX" version="1.1" xmlns="http://www.topografix.com/GPX/1/1" xmlns:xsi="http://www.w3.org/2001/XMLSchema-instance" xsi:schemaLocation="http://www.topografix.com/GPX/1/1 http://www.topografix.com/GPX/1/1/gpx.xsd">
 <metadata>
  <time>2026-08-14T13:15:28Z</time>
 </metadata>
 <trk>
  <name>완내리막3</name>
  <type>walking</type>
  <trkseg>
   <trkpt lat="37.2478480" lon="127.0786910">
    <ele>76.2</ele>
    <time>2026-08-14T13:15:28Z</time>
   </trkpt>
   <trkpt lat="37.2478470" lon="127.0786860">
    <ele>76.2</ele>
    <time>2026-08-14T13:15:29Z</time>
   </trkpt>
   <trkpt lat="37.2478480" lon="127.0786760">
    <ele>76.1</ele>
    <time>2026-08-14T13:15:30Z</time>
   </trkpt>
   <trkpt lat="37.2478450" lon="127.0786640">
    <ele>76.1</ele>
    <time>2026-08-14T13:15:31Z</time>
   </trkpt>
   <trkpt lat="37.2478400" lon="127.0786550">
    <ele>76.1</ele>
    <time>2026-08-14T13:15:32Z</time>
   </trkpt>
   <trkpt lat="37.2478400" lon="127.0786410">
    <ele>76.0</ele>
    <time>2026-08-14T13:15:33Z</time>
   </trkpt>
   <trkpt lat="37.2478400" lon="127.0786300">
    <ele>76.0</ele>
    <time>2026-08-14T13:15:35Z</time>
   </trkpt>
   <trkpt lat="37.2478400" lon="127.0786200">
    <ele>76.0</ele>
    <time>2026-08-14T13:15:36Z</time>
   </trkpt>
   <trkpt lat="37.2478420" lon="127.0786050">
    <ele>75.9</ele>
    <time>2026-08-14T13:15:37Z</time>
   </trkpt>
   <trkpt lat="37.2478380" lon="127.0785910">
    <ele>75.9</ele>
    <time>2026-08-14T13:15:38Z</time>
   </trkpt>
   <trkpt lat="37.2478330" lon="127.0785790">
    <ele>75.9</ele>
    <time>2026-08-14T13:15:39Z</time>
   </trkpt>
   <trkpt lat="37.2478320" lon="127.0785680">
    <ele>75.8</ele>
    <time>2026-08-14T13:15:40Z</time>
   </trkpt>
   <trkpt lat="37.2478300" lon="127.0785540">
    <ele>75.8</ele>
    <time>2026-08-14T13:15:41Z</time>
   </trkpt>
   <trkpt lat="37.2478300" lon="127.0785430">
    <ele>75.7</ele>
    <time>2026-08-14T13:15:42Z</time>
   </trkpt>
   <trkpt lat="37.2478290" lon="127.0785310">
    <ele>75.7</ele>
    <time>2026-08-14T13:15:43Z</time>
   </trkpt>
   <trkpt lat="37.2478240" lon="127.0785190">
    <ele>75.6</ele>
    <time>2026-08-14T13:15:44Z</time>
   </trkpt>
   <trkpt lat="37.2478240" lon="127.0785090">
    <ele>75.6</ele>
    <time>2026-08-14T13:15:45Z</time>
   </trkpt>
   <trkpt lat="37.2478220" lon="127.0784960">
    <ele>75.6</ele>
    <time>2026-08-14T13:15:46Z</time>
   </trkpt>
   <trkpt lat="37.2478230" lon="127.0784830">
    <ele>75.5</ele>
    <time>2026-08-14T13:15:47Z</time>
   </trkpt>
   <trkpt lat="37.2478240" lon="127.0784710">
    <ele>75.5</ele>
    <time>2026-08-14T13:15:48Z</time>
   </trkpt>
   <trkpt lat="37.2478260" lon="127.0784580">
    <ele>75.4</ele>
    <time>2026-08-14T13:15:49Z</time>
   </trkpt>
   <trkpt lat="37.2478260" lon="127.0784460">
    <ele>75.4</ele>
    <time>2026-08-14T13:15:50Z</time>
   </trkpt>
   <trkpt lat="37.2478230" lon="127.0784300">
    <ele>75.3</ele>
    <time>2026-08-14T13:15:51Z</time>
   </trkpt>
   <trkpt lat="37.2478200" lon="127.0784150">
    <ele>75.3</ele>
    <time>2026-08-14T13:15:52Z</time>
   </trkpt>
   <trkpt lat="37.2478180" lon="127.0783990">
    <ele>75.2</ele>
    <time>2026-08-14T13:15:53Z</time>
   </trkpt>
   <trkpt lat="37.2478160" lon="127.0783850">
    <ele>75.2</ele>
    <time>2026-08-14T13:15:54Z</time>
   </trkpt>
   <trkpt lat="37.2478130" lon="127.0783710">
    <ele>75.1</ele>
    <time>2026-08-14T13:15:55Z</time>
   </trkpt>
   <trkpt lat="37.2478150" lon="127.0783560">
    <ele>75.1</ele>
    <time>2026-08-14T13:15:56Z</time>
   </trkpt>
   <trkpt lat="37.2478140" lon="127.0783440">
    <ele>75.0</ele>
    <time>2026-08-14T13:15:57Z</time>
   </trkpt>
   <trkpt lat="37.2478140" lon="127.0783300">
    <ele>75.0</ele>
    <time>2026-08-14T13:15:58Z</time>
   </trkpt>
   <trkpt lat="37.2478130" lon="127.0783160">
    <ele>75.0</ele>
    <time>2026-08-14T13:15:59Z</time>
   </trkpt>
   <trkpt lat="37.2478120" lon="127.0783020">
    <ele>74.9</ele>
    <time>2026-08-14T13:16:00Z</time>
   </trkpt>
   <trkpt lat="37.2478140" lon="127.0782900">
    <ele>74.9</ele>
    <time>2026-08-14T13:16:01Z</time>
   </trkpt>
   <trkpt lat="37.2478140" lon="127.0782750">
    <ele>74.8</ele>
    <time>2026-08-14T13:16:02Z</time>
   </trkpt>
   <trkpt lat="37.2478130" lon="127.0782610">
    <ele>74.8</ele>
    <time>2026-08-14T13:16:03Z</time>
   </trkpt>
   <trkpt lat="37.2478140" lon="127.0782470">
    <ele>74.7</ele>
    <time>2026-08-14T13:16:04Z</time>
   </trkpt>
   <trkpt lat="37.2478160" lon="127.0782370">
    <ele>74.7</ele>
    <time>2026-08-14T13:16:05Z</time>
   </trkpt>
   <trkpt lat="37.2478190" lon="127.0782250">
    <ele>74.7</ele>
    <time>2026-08-14T13:16:06Z</time>
   </trkpt>
   <trkpt lat="37.2478150" lon="127.0782110">
    <ele>74.6</ele>
    <time>2026-08-14T13:16:07Z</time>
   </trkpt>
   <trkpt lat="37.2478160" lon="127.0781970">
    <ele>74.6</ele>
    <time>2026-08-14T13:16:08Z</time>
   </trkpt>
   <trkpt lat="37.2478170" lon="127.0781850">
    <ele>74.6</ele>
    <time>2026-08-14T13:16:09Z</time>
   </trkpt>
   <trkpt lat="37.2478190" lon="127.0781720">
    <ele>74.5</ele>
    <time>2026-08-14T13:16:10Z</time>
   </trkpt>
   <trkpt lat="37.2478180" lon="127.0781580">
    <ele>74.5</ele>
    <time>2026-08-14T13:16:11Z</time>
   </trkpt>
   <trkpt lat="37.2478180" lon="127.0781440">
    <ele>74.5</ele>
    <time>2026-08-14T13:16:12Z</time>
   </trkpt>
   <trkpt lat="37.2478160" lon="127.0781310">
    <ele>74.4</ele>
    <time>2026-08-14T13:16:13Z</time>
   </trkpt>
   <trkpt lat="37.2478120" lon="127.0781140">
    <ele>74.4</ele>
    <time>2026-08-14T13:16:14Z</time>
   </trkpt>
   <trkpt lat="37.2478090" lon="127.0781000">
    <ele>74.3</ele>
    <time>2026-08-14T13:16:15Z</time>
   </trkpt>
   <trkpt lat="37.2478070" lon="127.0780850">
    <ele>74.3</ele>
    <time>2026-08-14T13:16:16Z</time>
   </trkpt>
   <trkpt lat="37.2478070" lon="127.0780710">
    <ele>74.3</ele>
    <time>2026-08-14T13:16:17Z</time>
   </trkpt>
   <trkpt lat="37.2478050" lon="127.0780550">
    <ele>74.2</ele>
    <time>2026-08-14T13:16:18Z</time>
   </trkpt>
   <trkpt lat="37.2478030" lon="127.0780400">
    <ele>74.2</ele>
    <time>2026-08-14T13:16:19Z</time>
   </trkpt>
   <trkpt lat="37.2478000" lon="127.0780280">
    <ele>74.2</ele>
    <time>2026-08-14T13:16:20Z</time>
   </trkpt>
   <trkpt lat="37.2478000" lon="127.0780140">
    <ele>74.1</ele>
    <time>2026-08-14T13:16:21Z</time>
   </trkpt>
   <trkpt lat="37.2478010" lon="127.0780000">
    <ele>74.1</ele>
    <time>2026-08-14T13:16:22Z</time>
   </trkpt>
   <trkpt lat="37.2478020" lon="127.0779860">
    <ele>74.0</ele>
    <time>2026-08-14T13:16:23Z</time>
   </trkpt>
   <trkpt lat="37.2478020" lon="127.0779710">
    <ele>74.0</ele>
    <time>2026-08-14T13:16:24Z</time>
   </trkpt>
   <trkpt lat="37.2478010" lon="127.0779570">
    <ele>73.9</ele>
    <time>2026-08-14T13:16:25Z</time>
   </trkpt>
   <trkpt lat="37.2478010" lon="127.0779440">
    <ele>73.9</ele>
    <time>2026-08-14T13:16:26Z</time>
   </trkpt>
   <trkpt lat="37.2478010" lon="127.0779310">
    <ele>73.8</ele>
    <time>2026-08-14T13:16:27Z</time>
   </trkpt>
   <trkpt lat="37.2478030" lon="127.0779180">
    <ele>73.8</ele>
    <time>2026-08-14T13:16:28Z</time>
   </trkpt>
   <trkpt lat="37.2478010" lon="127.0779050">
    <ele>73.7</ele>
    <time>2026-08-14T13:16:29Z</time>
   </trkpt>
   <trkpt lat="37.2478020" lon="127.0778910">
    <ele>73.7</ele>
    <time>2026-08-14T13:16:30Z</time>
   </trkpt>
   <trkpt lat="37.2478010" lon="127.0778790">
    <ele>73.7</ele>
    <time>2026-08-14T13:16:31Z</time>
   </trkpt>
   <trkpt lat="37.2478050" lon="127.0778660">
    <ele>73.6</ele>
    <time>2026-08-14T13:16:32Z</time>
   </trkpt>
   <trkpt lat="37.2478080" lon="127.0778550">
    <ele>73.6</ele>
    <time>2026-08-14T13:16:33Z</time>
   </trkpt>
   <trkpt lat="37.2478110" lon="127.0778430">
    <ele>73.5</ele>
    <time>2026-08-14T13:16:34Z</time>
   </trkpt>
   <trkpt lat="37.2478130" lon="127.0778330">
    <ele>73.5</ele>
    <time>2026-08-14T13:16:35Z</time>
   </trkpt>
   <trkpt lat="37.2478140" lon="127.0778190">
    <ele>73.4</ele>
    <time>2026-08-14T13:16:36Z</time>
   </trkpt>
   <trkpt lat="37.2478160" lon="127.0778040">
    <ele>73.4</ele>
    <time>2026-08-14T13:16:37Z</time>
   </trkpt>
   <trkpt lat="37.2478140" lon="127.0777920">
    <ele>73.4</ele>
    <time>2026-08-14T13:16:38Z</time>
   </trkpt>
   <trkpt lat="37.2478140" lon="127.0777770">
    <ele>73.3</ele>
    <time>2026-08-14T13:16:39Z</time>
   </trkpt>
   <trkpt lat="37.2478140" lon="127.0777660">
    <ele>73.3</ele>
    <time>2026-08-14T13:16:40Z</time>
   </trkpt>
   <trkpt lat="37.2478110" lon="127.0777550">
    <ele>73.2</ele>
    <time>2026-08-14T13:16:41Z</time>
   </trkpt>
   <trkpt lat="37.2478080" lon="127.0777430">
    <ele>73.2</ele>
    <time>2026-08-14T13:16:42Z</time>
   </trkpt>
   <trkpt lat="37.2478060" lon="127.0777310">
    <ele>73.1</ele>
    <time>2026-08-14T13:16:43Z</time>
   </trkpt>
   <trkpt lat="37.2478120" lon="127.0777190">
    <ele>73.1</ele>
    <time>2026-08-14T13:16:44Z</time>
   </trkpt>
   <trkpt lat="37.2478140" lon="127.0777090">
    <ele>73.1</ele>
    <time>2026-08-14T13:16:45Z</time>
   </trkpt>
   <trkpt lat="37.2478200" lon="127.0776990">
    <ele>73.0</ele>
    <time>2026-08-14T13:16:46Z</time>
   </trkpt>
   <trkpt lat="37.2478240" lon="127.0776830">
    <ele>73.0</ele>
    <time>2026-08-14T13:16:47Z</time>
   </trkpt>
   <trkpt lat="37.2478310" lon="127.0776700">
    <ele>72.9</ele>
    <time>2026-08-14T13:16:48Z</time>
   </trkpt>
   <trkpt lat="37.2478370" lon="127.0776580">
    <ele>72.9</ele>
    <time>2026-08-14T13:16:49Z</time>
   </trkpt>
   <trkpt lat="37.2478440" lon="127.0776450">
    <ele>72.8</ele>
    <time>2026-08-14T13:16:50Z</time>
   </trkpt>
   <trkpt lat="37.2478460" lon="127.0776320">
    <ele>72.8</ele>
    <time>2026-08-14T13:16:51Z</time>
   </trkpt>
   <trkpt lat="37.2478470" lon="127.0776170">
    <ele>72.7</ele>
    <time>2026-08-14T13:16:52Z</time>
   </trkpt>
   <trkpt lat="37.2478490" lon="127.0776040">
    <ele>72.7</ele>
    <time>2026-08-14T13:16:53Z</time>
   </trkpt>
   <trkpt lat="37.2478530" lon="127.0775900">
    <ele>72.6</ele>
    <time>2026-08-14T13:16:54Z</time>
   </trkpt>
   <trkpt lat="37.2478540" lon="127.0775720">
    <ele>72.6</ele>
    <time>2026-08-14T13:16:55Z</time>
   </trkpt>
   <trkpt lat="37.2478520" lon="127.0775540">
    <ele>72.5</ele>
    <time>2026-08-14T13:16:56Z</time>
   </trkpt>
   <trkpt lat="37.2478510" lon="127.0775410">
    <ele>72.5</ele>
    <time>2026-08-14T13:16:57Z</time>
   </trkpt>
   <trkpt lat="37.2478520" lon="127.0775260">
    <ele>72.4</ele>
    <time>2026-08-14T13:16:58Z</time>
   </trkpt>
   <trkpt lat="37.2478500" lon="127.0775100">
    <ele>72.4</ele>
    <time>2026-08-14T13:16:59Z</time>
   </trkpt>
   <trkpt lat="37.2478480" lon="127.0774980">
    <ele>72.3</ele>
    <time>2026-08-14T13:17:00Z</time>
   </trkpt>
   <trkpt lat="37.2478470" lon="127.0774810">
    <ele>72.3</ele>
    <time>2026-08-14T13:17:01Z</time>
   </trkpt>
   <trkpt lat="37.2478450" lon="127.0774640">
    <ele>72.2</ele>
    <time>2026-08-14T13:17:02Z</time>
   </trkpt>
   <trkpt lat="37.2478410" lon="127.0774460">
    <ele>72.1</ele>
    <time>2026-08-14T13:17:03Z</time>
   </trkpt>
   <trkpt lat="37.2478410" lon="127.0774320">
    <ele>72.1</ele>
    <time>2026-08-14T13:17:04Z</time>
   </trkpt>
   <trkpt lat="37.2478370" lon="127.0774130">
    <ele>72.0</ele>
    <time>2026-08-14T13:17:05Z</time>
   </trkpt>
   <trkpt lat="37.2478360" lon="127.0773990">
    <ele>72.0</ele>
    <time>2026-08-14T13:17:06Z</time>
   </trkpt>
   <trkpt lat="37.2478350" lon="127.0773810">
    <ele>71.9</ele>
    <time>2026-08-14T13:17:07Z</time>
   </trkpt>
   <trkpt lat="37.2478330" lon="127.0773650">
    <ele>71.9</ele>
    <time>2026-08-14T13:17:08Z</time>
   </trkpt>
   <trkpt lat="37.2478310" lon="127.0773500">
    <ele>71.8</ele>
    <time>2026-08-14T13:17:09Z</time>
   </trkpt>
   <trkpt lat="37.2478250" lon="127.0773220">
    <ele>71.7</ele>
    <time>2026-08-14T13:17:10Z</time>
   </trkpt>
   <trkpt lat="37.2478250" lon="127.0773080">
    <ele>71.7</ele>
    <time>2026-08-14T13:17:11Z</time>
   </trkpt>
   <trkpt lat="37.2478240" lon="127.0772880">
    <ele>71.6</ele>
    <time>2026-08-14T13:17:12Z</time>
   </trkpt>
   <trkpt lat="37.2478200" lon="127.0772710">
    <ele>71.6</ele>
    <time>2026-08-14T13:17:13Z</time>
   </trkpt>
   <trkpt lat="37.2478170" lon="127.0772540">
    <ele>71.5</ele>
    <time>2026-08-14T13:17:14Z</time>
   </trkpt>
   <trkpt lat="37.2478180" lon="127.0772400">
    <ele>71.5</ele>
    <time>2026-08-14T13:17:15Z</time>
   </trkpt>
   <trkpt lat="37.2478190" lon="127.0772270">
    <ele>71.4</ele>
    <time>2026-08-14T13:17:16Z</time>
   </trkpt>
   <trkpt lat="37.2478180" lon="127.0772140">
    <ele>71.4</ele>
    <time>2026-08-14T13:17:17Z</time>
   </trkpt>
   <trkpt lat="37.2478170" lon="127.0772020">
    <ele>71.3</ele>
    <time>2026-08-14T13:17:18Z</time>
   </trkpt>
   <trkpt lat="37.2478180" lon="127.0771870">
    <ele>71.3</ele>
    <time>2026-08-14T13:17:19Z</time>
   </trkpt>
   <trkpt lat="37.2478170" lon="127.0771710">
    <ele>71.2</ele>
    <time>2026-08-14T13:17:20Z</time>
   </trkpt>
   <trkpt lat="37.2478180" lon="127.0771600">
    <ele>71.2</ele>
    <time>2026-08-14T13:17:21Z</time>
   </trkpt>
   <trkpt lat="37.2478150" lon="127.0771410">
    <ele>71.1</ele>
    <time>2026-08-14T13:17:22Z</time>
   </trkpt>
   <trkpt lat="37.2478150" lon="127.0771230">
    <ele>71.1</ele>
    <time>2026-08-14T13:17:23Z</time>
   </trkpt>
   <trkpt lat="37.2478140" lon="127.0771080">
    <ele>71.0</ele>
    <time>2026-08-14T13:17:24Z</time>
   </trkpt>
   <trkpt lat="37.2478140" lon="127.0770950">
    <ele>71.0</ele>
    <time>2026-08-14T13:17:25Z</time>
   </trkpt>
   <trkpt lat="37.2478120" lon="127.0770800">
    <ele>70.9</ele>
    <time>2026-08-14T13:17:26Z</time>
   </trkpt>
   <trkpt lat="37.2478120" lon="127.0770660">
    <ele>70.9</ele>
    <time>2026-08-14T13:17:27Z</time>
   </trkpt>
   <trkpt lat="37.2478150" lon="127.0770500">
    <ele>70.9</ele>
    <time>2026-08-14T13:17:28Z</time>
   </trkpt>
   <trkpt lat="37.2478130" lon="127.0770340">
    <ele>70.8</ele>
    <time>2026-08-14T13:17:29Z</time>
   </trkpt>
   <trkpt lat="37.2478140" lon="127.0770200">
    <ele>70.8</ele>
    <time>2026-08-14T13:17:30Z</time>
   </trkpt>
   <trkpt lat="37.2478160" lon="127.0770030">
    <ele>70.7</ele>
    <time>2026-08-14T13:17:31Z</time>
   </trkpt>
   <trkpt lat="37.2478120" lon="127.0769890">
    <ele>70.7</ele>
    <time>2026-08-14T13:17:32Z</time>
   </trkpt>
   <trkpt lat="37.2478120" lon="127.0769710">
    <ele>70.6</ele>
    <time>2026-08-14T13:17:33Z</time>
   </trkpt>
   <trkpt lat="37.2478120" lon="127.0769570">
    <ele>70.6</ele>
    <time>2026-08-14T13:17:34Z</time>
   </trkpt>
   <trkpt lat="37.2478100" lon="127.0769390">
    <ele>70.5</ele>
    <time>2026-08-14T13:17:35Z</time>
   </trkpt>
   <trkpt lat="37.2478130" lon="127.0769240">
    <ele>70.5</ele>
    <time>2026-08-14T13:17:36Z</time>
   </trkpt>
   <trkpt lat="37.2478160" lon="127.0769090">
    <ele>70.4</ele>
    <time>2026-08-14T13:17:37Z</time>
   </trkpt>
   <trkpt lat="37.2478110" lon="127.0768910">
    <ele>70.4</ele>
    <time>2026-08-14T13:17:38Z</time>
   </trkpt>
   <trkpt lat="37.2478150" lon="127.0768750">
    <ele>70.3</ele>
    <time>2026-08-14T13:17:39Z</time>
   </trkpt>
   <trkpt lat="37.2478180" lon="127.0768610">
    <ele>70.3</ele>
    <time>2026-08-14T13:17:40Z</time>
   </trkpt>
   <trkpt lat="37.2478190" lon="127.0768460">
    <ele>70.2</ele>
    <time>2026-08-14T13:17:41Z</time>
   </trkpt>
   <trkpt lat="37.2478180" lon="127.0768320">
    <ele>70.2</ele>
    <time>2026-08-14T13:17:42Z</time>
   </trkpt>
   <trkpt lat="37.2478200" lon="127.0768140">
    <ele>70.1</ele>
    <time>2026-08-14T13:17:43Z</time>
   </trkpt>
   <trkpt lat="37.2478200" lon="127.0768000">
    <ele>70.1</ele>
    <time>2026-08-14T13:17:44Z</time>
   </trkpt>
   <trkpt lat="37.2478130" lon="127.0767830">
    <ele>70.1</ele>
    <time>2026-08-14T13:17:45Z</time>
   </trkpt>
   <trkpt lat="37.2478130" lon="127.0767700">
    <ele>70.0</ele>
    <time>2026-08-14T13:17:46Z</time>
   </trkpt>
   <trkpt lat="37.2478140" lon="127.0767600">
    <ele>70.0</ele>
    <time>2026-08-14T13:17:47Z</time>
   </trkpt>
   <trkpt lat="37.2478150" lon="127.0767430">
    <ele>69.9</ele>
    <time>2026-08-14T13:17:48Z</time>
   </trkpt>
   <trkpt lat="37.2478190" lon="127.0767320">
    <ele>69.9</ele>
    <time>2026-08-14T13:17:49Z</time>
   </trkpt>
   <trkpt lat="37.2478180" lon="127.0767180">
    <ele>69.8</ele>
    <time>2026-08-14T13:17:50Z</time>
   </trkpt>
   <trkpt lat="37.2478170" lon="127.0767020">
    <ele>69.8</ele>
    <time>2026-08-14T13:17:51Z</time>
   </trkpt>
   <trkpt lat="37.2478200" lon="127.0766870">
    <ele>69.7</ele>
    <time>2026-08-14T13:17:52Z</time>
   </trkpt>
   <trkpt lat="37.2478190" lon="127.0766710">
    <ele>69.7</ele>
    <time>2026-08-14T13:17:53Z</time>
   </trkpt>
   <trkpt lat="37.2478170" lon="127.0766570">
    <ele>69.6</ele>
    <time>2026-08-14T13:17:54Z</time>
   </trkpt>
   <trkpt lat="37.2478170" lon="127.0766430">
    <ele>69.6</ele>
    <time>2026-08-14T13:17:55Z</time>
   </trkpt>
   <trkpt lat="37.2478170" lon="127.0766270">
    <ele>69.5</ele>
    <time>2026-08-14T13:17:56Z</time>
   </trkpt>
   <trkpt lat="37.2478150" lon="127.0766120">
    <ele>69.5</ele>
    <time>2026-08-14T13:17:57Z</time>
   </trkpt>
   <trkpt lat="37.2478140" lon="127.0765950">
    <ele>69.4</ele>
    <time>2026-08-14T13:17:58Z</time>
   </trkpt>
   <trkpt lat="37.2478120" lon="127.0765770">
    <ele>69.4</ele>
    <time>2026-08-14T13:17:59Z</time>
   </trkpt>
   <trkpt lat="37.2478090" lon="127.0765580">
    <ele>69.3</ele>
    <time>2026-08-14T13:18:00Z</time>
   </trkpt>
   <trkpt lat="37.2478120" lon="127.0765440">
    <ele>69.2</ele>
    <time>2026-08-14T13:18:01Z</time>
   </trkpt>
   <trkpt lat="37.2478110" lon="127.0765290">
    <ele>69.2</ele>
    <time>2026-08-14T13:18:02Z</time>
   </trkpt>
   <trkpt lat="37.2478080" lon="127.0765140">
    <ele>69.1</ele>
    <time>2026-08-14T13:18:04Z</time>
   </trkpt>
   <trkpt lat="37.2478050" lon="127.0765000">
    <ele>69.1</ele>
    <time>2026-08-14T13:18:05Z</time>
   </trkpt>
   <trkpt lat="37.2478070" lon="127.0764890">
    <ele>69.1</ele>
    <time>2026-08-14T13:18:06Z</time>
   </trkpt>
   <trkpt lat="37.2478080" lon="127.0764720">
    <ele>69.0</ele>
    <time>2026-08-14T13:18:07Z</time>
   </trkpt>
   <trkpt lat="37.2478080" lon="127.0764560">
    <ele>68.9</ele>
    <time>2026-08-14T13:18:08Z</time>
   </trkpt>
   <trkpt lat="37.2478060" lon="127.0764410">
    <ele>68.9</ele>
    <time>2026-08-14T13:18:09Z</time>
   </trkpt>
   <trkpt lat="37.2478040" lon="127.0764280">
    <ele>68.9</ele>
    <time>2026-08-14T13:18:10Z</time>
   </trkpt>
   <trkpt lat="37.2478030" lon="127.0764140">
    <ele>68.8</ele>
    <time>2026-08-14T13:18:11Z</time>
   </trkpt>
   <trkpt lat="37.2478020" lon="127.0763980">
    <ele>68.8</ele>
    <time>2026-08-14T13:18:12Z</time>
   </trkpt>
   <trkpt lat="37.2478000" lon="127.0763840">
    <ele>68.7</ele>
    <time>2026-08-14T13:18:13Z</time>
   </trkpt>
   <trkpt lat="37.2477960" lon="127.0763690">
    <ele>68.6</ele>
    <time>2026-08-14T13:18:14Z</time>
   </trkpt>
   <trkpt lat="37.2477980" lon="127.0763530">
    <ele>68.6</ele>
    <time>2026-08-14T13:18:15Z</time>
   </trkpt>
   <trkpt lat="37.2478020" lon="127.0763380">
    <ele>68.5</ele>
    <time>2026-08-14T13:18:16Z</time>
   </trkpt>
   <trkpt lat="37.2478040" lon="127.0763250">
    <ele>68.5</ele>
    <time>2026-08-14T13:18:17Z</time>
   </trkpt>
   <trkpt lat="37.2478040" lon="127.0763090">
    <ele>68.4</ele>
    <time>2026-08-14T13:18:18Z</time>
   </trkpt>
   <trkpt lat="37.2478050" lon="127.0762930">
    <ele>68.4</ele>
    <time>2026-08-14T13:18:19Z</time>
   </trkpt>
   <trkpt lat="37.2478040" lon="127.0762750">
    <ele>68.3</ele>
    <time>2026-08-14T13:18:20Z</time>
   </trkpt>
   <trkpt lat="37.2478020" lon="127.0762600">
    <ele>68.3</ele>
    <time>2026-08-14T13:18:21Z</time>
   </trkpt>
   <trkpt lat="37.2478010" lon="127.0762440">
    <ele>68.2</ele>
    <time>2026-08-14T13:18:22Z</time>
   </trkpt>
   <trkpt lat="37.2477980" lon="127.0762230">
    <ele>68.1</ele>
    <time>2026-08-14T13:18:23Z</time>
   </trkpt>
   <trkpt lat="37.2477960" lon="127.0762080">
    <ele>68.1</ele>
    <time>2026-08-14T13:18:24Z</time>
   </trkpt>
   <trkpt lat="37.2477950" lon="127.0761910">
    <ele>68.0</ele>
    <time>2026-08-14T13:18:25Z</time>
   </trkpt>
   <trkpt lat="37.2477960" lon="127.0761740">
    <ele>67.9</ele>
    <time>2026-08-14T13:18:26Z</time>
   </trkpt>
   <trkpt lat="37.2477940" lon="127.0761570">
    <ele>67.9</ele>
    <time>2026-08-14T13:18:27Z</time>
   </trkpt>
   <trkpt lat="37.2477940" lon="127.0761410">
    <ele>67.8</ele>
    <time>2026-08-14T13:18:28Z</time>
   </trkpt>
   <trkpt lat="37.2477930" lon="127.0761270">
    <ele>67.7</ele>
    <time>2026-08-14T13:18:29Z</time>
   </trkpt>
   <trkpt lat="37.2477920" lon="127.0761100">
    <ele>67.7</ele>
    <time>2026-08-14T13:18:30Z</time>
   </trkpt>
   <trkpt lat="37.2477910" lon="127.0760960">
    <ele>67.6</ele>
    <time>2026-08-14T13:18:31Z</time>
   </trkpt>
   <trkpt lat="37.2477910" lon="127.0760790">
    <ele>67.5</ele>
    <time>2026-08-14T13:18:32Z</time>
   </trkpt>
   <trkpt lat="37.2477890" lon="127.0760640">
    <ele>67.5</ele>
    <time>2026-08-14T13:18:33Z</time>
   </trkpt>
   <trkpt lat="37.2477880" lon="127.0760490">
    <ele>67.4</ele>
    <time>2026-08-14T13:18:34Z</time>
   </trkpt>
   <trkpt lat="37.2477890" lon="127.0760360">
    <ele>67.4</ele>
    <time>2026-08-14T13:18:35Z</time>
   </trkpt>
   <trkpt lat="37.2477890" lon="127.0760210">
    <ele>67.3</ele>
    <time>2026-08-14T13:18:36Z</time>
   </trkpt>
   <trkpt lat="37.2477890" lon="127.0760050">
    <ele>67.2</ele>
    <time>2026-08-14T13:18:37Z</time>
   </trkpt>
   <trkpt lat="37.2477910" lon="127.0759890">
    <ele>67.2</ele>
    <time>2026-08-14T13:18:38Z</time>
   </trkpt>
   <trkpt lat="37.2477940" lon="127.0759740">
    <ele>67.1</ele>
    <time>2026-08-14T13:18:39Z</time>
   </trkpt>
   <trkpt lat="37.2478020" lon="127.0759610">
    <ele>67.0</ele>
    <time>2026-08-14T13:18:40Z</time>
   </trkpt>
   <trkpt lat="37.2478100" lon="127.0759410">
    <ele>67.0</ele>
    <time>2026-08-14T13:18:41Z</time>
   </trkpt>
   <trkpt lat="37.2478150" lon="127.0759280">
    <ele>66.9</ele>
    <time>2026-08-14T13:18:42Z</time>
   </trkpt>
   <trkpt lat="37.2478180" lon="127.0759090">
    <ele>66.9</ele>
    <time>2026-08-14T13:18:43Z</time>
   </trkpt>
   <trkpt lat="37.2478260" lon="127.0758950">
    <ele>66.8</ele>
    <time>2026-08-14T13:18:44Z</time>
   </trkpt>
   <trkpt lat="37.2478370" lon="127.0758910">
    <ele>66.8</ele>
    <time>2026-08-14T13:18:45Z</time>
   </trkpt>
  </trkseg>
 </trk>
</gpx>
