<?xml version="1.0" encoding="UTF-8"?>
<gpx creator="StravaGPX" version="1.1" xmlns="http://www.topografix.com/GPX/1/1" xmlns:xsi="http://www.w3.org/2001/XMLSchema-instance" xsi:schemaLocation="http://www.topografix.com/GPX/1/1 http://www.topografix.com/GPX/1/1/gpx.xsd">
 <metadata>
  <time>2026-08-14T13:11:38Z</time>
 </metadata>
 <trk>
  <name>완오르막3</name>
  <type>walking</type>
  <trkseg>
   <trkpt lat="37.2478170" lon="127.0759330">
    <ele>67.0</ele>
    <time>2026-08-14T13:11:38Z</time>
   </trkpt>
   <trkpt lat="37.2478170" lon="127.0759330">
    <ele>67.0</ele>
    <time>2026-08-14T13:11:39Z</time>
   </trkpt>
   <trkpt lat="37.2478140" lon="127.0759370">
    <ele>67.0</ele>
    <time>2026-08-14T13:11:40Z</time>
   </trkpt>
   <trkpt lat="37.2478110" lon="127.0759500">
    <ele>67.0</ele>
    <time>2026-08-14T13:11:41Z</time>
   </trkpt>
   <trkpt lat="37.2478090" lon="127.0759660">
    <ele>67.1</ele>
    <time>2026-08-14T13:11:42Z</time>
   </trkpt>
   <trkpt lat="37.2478110" lon="127.0759800">
    <ele>67.2</ele>
    <time>2026-08-14T13:11:43Z</time>
   </trkpt>
   <trkpt lat="37.2478120" lon="127.0759920">
    <ele>67.2</ele>
    <time>2026-08-14T13:11:44Z</time>
   </trkpt>
   <trkpt lat="37.2478120" lon="127.0760070">
    <ele>67.3</ele>
    <time>2026-08-14T13:11:45Z</time>
   </trkpt>
   <trkpt lat="37.2478150" lon="127.0760210">
    <ele>67.3</ele>
    <time>2026-08-14T13:11:46Z</time>
   </trkpt>
   <trkpt lat="37.2478190" lon="127.0760350">
    <ele>67.4</ele>
    <time>2026-08-14T13:11:47Z</time>
   </trkpt>
   <trkpt lat="37.2478190" lon="127.0760470">
    <ele>67.4</ele>
    <time>2026-08-14T13:11:48Z</time>
   </trkpt>
   <trkpt lat="37.2478190" lon="127.0760600">
    <ele>67.5</ele>
    <time>2026-08-14T13:11:49Z</time>
   </trkpt>
   <trkpt lat="37.2478230" lon="127.0760750">
    <ele>67.5</ele>
    <time>2026-08-14T13:11:50Z</time>
   </trkpt>
   <trkpt lat="37.2478280" lon="127.0760860">
    <ele>67.6</ele>
    <time>2026-08-14T13:11:51Z</time>
   </trkpt>
   <trkpt lat="37.2478320" lon="127.0760980">
    <ele>67.6</ele>
    <time>2026-08-14T13:11:52Z</time>
   </trkpt>
   <trkpt lat="37.2478320" lon="127.0761100">
    <ele>67.7</ele>
    <time>2026-08-14T13:11:53Z</time>
   </trkpt>
   <trkpt lat="37.2478340" lon="127.0761240">
    <ele>67.7</ele>
    <time>2026-08-14T13:11:54Z</time>
   </trkpt>
   <trkpt lat="37.2478340" lon="127.0761350">
    <ele>67.8</ele>
    <time>2026-08-14T13:11:55Z</time>
   </trkpt>
   <trkpt lat="37.2478380" lon="127.0761470">
    <ele>67.8</ele>
    <time>2026-08-14T13:11:56Z</time>
   </trkpt>
   <trkpt lat="37.2478420" lon="127.0761600">
    <ele>67.9</ele>
    <time>2026-08-14T13:11:57Z</time>
   </trkpt>
   <trkpt lat="37.2478460" lon="127.0761720">
    <ele>67.9</ele>
    <time>2026-08-14T13:11:58Z</time>
   </trkpt>
   <trkpt lat="37.2478470" lon="127.0761830">
    <ele>68.0</ele>
    <time>2026-08-14T13:11:59Z</time>
   </trkpt>
   <trkpt lat="37.2478430" lon="127.0761920">
    <ele>68.0</ele>
    <time>2026-08-14T13:12:00Z</time>
   </trkpt>
   <trkpt lat="37.2478430" lon="127.0762070">
    <ele>68.1</ele>
    <time>2026-08-14T13:12:01Z</time>
   </trkpt>
   <trkpt lat="37.2478440" lon="127.0762190">
    <ele>68.1</ele>
    <time>2026-08-14T13:12:02Z</time>
   </trkpt>
   <trkpt lat="37.2478440" lon="127.0762330">
    <ele>68.2</ele>
    <time>2026-08-14T13:12:03Z</time>
   </trkpt>
   <trkpt lat="37.2478430" lon="127.0762470">
    <ele>68.2</ele>
    <time>2026-08-14T13:12:04Z</time>
   </trkpt>
   <trkpt lat="37.2478410" lon="127.0762600">
    <ele>68.3</ele>
    <time>2026-08-14T13:12:05Z</time>
   </trkpt>
   <trkpt lat="37.2478380" lon="127.0762740">
    <ele>68.3</ele>
    <time>2026-08-14T13:12:06Z</time>
   </trkpt>
   <trkpt lat="37.2478360" lon="127.0762890">
    <ele>68.4</ele>
    <time>2026-08-14T13:12:07Z</time>
   </trkpt>
   <trkpt lat="37.2478330" lon="127.0763020">
    <ele>68.4</ele>
    <time>2026-08-14T13:12:08Z</time>
   </trkpt>
   <trkpt lat="37.2478350" lon="127.0763160">
    <ele>68.5</ele>
    <time>2026-08-14T13:12:09Z</time>
   </trkpt>
   <trkpt lat="37.2478340" lon="127.0763290">
    <ele>68.5</ele>
    <time>2026-08-14T13:12:10Z</time>
   </trkpt>
   <trkpt lat="37.2478310" lon="127.0763410">
    <ele>68.6</ele>
    <time>2026-08-14T13:12:11Z</time>
   </trkpt>
   <trkpt lat="37.2478290" lon="127.0763540">
    <ele>68.6</ele>
    <time>2026-08-14T13:12:12Z</time>
   </trkpt>
   <trkpt lat="37.2478280" lon="127.0763670">
    <ele>68.7</ele>
    <time>2026-08-14T13:12:13Z</time>
   </trkpt>
   <trkpt lat="37.2478280" lon="127.0763800">
    <ele>68.7</ele>
    <time>2026-08-14T13:12:14Z</time>
   </trkpt>
   <trkpt lat="37.2478290" lon="127.0763910">
    <ele>68.7</ele>
    <time>2026-08-14T13:12:15Z</time>
   </trkpt>
   <trkpt lat="37.2478300" lon="127.0764030">
    <ele>68.8</ele>
    <time>2026-08-14T13:12:16Z</time>
   </trkpt>
   <trkpt lat="37.2478300" lon="127.0764160">
    <ele>68.8</ele>
    <time>2026-08-14T13:12:17Z</time>
   </trkpt>
   <trkpt lat="37.2478320" lon="127.0764290">
    <ele>68.9</ele>
    <time>2026-08-14T13:12:18Z</time>
   </trkpt>
   <trkpt lat="37.2478330" lon="127.0764400">
    <ele>68.9</ele>
    <time>2026-08-14T13:12:19Z</time>
   </trkpt>
   <trkpt lat="37.2478350" lon="127.0764510">
    <ele>68.9</ele>
    <time>2026-08-14T13:12:20Z</time>
   </trkpt>
   <trkpt lat="37.2478370" lon="127.0764650">
    <ele>69.0</ele>
    <time>2026-08-14T13:12:21Z</time>
   </trkpt>
   <trkpt lat="37.2478360" lon="127.0764760">
    <ele>69.0</ele>
    <time>2026-08-14T13:12:22Z</time>
   </trkpt>
   <trkpt lat="37.2478340" lon="127.0764900">
    <ele>69.1</ele>
    <time>2026-08-14T13:12:23Z</time>
   </trkpt>
   <trkpt lat="37.2478310" lon="127.0765040">
    <ele>69.1</ele>
    <time>2026-08-14T13:12:24Z</time>
   </trkpt>
   <trkpt lat="37.2478310" lon="127.0765170">
    <ele>69.2</ele>
    <time>2026-08-14T13:12:25Z</time>
   </trkpt>
   <trkpt lat="37.2478270" lon="127.0765350">
    <ele>69.2</ele>
    <time>2026-08-14T13:12:26Z</time>
   </trkpt>
   <trkpt lat="37.2478270" lon="127.0765460">
    <ele>69.3</ele>
    <time>2026-08-14T13:12:27Z</time>
   </trkpt>
   <trkpt lat="37.2478290" lon="127.0765590">
    <ele>69.3</ele>
    <time>2026-08-14T13:12:28Z</time>
   </trkpt>
   <trkpt lat="37.2478310" lon="127.0765710">
    <ele>69.3</ele>
    <time>2026-08-14T13:12:29Z</time>
   </trkpt>
   <trkpt lat="37.2478200" lon="127.0765800">
    <ele>69.4</ele>
    <time>2026-08-14T13:12:30Z</time>
   </trkpt>
   <trkpt lat="37.2478190" lon="127.0765910">
    <ele>69.4</ele>
    <time>2026-08-14T13:12:31Z</time>
   </trkpt>
   <trkpt lat="37.2478240" lon="127.0766010">
    <ele>69.5</ele>
    <time>2026-08-14T13:12:32Z</time>
   </trkpt>
   <trkpt lat="37.2478210" lon="127.0766220">
    <ele>69.5</ele>
    <time>2026-08-14T13:12:33Z</time>
   </trkpt>
   <trkpt lat="37.2478220" lon="127.0766370">
    <ele>69.6</ele>
    <time>2026-08-14T13:12:34Z</time>
   </trkpt>
   <trkpt lat="37.2478190" lon="127.0766540">
    <ele>69.6</ele>
    <time>2026-08-14T13:12:35Z</time>
   </trkpt>
   <trkpt lat="37.2478210" lon="127.0766680">
    <ele>69.7</ele>
    <time>2026-08-14T13:12:36Z</time>
   </trkpt>
   <trkpt lat="37.2478270" lon="127.0766840">
    <ele>69.7</ele>
    <time>2026-08-14T13:12:37Z</time>
   </trkpt>
   <trkpt lat="37.2478310" lon="127.0766950">
    <ele>69.8</ele>
    <time>2026-08-14T13:12:38Z</time>
   </trkpt>
   <trkpt lat="37.2478360" lon="127.0767080">
    <ele>69.8</ele>
    <time>2026-08-14T13:12:39Z</time>
   </trkpt>
   <trkpt lat="37.2478380" lon="127.0767240">
    <ele>69.9</ele>
    <time>2026-08-14T13:12:40Z</time>
   </trkpt>
   <trkpt lat="37.2478410" lon="127.0767380">
    <ele>69.9</ele>
    <time>2026-08-14T13:12:41Z</time>
   </trkpt>
   <trkpt lat="37.2478430" lon="127.0767530">
    <ele>70.0</ele>
    <time>2026-08-14T13:12:42Z</time>
   </trkpt>
   <trkpt lat="37.2478450" lon="127.0767650">
    <ele>70.0</ele>
    <time>2026-08-14T13:12:43Z</time>
   </trkpt>
   <trkpt lat="37.2478480" lon="127.0767790">
    <ele>70.1</ele>
    <time>2026-08-14T13:12:44Z</time>
   </trkpt>
   <trkpt lat="37.2478490" lon="127.0767940">
    <ele>70.1</ele>
    <time>2026-08-14T13:12:45Z</time>
   </trkpt>
   <trkpt lat="37.2478520" lon="127.0768090">
    <ele>70.2</ele>
    <time>2026-08-14T13:12:46Z</time>
   </trkpt>
   <trkpt lat="37.2478520" lon="127.0768210">
    <ele>70.2</ele>
    <time>2026-08-14T13:12:47Z</time>
   </trkpt>
   <trkpt lat="37.2478530" lon="127.0768340">
    <ele>70.2</ele>
    <time>2026-08-14T13:12:48Z</time>
   </trkpt>
   <trkpt lat="37.2478530" lon="127.0768490">
    <ele>70.3</ele>
    <time>2026-08-14T13:12:49Z</time>
   </trkpt>
   <trkpt lat="37.2478530" lon="127.0768620">
    <ele>70.3</ele>
    <time>2026-08-14T13:12:50Z</time>
   </trkpt>
   <trkpt lat="37.2478550" lon="127.0768730">
    <ele>70.3</ele>
    <time>2026-08-14T13:12:51Z</time>
   </trkpt>
   <trkpt lat="37.2478540" lon="127.0768880">
    <ele>70.4</ele>
    <time>2026-08-14T13:12:52Z</time>
   </trkpt>
   <trkpt lat="37.2478550" lon="127.0769010">
    <ele>70.4</ele>
    <time>2026-08-14T13:12:53Z</time>
   </trkpt>
   <trkpt lat="37.2478550" lon="127.0769160">
    <ele>70.4</ele>
    <time>2026-08-14T13:12:54Z</time>
   </trkpt>
   <trkpt lat="37.2478500" lon="127.0769320">
    <ele>70.5</ele>
    <time>2026-08-14T13:12:55Z</time>
   </trkpt>
   <trkpt lat="37.2478480" lon="127.0769480">
    <ele>70.5</ele>
    <time>2026-08-14T13:12:56Z</time>
   </trkpt>
   <trkpt lat="37.2478470" lon="127.0769600">
    <ele>70.6</ele>
    <time>2026-08-14T13:12:57Z</time>
   </trkpt>
   <trkpt lat="37.2478450" lon="127.0769730">
    <ele>70.6</ele>
    <time>2026-08-14T13:12:58Z</time>
   </trkpt>
   <trkpt lat="37.2478440" lon="127.0769880">
    <ele>70.7</ele>
    <time>2026-08-14T13:12:59Z</time>
   </trkpt>
   <trkpt lat="37.2478430" lon="127.0770010">
    <ele>70.7</ele>
    <time>2026-08-14T13:13:00Z</time>
   </trkpt>
   <trkpt lat="37.2478420" lon="127.0770130">
    <ele>70.7</ele>
    <time>2026-08-14T13:13:01Z</time>
   </trkpt>
   <trkpt lat="37.2478410" lon="127.0770270">
    <ele>70.8</ele>
    <time>2026-08-14T13:13:02Z</time>
   </trkpt>
   <trkpt lat="37.2478400" lon="127.0770370">
    <ele>70.8</ele>
    <time>2026-08-14T13:13:03Z</time>
   </trkpt>
   <trkpt lat="37.2478390" lon="127.0770460">
    <ele>70.8</ele>
    <time>2026-08-14T13:13:04Z</time>
   </trkpt>
   <trkpt lat="37.2478370" lon="127.0770590">
    <ele>70.9</ele>
    <time>2026-08-14T13:13:05Z</time>
   </trkpt>
   <trkpt lat="37.2478370" lon="127.0770670">
    <ele>70.9</ele>
    <time>2026-08-14T13:13:06Z</time>
   </trkpt>
   <trkpt lat="37.2478410" lon="127.0770850">
    <ele>71.0</ele>
    <time>2026-08-14T13:13:07Z</time>
   </trkpt>
   <trkpt lat="37.2478400" lon="127.0770960">
    <ele>71.0</ele>
    <time>2026-08-14T13:13:08Z</time>
   </trkpt>
   <trkpt lat="37.2478410" lon="127.0771140">
    <ele>71.1</ele>
    <time>2026-08-14T13:13:09Z</time>
   </trkpt>
   <trkpt lat="37.2478440" lon="127.0771290">
    <ele>71.1</ele>
    <time>2026-08-14T13:13:10Z</time>
   </trkpt>
   <trkpt lat="37.2478440" lon="127.0771410">
    <ele>71.1</ele>
    <time>2026-08-14T13:13:11Z</time>
   </trkpt>
   <trkpt lat="37.2478470" lon="127.0771550">
    <ele>71.2</ele>
    <time>2026-08-14T13:13:12Z</time>
   </trkpt>
   <trkpt lat="37.2478460" lon="127.0771640">
    <ele>71.2</ele>
    <time>2026-08-14T13:13:13Z</time>
   </trkpt>
   <trkpt lat="37.2478430" lon="127.0771710">
    <ele>71.2</ele>
    <time>2026-08-14T13:13:14Z</time>
   </trkpt>
   <trkpt lat="37.2478370" lon="127.0771850">
    <ele>71.3</ele>
    <time>2026-08-14T13:13:15Z</time>
   </trkpt>
   <trkpt lat="37.2478420" lon="127.0772110">
    <ele>71.4</ele>
    <time>2026-08-14T13:13:16Z</time>
   </trkpt>
   <trkpt lat="37.2478500" lon="127.0772220">
    <ele>71.4</ele>
    <time>2026-08-14T13:13:17Z</time>
   </trkpt>
   <trkpt lat="37.2478570" lon="127.0772330">
    <ele>71.5</ele>
    <time>2026-08-14T13:13:18Z</time>
   </trkpt>
   <trkpt lat="37.2478520" lon="127.0772460">
    <ele>71.5</ele>
    <time>2026-08-14T13:13:19Z</time>
   </trkpt>
   <trkpt lat="37.2478530" lon="127.0772630">
    <ele>71.6</ele>
    <time>2026-08-14T13:13:20Z</time>
   </trkpt>
   <trkpt lat="37.2478510" lon="127.0772770">
    <ele>71.6</ele>
    <time>2026-08-14T13:13:21Z</time>
   </trkpt>
   <trkpt lat="37.2478500" lon="127.0772910">
    <ele>71.7</ele>
    <time>2026-08-14T13:13:22Z</time>
   </trkpt>
   <trkpt lat="37.2478520" lon="127.0773000">
    <ele>71.7</ele>
    <time>2026-08-14T13:13:23Z</time>
   </trkpt>
   <trkpt lat="37.2478530" lon="127.0773150">
    <ele>71.7</ele>
    <time>2026-08-14T13:13:24Z</time>
   </trkpt>
   <trkpt lat="37.2478570" lon="127.0773290">
    <ele>71.8</ele>
    <time>2026-08-14T13:13:25Z</time>
   </trkpt>
   <trkpt lat="37.2478600" lon="127.0773450">
    <ele>71.8</ele>
    <time>2026-08-14T13:13:26Z</time>
   </trkpt>
   <trkpt lat="37.2478610" lon="127.0773550">
    <ele>71.9</ele>
    <time>2026-08-14T13:13:27Z</time>
   </trkpt>
   <trkpt lat="37.2478660" lon="127.0773660">
    <ele>71.9</ele>
    <time>2026-08-14T13:13:28Z</time>
   </trkpt>
   <trkpt lat="37.2478810" lon="127.0773880">
    <ele>72.0</ele>
    <time>2026-08-14T13:13:29Z</time>
   </trkpt>
   <trkpt lat="37.2478900" lon="127.0774030">
    <ele>72.1</ele>
    <time>2026-08-14T13:13:30Z</time>
   </trkpt>
   <trkpt lat="37.2478960" lon="127.0774180">
    <ele>72.1</ele>
    <time>2026-08-14T13:13:31Z</time>
   </trkpt>
   <trkpt lat="37.2479000" lon="127.0774330">
    <ele>72.2</ele>
    <time>2026-08-14T13:13:32Z</time>
   </trkpt>
   <trkpt lat="37.2478990" lon="127.0774450">
    <ele>72.2</ele>
    <time>2026-08-14T13:13:33Z</time>
   </trkpt>
   <trkpt lat="37.2478970" lon="127.0774610">
    <ele>72.3</ele>
    <time>2026-08-14T13:13:34Z</time>
   </trkpt>
   <trkpt lat="37.2478950" lon="127.0774760">
    <ele>72.3</ele>
    <time>2026-08-14T13:13:35Z</time>
   </trkpt>
   <trkpt lat="37.2478950" lon="127.0774910">
    <ele>72.4</ele>
    <time>2026-08-14T13:13:36Z</time>
   </trkpt>
   <trkpt lat="37.2478960" lon="127.0775060">
    <ele>72.4</ele>
    <time>2026-08-14T13:13:37Z</time>
   </trkpt>
   <trkpt lat="37.2478920" lon="127.0775220">
    <ele>72.5</ele>
    <time>2026-08-14T13:13:38Z</time>
   </trkpt>
   <trkpt lat="37.2478900" lon="127.0775380">
    <ele>72.5</ele>
    <time>2026-08-14T13:13:39Z</time>
   </trkpt>
   <trkpt lat="37.2478890" lon="127.0775500">
    <ele>72.6</ele>
    <time>2026-08-14T13:13:40Z</time>
   </trkpt>
   <trkpt lat="37.2478900" lon="127.0775630">
    <ele>72.6</ele>
    <time>2026-08-14T13:13:41Z</time>
   </trkpt>
   <trkpt lat="37.2478900" lon="127.0775770">
    <ele>72.6</ele>
    <time>2026-08-14T13:13:42Z</time>
   </trkpt>
   <trkpt lat="37.2478930" lon="127.0775840">
    <ele>72.7</ele>
    <time>2026-08-14T13:13:43Z</time>
   </trkpt>
   <trkpt lat="37.2478940" lon="127.0775940">
    <ele>72.7</ele>
    <time>2026-08-14T13:13:44Z</time>
   </trkpt>
   <trkpt lat="37.2478910" lon="127.0776090">
    <ele>72.8</ele>
    <time>2026-08-14T13:13:45Z</time>
   </trkpt>
   <trkpt lat="37.2478910" lon="127.0776260">
    <ele>72.8</ele>
    <time>2026-08-14T13:13:46Z</time>
   </trkpt>
   <trkpt lat="37.2478930" lon="127.0776390">
    <ele>72.9</ele>
    <time>2026-08-14T13:13:47Z</time>
   </trkpt>
   <trkpt lat="37.2478950" lon="127.0776520">
    <ele>72.9</ele>
    <time>2026-08-14T13:13:48Z</time>
   </trkpt>
   <trkpt lat="37.2478970" lon="127.0776680">
    <ele>72.9</ele>
    <time>2026-08-14T13:13:49Z</time>
   </trkpt>
   <trkpt lat="37.2478960" lon="127.0776870">
    <ele>73.0</ele>
    <time>2026-08-14T13:13:50Z</time>
   </trkpt>
   <trkpt lat="37.2478960" lon="127.0777000">
    <ele>73.1</ele>
    <time>2026-08-14T13:13:51Z</time>
   </trkpt>
   <trkpt lat="37.2478960" lon="127.0777120">
    <ele>73.1</ele>
    <time>2026-08-14T13:13:52Z</time>
   </trkpt>
   <trkpt lat="37.2478940" lon="127.0777280">
    <ele>73.1</ele>
    <time>2026-08-14T13:13:53Z</time>
   </trkpt>
   <trkpt lat="37.2478930" lon="127.0777410">
    <ele>73.2</ele>
    <time>2026-08-14T13:13:54Z</time>
   </trkpt>
   <trkpt lat="37.2478890" lon="127.0777520">
    <ele>73.2</ele>
    <time>2026-08-14T13:13:55Z</time>
   </trkpt>
   <trkpt lat="37.2478860" lon="127.0777700">
    <ele>73.3</ele>
    <time>2026-08-14T13:13:56Z</time>
   </trkpt>
   <trkpt lat="37.2478840" lon="127.0777840">
    <ele>73.3</ele>
    <time>2026-08-14T13:13:57Z</time>
   </trkpt>
   <trkpt lat="37.2478830" lon="127.0777990">
    <ele>73.4</ele>
    <time>2026-08-14T13:13:58Z</time>
   </trkpt>
   <trkpt lat="37.2478840" lon="127.0778120">
    <ele>73.4</ele>
    <time>2026-08-14T13:13:59Z</time>
   </trkpt>
   <trkpt lat="37.2478830" lon="127.0778250">
    <ele>73.5</ele>
    <time>2026-08-14T13:14:00Z</time>
   </trkpt>
   <trkpt lat="37.2478840" lon="127.0778370">
    <ele>73.5</ele>
    <time>2026-08-14T13:14:01Z</time>
   </trkpt>
   <trkpt lat="37.2478850" lon="127.0778470">
    <ele>73.5</ele>
    <time>2026-08-14T13:14:02Z</time>
   </trkpt>
   <trkpt lat="37.2478820" lon="127.0778570">
    <ele>73.6</ele>
    <time>2026-08-14T13:14:03Z</time>
   </trkpt>
   <trkpt lat="37.2478780" lon="127.0778690">
    <ele>73.6</ele>
    <time>2026-08-14T13:14:04Z</time>
   </trkpt>
   <trkpt lat="37.2478780" lon="127.0778830">
    <ele>73.7</ele>
    <time>2026-08-14T13:14:05Z</time>
   </trkpt>
   <trkpt lat="37.2478800" lon="127.0778950">
    <ele>73.7</ele>
    <time>2026-08-14T13:14:06Z</time>
   </trkpt>
   <trkpt lat="37.2478820" lon="127.0779080">
    <ele>73.7</ele>
    <time>2026-08-14T13:14:07Z</time>
   </trkpt>
   <trkpt lat="37.2478800" lon="127.0779210">
    <ele>73.8</ele>
    <time>2026-08-14T13:14:08Z</time>
   </trkpt>
   <trkpt lat="37.2478800" lon="127.0779310">
    <ele>73.8</ele>
    <time>2026-08-14T13:14:09Z</time>
   </trkpt>
   <trkpt lat="37.2478840" lon="127.0779400">
    <ele>73.9</ele>
    <time>2026-08-14T13:14:10Z</time>
   </trkpt>
   <trkpt lat="37.2478830" lon="127.0779540">
    <ele>73.9</ele>
    <time>2026-08-14T13:14:11Z</time>
   </trkpt>
   <trkpt lat="37.2478800" lon="127.0779670">
    <ele>73.9</ele>
    <time>2026-08-14T13:14:12Z</time>
   </trkpt>
   <trkpt lat="37.2478770" lon="127.0779770">
    <ele>74.0</ele>
    <time>2026-08-14T13:14:13Z</time>
   </trkpt>
   <trkpt lat="37.2478770" lon="127.0779920">
    <ele>74.0</ele>
    <time>2026-08-14T13:14:14Z</time>
   </trkpt>
   <trkpt lat="37.2478700" lon="127.0780100">
    <ele>74.1</ele>
    <time>2026-08-14T13:14:15Z</time>
   </trkpt>
   <trkpt lat="37.2478590" lon="127.0780260">
    <ele>74.2</ele>
    <time>2026-08-14T13:14:16Z</time>
   </trkpt>
   <trkpt lat="37.2478550" lon="127.0780430">
    <ele>74.2</ele>
    <time>2026-08-14T13:14:17Z</time>
   </trkpt>
   <trkpt lat="37.2478490" lon="127.0780560">
    <ele>74.2</ele>
    <time>2026-08-14T13:14:18Z</time>
   </trkpt>
   <trkpt lat="37.2478490" lon="127.0780690">
    <ele>74.3</ele>
    <time>2026-08-14T13:14:19Z</time>
   </trkpt>
   <trkpt lat="37.2478460" lon="127.0780830">
    <ele>74.3</ele>
    <time>2026-08-14T13:14:20Z</time>
   </trkpt>
   <trkpt lat="37.2478440" lon="127.0780940">
    <ele>74.3</ele>
    <time>2026-08-14T13:14:21Z</time>
   </trkpt>
   <trkpt lat="37.2478400" lon="127.0781110">
    <ele>74.4</ele>
    <time>2026-08-14T13:14:22Z</time>
   </trkpt>
   <trkpt lat="37.2478380" lon="127.0781250">
    <ele>74.4</ele>
    <time>2026-08-14T13:14:23Z</time>
   </trkpt>
   <trkpt lat="37.2478340" lon="127.0781400">
    <ele>74.5</ele>
    <time>2026-08-14T13:14:24Z</time>
   </trkpt>
   <trkpt lat="37.2478340" lon="127.0781520">
    <ele>74.5</ele>
    <time>2026-08-14T13:14:25Z</time>
   </trkpt>
   <trkpt lat="37.2478330" lon="127.0781650">
    <ele>74.5</ele>
    <time>2026-08-14T13:14:26Z</time>
   </trkpt>
   <trkpt lat="37.2478320" lon="127.0781770">
    <ele>74.6</ele>
    <time>2026-08-14T13:14:27Z</time>
   </trkpt>
   <trkpt lat="37.2478320" lon="127.0781910">
    <ele>74.6</ele>
    <time>2026-08-14T13:14:28Z</time>
   </trkpt>
   <trkpt lat="37.2478300" lon="127.0782040">
    <ele>74.6</ele>
    <time>2026-08-14T13:14:29Z</time>
   </trkpt>
   <trkpt lat="37.2478270" lon="127.0782150">
    <ele>74.7</ele>
    <time>2026-08-14T13:14:30Z</time>
   </trkpt>
   <trkpt lat="37.2478250" lon="127.0782260">
    <ele>74.7</ele>
    <time>2026-08-14T13:14:31Z</time>
   </trkpt>
   <trkpt lat="37.2478250" lon="127.0782360">
    <ele>74.7</ele>
    <time>2026-08-14T13:14:32Z</time>
   </trkpt>
   <trkpt lat="37.2478210" lon="127.0782490">
    <ele>74.8</ele>
    <time>2026-08-14T13:14:33Z</time>
   </trkpt>
   <trkpt lat="37.2478180" lon="127.0782610">
    <ele>74.8</ele>
    <time>2026-08-14T13:14:34Z</time>
   </trkpt>
   <trkpt lat="37.2478180" lon="127.0782710">
    <ele>74.8</ele>
    <time>2026-08-14T13:14:35Z</time>
   </trkpt>
   <trkpt lat="37.2478200" lon="127.0782860">
    <ele>74.9</ele>
    <time>2026-08-14T13:14:36Z</time>
   </trkpt>
   <trkpt lat="37.2478200" lon="127.0782990">
    <ele>74.9</ele>
    <time>2026-08-14T13:14:37Z</time>
   </trkpt>
   <trkpt lat="37.2478200" lon="127.0783110">
    <ele>74.9</ele>
    <time>2026-08-14T13:14:38Z</time>
   </trkpt>
   <trkpt lat="37.2478230" lon="127.0783230">
    <ele>75.0</ele>
    <time>2026-08-14T13:14:39Z</time>
   </trkpt>
   <trkpt lat="37.2478270" lon="127.0783330">
    <ele>75.0</ele>
    <time>2026-08-14T13:14:40Z</time>
   </trkpt>
   <trkpt lat="37.2478300" lon="127.0783430">
    <ele>75.1</ele>
    <time>2026-08-14T13:14:41Z</time>
   </trkpt>
   <trkpt lat="37.2478310" lon="127.0783590">
    <ele>75.1</ele>
    <time>2026-08-14T13:14:42Z</time>
   </trkpt>
   <trkpt lat="37.2478330" lon="127.0783720">
    <ele>75.1</ele>
    <time>2026-08-14T13:14:43Z</time>
   </trkpt>
   <trkpt lat="37.2478340" lon="127.0783860">
    <ele>75.2</ele>
    <time>2026-08-14T13:14:44Z</time>
   </trkpt>
   <trkpt lat="37.2478350" lon="127.0783990">
    <ele>75.2</ele>
    <time>2026-08-14T13:14:45Z</time>
   </trkpt>
   <trkpt lat="37.2478380" lon="127.0784100">
    <ele>75.3</ele>
    <time>2026-08-14T13:14:46Z</time>
   </trkpt>
   <trkpt lat="37.2478430" lon="127.0784230">
    <ele>75.3</ele>
    <time>2026-08-14T13:14:47Z</time>
   </trkpt>
   <trkpt lat="37.2478440" lon="127.0784290">
    <ele>75.3</ele>
    <time>2026-08-14T13:14:48Z</time>
   </trkpt>
   <trkpt lat="37.2478460" lon="127.0784440">
    <ele>75.4</ele>
    <time>2026-08-14T13:14:49Z</time>
   </trkpt>
   <trkpt lat="37.2478500" lon="127.0784550">
    <ele>75.4</ele>
    <time>2026-08-14T13:14:50Z</time>
   </trkpt>
   <trkpt lat="37.2478540" lon="127.0784670">
    <ele>75.5</ele>
    <time>2026-08-14T13:14:51Z</time>
   </trkpt>
   <trkpt lat="37.2478600" lon="127.0784810">
    <ele>75.5</ele>
    <time>2026-08-14T13:14:52Z</time>
   </trkpt>
   <trkpt lat="37.2478610" lon="127.0784920">
    <ele>75.6</ele>
    <time>2026-08-14T13:14:53Z</time>
   </trkpt>
   <trkpt lat="37.2478630" lon="127.0784990">
    <ele>75.6</ele>
    <time>2026-08-14T13:14:54Z</time>
   </trkpt>
   <trkpt lat="37.2478650" lon="127.0785150">
    <ele>75.6</ele>
    <time>2026-08-14T13:14:55Z</time>
   </trkpt>
   <trkpt lat="37.2478650" lon="127.0785310">
    <ele>75.7</ele>
    <time>2026-08-14T13:14:56Z</time>
   </trkpt>
   <trkpt lat="37.2478630" lon="127.0785470">
    <ele>75.7</ele>
    <time>2026-08-14T13:14:57Z</time>
   </trkpt>
   <trkpt lat="37.2478620" lon="127.0785630">
    <ele>75.8</ele>
    <time>2026-08-14T13:14:58Z</time>
   </trkpt>
   <trkpt lat="37.2478620" lon="127.0785750">
    <ele>75.8</ele>
    <time>2026-08-14T13:14:59Z</time>
   </trkpt>
   <trkpt lat="37.2478570" lon="127.0785870">
    <ele>75.9</ele>
    <time>2026-08-14T13:15:00Z</time>
   </trkpt>
   <trkpt lat="37.2478610" lon="127.0786010">
    <ele>75.9</ele>
    <time>2026-08-14T13:15:01Z</time>
   </trkpt>
   <trkpt lat="37.2478630" lon="127.0786120">
    <ele>76.0</ele>
    <time>2026-08-14T13:15:02Z</time>
   </trkpt>
   <trkpt lat="37.2478660" lon="127.0786270">
    <ele>76.0</ele>
    <time>2026-08-14T13:15:03Z</time>
   </trkpt>
   <trkpt lat="37.2478550" lon="127.0786550">
    <ele>76.1</ele>
    <time>2026-08-14T13:15:04Z</time>
   </trkpt>
   <trkpt lat="37.2478530" lon="127.0786690">
    <ele>76.1</ele>
    <time>2026-08-14T13:15:05Z</time>
   </trkpt>
   <trkpt lat="37.2478520" lon="127.0786790">
    <ele>76.2</ele>
    <time>2026-08-14T13:15:06Z</time>
   </trkpt>
   <trkpt lat="37.2478510" lon="127.0786870">
    <ele>76.2</ele>
    <time>2026-08-14T13:15:07Z</time>
   </trkpt>
   <trkpt lat="37.2478490" lon="127.0787000">
    <ele>76.2</ele>
    <time>2026-08-14T13:15:08Z</time>
   </trkpt>
   <trkpt lat="37.2478490" lon="127.0787000">
    <ele>76.2</ele>
    <time>2026-08-14T13:15:09Z</time>
   </trkpt>
  </trkseg>
 </trk>
</gpx>
