<?xml version="1.0" encoding="UTF-8"?>
<gpx creator="StravaGPX" version="1.1" xmlns="http://www.topografix.com/GPX/1/1" xmlns:xsi="http://www.w3.org/2001/XMLSchema-instance" xsi:schemaLocation="http://www.topografix.com/GPX/1/1 http://www.topografix.com/GPX/1/1/gpx.xsd">
 <metadata>
  <time>2026-08-14T12:55:53Z</time>
 </metadata>
 <trk>
  <name>완오르막1</name>
  <type>walking</type>
  <trkseg>
   <trkpt lat="37.2478190" lon="127.0759800">
    <ele>67.1</ele>
    <time>2026-08-14T12:55:53Z</time>
   </trkpt>
   <trkpt lat="37.2478180" lon="127.0759870">
    <ele>67.2</ele>
    <time>2026-08-14T12:55:54Z</time>
   </trkpt>
   <trkpt lat="37.2478160" lon="127.0759970">
    <ele>67.2</ele>
    <time>2026-08-14T12:55:55Z</time>
   </trkpt>
   <trkpt lat="37.2478140" lon="127.0760120">
    <ele>67.3</ele>
    <time>2026-08-14T12:55:56Z</time>
   </trkpt>
   <trkpt lat="37.2478140" lon="127.0760280">
    <ele>67.3</ele>
    <time>2026-08-14T12:55:57Z</time>
   </trkpt>
   <trkpt lat="37.2478150" lon="127.0760420">
    <ele>67.4</ele>
    <time>2026-08-14T12:55:58Z</time>
   </trkpt>
   <trkpt lat="37.2478170" lon="127.0760580">
    <ele>67.5</ele>
    <time>2026-08-14T12:55:59Z</time>
   </trkpt>
   <trkpt lat="37.2478170" lon="127.0760730">
    <ele>67.5</ele>
    <time>2026-08-14T12:56:00Z</time>
   </trkpt>
   <trkpt lat="37.2478180" lon="127.0760890">
    <ele>67.6</ele>
    <time>2026-08-14T12:56:01Z</time>
   </trkpt>
   <trkpt lat="37.2478210" lon="127.0761050">
    <ele>67.7</ele>
    <time>2026-08-14T12:56:02Z</time>
   </trkpt>
   <trkpt lat="37.2478190" lon="127.0761200">
    <ele>67.7</ele>
    <time>2026-08-14T12:56:03Z</time>
   </trkpt>
   <trkpt lat="37.2478220" lon="127.0761340">
    <ele>67.8</ele>
    <time>2026-08-14T12:56:04Z</time>
   </trkpt>
   <trkpt lat="37.2478260" lon="127.0761470">
    <ele>67.8</ele>
    <time>2026-08-14T12:56:05Z</time>
   </trkpt>
   <trkpt lat="37.2478280" lon="127.0761620">
    <ele>67.9</ele>
    <time>2026-08-14T12:56:06Z</time>
   </trkpt>
   <trkpt lat="37.2478280" lon="127.0761790">
    <ele>68.0</ele>
    <time>2026-08-14T12:56:07Z</time>
   </trkpt>
   <trkpt lat="37.2478270" lon="127.0761960">
    <ele>68.0</ele>
    <time>2026-08-14T12:56:08Z</time>
   </trkpt>
   <trkpt lat="37.2478270" lon="127.0762120">
    <ele>68.1</ele>
    <time>2026-08-14T12:56:09Z</time>
   </trkpt>
   <trkpt lat="37.2478300" lon="127.0762270">
    <ele>68.2</ele>
    <time>2026-08-14T12:56:10Z</time>
   </trkpt>
   <trkpt lat="37.2478280" lon="127.0762450">
    <ele>68.2</ele>
    <time>2026-08-14T12:56:11Z</time>
   </trkpt>
   <trkpt lat="37.2478260" lon="127.0762600">
    <ele>68.3</ele>
    <time>2026-08-14T12:56:12Z</time>
   </trkpt>
   <trkpt lat="37.2478230" lon="127.0762760">
    <ele>68.3</ele>
    <time>2026-08-14T12:56:13Z</time>
   </trkpt>
   <trkpt lat="37.2478210" lon="127.0762910">
    <ele>68.4</ele>
    <time>2026-08-14T12:56:14Z</time>
   </trkpt>
   <trkpt lat="37.2478200" lon="127.0763060">
    <ele>68.5</ele>
    <time>2026-08-14T12:56:15Z</time>
   </trkpt>
   <trkpt lat="37.2478210" lon="127.0763240">
    <ele>68.5</ele>
    <time>2026-08-14T12:56:16Z</time>
   </trkpt>
   <trkpt lat="37.2478220" lon="127.0763390">
    <ele>68.6</ele>
    <time>2026-08-14T12:56:17Z</time>
   </trkpt>
   <trkpt lat="37.2478230" lon="127.0763540">
    <ele>68.6</ele>
    <time>2026-08-14T12:56:18Z</time>
   </trkpt>
   <trkpt lat="37.2478250" lon="127.0763690">
    <ele>68.7</ele>
    <time>2026-08-14T12:56:19Z</time>
   </trkpt>
   <trkpt lat="37.2478260" lon="127.0763840">
    <ele>68.7</ele>
    <time>2026-08-14T12:56:20Z</time>
   </trkpt>
   <trkpt lat="37.2478260" lon="127.0763990">
    <ele>68.8</ele>
    <time>2026-08-14T12:56:21Z</time>
   </trkpt>
   <trkpt lat="37.2478280" lon="127.0764220">
    <ele>68.8</ele>
    <time>2026-08-14T12:56:22Z</time>
   </trkpt>
   <trkpt lat="37.2478310" lon="127.0764440">
    <ele>68.9</ele>
    <time>2026-08-14T12:56:23Z</time>
   </trkpt>
   <trkpt lat="37.2478320" lon="127.0764620">
    <ele>69.0</ele>
    <time>2026-08-14T12:56:24Z</time>
   </trkpt>
   <trkpt lat="37.2478350" lon="127.0764780">
    <ele>69.0</ele>
    <time>2026-08-14T12:56:25Z</time>
   </trkpt>
   <trkpt lat="37.2478370" lon="127.0764940">
    <ele>69.1</ele>
    <time>2026-08-14T12:56:26Z</time>
   </trkpt>
   <trkpt lat="37.2478420" lon="127.0765110">
    <ele>69.2</ele>
    <time>2026-08-14T12:56:27Z</time>
   </trkpt>
   <trkpt lat="37.2478440" lon="127.0765250">
    <ele>69.2</ele>
    <time>2026-08-14T12:56:28Z</time>
   </trkpt>
   <trkpt lat="37.2478480" lon="127.0765400">
    <ele>69.3</ele>
    <time>2026-08-14T12:56:29Z</time>
   </trkpt>
   <trkpt lat="37.2478480" lon="127.0765530">
    <ele>69.3</ele>
    <time>2026-08-14T12:56:30Z</time>
   </trkpt>
   <trkpt lat="37.2478500" lon="127.0765700">
    <ele>69.4</ele>
    <time>2026-08-14T12:56:31Z</time>
   </trkpt>
   <trkpt lat="37.2478520" lon="127.0765870">
    <ele>69.4</ele>
    <time>2026-08-14T12:56:32Z</time>
   </trkpt>
   <trkpt lat="37.2478560" lon="127.0766020">
    <ele>69.5</ele>
    <time>2026-08-14T12:56:33Z</time>
   </trkpt>
   <trkpt lat="37.2478570" lon="127.0766160">
    <ele>69.5</ele>
    <time>2026-08-14T12:56:34Z</time>
   </trkpt>
   <trkpt lat="37.2478590" lon="127.0766320">
    <ele>69.6</ele>
    <time>2026-08-14T12:56:35Z</time>
   </trkpt>
   <trkpt lat="37.2478600" lon="127.0766450">
    <ele>69.6</ele>
    <time>2026-08-14T12:56:36Z</time>
   </trkpt>
   <trkpt lat="37.2478630" lon="127.0766580">
    <ele>69.7</ele>
    <time>2026-08-14T12:56:37Z</time>
   </trkpt>
   <trkpt lat="37.2478620" lon="127.0766700">
    <ele>69.7</ele>
    <time>2026-08-14T12:56:38Z</time>
   </trkpt>
   <trkpt lat="37.2478630" lon="127.0766830">
    <ele>69.7</ele>
    <time>2026-08-14T12:56:39Z</time>
   </trkpt>
   <trkpt lat="37.2478630" lon="127.0766940">
    <ele>69.8</ele>
    <time>2026-08-14T12:56:40Z</time>
   </trkpt>
   <trkpt lat="37.2478630" lon="127.0767110">
    <ele>69.8</ele>
    <time>2026-08-14T12:56:41Z</time>
   </trkpt>
   <trkpt lat="37.2478630" lon="127.0767300">
    <ele>69.9</ele>
    <time>2026-08-14T12:56:42Z</time>
   </trkpt>
   <trkpt lat="37.2478630" lon="127.0767450">
    <ele>70.0</ele>
    <time>2026-08-14T12:56:43Z</time>
   </trkpt>
   <trkpt lat="37.2478630" lon="127.0767580">
    <ele>70.0</ele>
    <time>2026-08-14T12:56:44Z</time>
   </trkpt>
   <trkpt lat="37.2478640" lon="127.0767730">
    <ele>70.0</ele>
    <time>2026-08-14T12:56:45Z</time>
   </trkpt>
   <trkpt lat="37.2478630" lon="127.0767870">
    <ele>70.1</ele>
    <time>2026-08-14T12:56:46Z</time>
   </trkpt>
   <trkpt lat="37.2478650" lon="127.0768030">
    <ele>70.1</ele>
    <time>2026-08-14T12:56:47Z</time>
   </trkpt>
   <trkpt lat="37.2478660" lon="127.0768170">
    <ele>70.2</ele>
    <time>2026-08-14T12:56:48Z</time>
   </trkpt>
   <trkpt lat="37.2478660" lon="127.0768320">
    <ele>70.2</ele>
    <time>2026-08-14T12:56:49Z</time>
   </trkpt>
   <trkpt lat="37.2478670" lon="127.0768490">
    <ele>70.3</ele>
    <time>2026-08-14T12:56:50Z</time>
   </trkpt>
   <trkpt lat="37.2478620" lon="127.0768630">
    <ele>70.3</ele>
    <time>2026-08-14T12:56:51Z</time>
   </trkpt>
   <trkpt lat="37.2478620" lon="127.0768780">
    <ele>70.3</ele>
    <time>2026-08-14T12:56:52Z</time>
   </trkpt>
   <trkpt lat="37.2478610" lon="127.0768910">
    <ele>70.4</ele>
    <time>2026-08-14T12:56:53Z</time>
   </trkpt>
   <trkpt lat="37.2478600" lon="127.0769050">
    <ele>70.4</ele>
    <time>2026-08-14T12:56:54Z</time>
   </trkpt>
   <trkpt lat="37.2478580" lon="127.0769180">
    <ele>70.5</ele>
    <time>2026-08-14T12:56:55Z</time>
   </trkpt>
   <trkpt lat="37.2478570" lon="127.0769310">
    <ele>70.5</ele>
    <time>2026-08-14T12:56:56Z</time>
   </trkpt>
   <trkpt lat="37.2478560" lon="127.0769470">
    <ele>70.5</ele>
    <time>2026-08-14T12:56:57Z</time>
   </trkpt>
   <trkpt lat="37.2478550" lon="127.0769630">
    <ele>70.6</ele>
    <time>2026-08-14T12:56:58Z</time>
   </trkpt>
   <trkpt lat="37.2478530" lon="127.0769780">
    <ele>70.6</ele>
    <time>2026-08-14T12:56:59Z</time>
   </trkpt>
   <trkpt lat="37.2478500" lon="127.0769910">
    <ele>70.7</ele>
    <time>2026-08-14T12:57:00Z</time>
   </trkpt>
   <trkpt lat="37.2478480" lon="127.0770050">
    <ele>70.7</ele>
    <time>2026-08-14T12:57:01Z</time>
   </trkpt>
   <trkpt lat="37.2478480" lon="127.0770190">
    <ele>70.8</ele>
    <time>2026-08-14T12:57:02Z</time>
   </trkpt>
   <trkpt lat="37.2478470" lon="127.0770330">
    <ele>70.8</ele>
    <time>2026-08-14T12:57:03Z</time>
   </trkpt>
   <trkpt lat="37.2478460" lon="127.0770440">
    <ele>70.8</ele>
    <time>2026-08-14T12:57:04Z</time>
   </trkpt>
   <trkpt lat="37.2478440" lon="127.0770540">
    <ele>70.9</ele>
    <time>2026-08-14T12:57:05Z</time>
   </trkpt>
   <trkpt lat="37.2478400" lon="127.0770690">
    <ele>70.9</ele>
    <time>2026-08-14T12:57:06Z</time>
   </trkpt>
   <trkpt lat="37.2478390" lon="127.0770840">
    <ele>71.0</ele>
    <time>2026-08-14T12:57:07Z</time>
   </trkpt>
   <trkpt lat="37.2478380" lon="127.0770980">
    <ele>71.0</ele>
    <time>2026-08-14T12:57:08Z</time>
   </trkpt>
   <trkpt lat="37.2478390" lon="127.0771160">
    <ele>71.1</ele>
    <time>2026-08-14T12:57:09Z</time>
   </trkpt>
   <trkpt lat="37.2478370" lon="127.0771320">
    <ele>71.1</ele>
    <time>2026-08-14T12:57:10Z</time>
   </trkpt>
   <trkpt lat="37.2478360" lon="127.0771450">
    <ele>71.2</ele>
    <time>2026-08-14T12:57:11Z</time>
   </trkpt>
   <trkpt lat="37.2478360" lon="127.0771590">
    <ele>71.2</ele>
    <time>2026-08-14T12:57:12Z</time>
   </trkpt>
   <trkpt lat="37.2478340" lon="127.0771750">
    <ele>71.3</ele>
    <time>2026-08-14T12:57:13Z</time>
   </trkpt>
   <trkpt lat="37.2478330" lon="127.0771910">
    <ele>71.3</ele>
    <time>2026-08-14T12:57:14Z</time>
   </trkpt>
   <trkpt lat="37.2478370" lon="127.0772030">
    <ele>71.4</ele>
    <time>2026-08-14T12:57:15Z</time>
   </trkpt>
   <trkpt lat="37.2478390" lon="127.0772160">
    <ele>71.4</ele>
    <time>2026-08-14T12:57:16Z</time>
   </trkpt>
   <trkpt lat="37.2478410" lon="127.0772290">
    <ele>71.4</ele>
    <time>2026-08-14T12:57:17Z</time>
   </trkpt>
   <trkpt lat="37.2478420" lon="127.0772460">
    <ele>71.5</ele>
    <time>2026-08-14T12:57:18Z</time>
   </trkpt>
   <trkpt lat="37.2478440" lon="127.0772620">
    <ele>71.6</ele>
    <time>2026-08-14T12:57:19Z</time>
   </trkpt>
   <trkpt lat="37.2478460" lon="127.0772710">
    <ele>71.6</ele>
    <time>2026-08-14T12:57:20Z</time>
   </trkpt>
   <trkpt lat="37.2478470" lon="127.0772830">
    <ele>71.6</ele>
    <time>2026-08-14T12:57:21Z</time>
   </trkpt>
   <trkpt lat="37.2478470" lon="127.0772980">
    <ele>71.7</ele>
    <time>2026-08-14T12:57:22Z</time>
   </trkpt>
   <trkpt lat="37.2478450" lon="127.0773160">
    <ele>71.7</ele>
    <time>2026-08-14T12:57:23Z</time>
   </trkpt>
   <trkpt lat="37.2478460" lon="127.0773260">
    <ele>71.8</ele>
    <time>2026-08-14T12:57:24Z</time>
   </trkpt>
   <trkpt lat="37.2478460" lon="127.0773390">
    <ele>71.8</ele>
    <time>2026-08-14T12:57:25Z</time>
   </trkpt>
   <trkpt lat="37.2478440" lon="127.0773520">
    <ele>71.8</ele>
    <time>2026-08-14T12:57:26Z</time>
   </trkpt>
   <trkpt lat="37.2478440" lon="127.0773690">
    <ele>71.9</ele>
    <time>2026-08-14T12:57:27Z</time>
   </trkpt>
   <trkpt lat="37.2478460" lon="127.0773800">
    <ele>71.9</ele>
    <time>2026-08-14T12:57:28Z</time>
   </trkpt>
   <trkpt lat="37.2478510" lon="127.0773950">
    <ele>72.0</ele>
    <time>2026-08-14T12:57:29Z</time>
   </trkpt>
   <trkpt lat="37.2478540" lon="127.0774110">
    <ele>72.0</ele>
    <time>2026-08-14T12:57:30Z</time>
   </trkpt>
   <trkpt lat="37.2478540" lon="127.0774230">
    <ele>72.1</ele>
    <time>2026-08-14T12:57:31Z</time>
   </trkpt>
   <trkpt lat="37.2478540" lon="127.0774390">
    <ele>72.1</ele>
    <time>2026-08-14T12:57:32Z</time>
   </trkpt>
   <trkpt lat="37.2478550" lon="127.0774560">
    <ele>72.2</ele>
    <time>2026-08-14T12:57:33Z</time>
   </trkpt>
   <trkpt lat="37.2478570" lon="127.0774720">
    <ele>72.3</ele>
    <time>2026-08-14T12:57:34Z</time>
   </trkpt>
   <trkpt lat="37.2478580" lon="127.0774870">
    <ele>72.3</ele>
    <time>2026-08-14T12:57:35Z</time>
   </trkpt>
   <trkpt lat="37.2478610" lon="127.0775050">
    <ele>72.4</ele>
    <time>2026-08-14T12:57:36Z</time>
   </trkpt>
   <trkpt lat="37.2478590" lon="127.0775240">
    <ele>72.4</ele>
    <time>2026-08-14T12:57:37Z</time>
   </trkpt>
   <trkpt lat="37.2478580" lon="127.0775370">
    <ele>72.5</ele>
    <time>2026-08-14T12:57:38Z</time>
   </trkpt>
   <trkpt lat="37.2478600" lon="127.0775500">
    <ele>72.5</ele>
    <time>2026-08-14T12:57:39Z</time>
   </trkpt>
   <trkpt lat="37.2478620" lon="127.0775640">
    <ele>72.6</ele>
    <time>2026-08-14T12:57:40Z</time>
   </trkpt>
   <trkpt lat="37.2478610" lon="127.0775770">
    <ele>72.6</ele>
    <time>2026-08-14T12:57:41Z</time>
   </trkpt>
   <trkpt lat="37.2478650" lon="127.0775900">
    <ele>72.7</ele>
    <time>2026-08-14T12:57:42Z</time>
   </trkpt>
   <trkpt lat="37.2478710" lon="127.0776060">
    <ele>72.7</ele>
    <time>2026-08-14T12:57:43Z</time>
   </trkpt>
   <trkpt lat="37.2478750" lon="127.0776160">
    <ele>72.7</ele>
    <time>2026-08-14T12:57:44Z</time>
   </trkpt>
   <trkpt lat="37.2478790" lon="127.0776290">
    <ele>72.8</ele>
    <time>2026-08-14T12:57:45Z</time>
   </trkpt>
   <trkpt lat="37.2478830" lon="127.0776430">
    <ele>72.8</ele>
    <time>2026-08-14T12:57:46Z</time>
   </trkpt>
   <trkpt lat="37.2478880" lon="127.0776640">
    <ele>72.9</ele>
    <time>2026-08-14T12:57:47Z</time>
   </trkpt>
   <trkpt lat="37.2478910" lon="127.0776790">
    <ele>73.0</ele>
    <time>2026-08-14T12:57:48Z</time>
   </trkpt>
   <trkpt lat="37.2478890" lon="127.0776950">
    <ele>73.0</ele>
    <time>2026-08-14T12:57:49Z</time>
   </trkpt>
   <trkpt lat="37.2478910" lon="127.0777060">
    <ele>73.1</ele>
    <time>2026-08-14T12:57:50Z</time>
   </trkpt>
   <trkpt lat="37.2478890" lon="127.0777200">
    <ele>73.1</ele>
    <time>2026-08-14T12:57:51Z</time>
   </trkpt>
   <trkpt lat="37.2478910" lon="127.0777370">
    <ele>73.2</ele>
    <time>2026-08-14T12:57:52Z</time>
   </trkpt>
   <trkpt lat="37.2478830" lon="127.0777500">
    <ele>73.2</ele>
    <time>2026-08-14T12:57:53Z</time>
   </trkpt>
   <trkpt lat="37.2478830" lon="127.0777650">
    <ele>73.3</ele>
    <time>2026-08-14T12:57:54Z</time>
   </trkpt>
   <trkpt lat="37.2478820" lon="127.0777830">
    <ele>73.3</ele>
    <time>2026-08-14T12:57:55Z</time>
   </trkpt>
   <trkpt lat="37.2478800" lon="127.0777970">
    <ele>73.4</ele>
    <time>2026-08-14T12:57:56Z</time>
   </trkpt>
   <trkpt lat="37.2478820" lon="127.0778100">
    <ele>73.4</ele>
    <time>2026-08-14T12:57:57Z</time>
   </trkpt>
   <trkpt lat="37.2478820" lon="127.0778180">
    <ele>73.4</ele>
    <time>2026-08-14T12:57:58Z</time>
   </trkpt>
   <trkpt lat="37.2478840" lon="127.0778340">
    <ele>73.5</ele>
    <time>2026-08-14T12:57:59Z</time>
   </trkpt>
   <trkpt lat="37.2478810" lon="127.0778540">
    <ele>73.6</ele>
    <time>2026-08-14T12:58:00Z</time>
   </trkpt>
   <trkpt lat="37.2478790" lon="127.0778660">
    <ele>73.6</ele>
    <time>2026-08-14T12:58:01Z</time>
   </trkpt>
   <trkpt lat="37.2478800" lon="127.0778790">
    <ele>73.7</ele>
    <time>2026-08-14T12:58:02Z</time>
   </trkpt>
   <trkpt lat="37.2478800" lon="127.0778900">
    <ele>73.7</ele>
    <time>2026-08-14T12:58:03Z</time>
   </trkpt>
   <trkpt lat="37.2478790" lon="127.0779040">
    <ele>73.7</ele>
    <time>2026-08-14T12:58:04Z</time>
   </trkpt>
   <trkpt lat="37.2478820" lon="127.0779200">
    <ele>73.8</ele>
    <time>2026-08-14T12:58:05Z</time>
   </trkpt>
   <trkpt lat="37.2478810" lon="127.0779330">
    <ele>73.8</ele>
    <time>2026-08-14T12:58:06Z</time>
   </trkpt>
   <trkpt lat="37.2478810" lon="127.0779470">
    <ele>73.9</ele>
    <time>2026-08-14T12:58:07Z</time>
   </trkpt>
   <trkpt lat="37.2478790" lon="127.0779600">
    <ele>73.9</ele>
    <time>2026-08-14T12:58:08Z</time>
   </trkpt>
   <trkpt lat="37.2478780" lon="127.0779740">
    <ele>74.0</ele>
    <time>2026-08-14T12:58:09Z</time>
   </trkpt>
   <trkpt lat="37.2478740" lon="127.0779880">
    <ele>74.0</ele>
    <time>2026-08-14T12:58:10Z</time>
   </trkpt>
   <trkpt lat="37.2478720" lon="127.0780030">
    <ele>74.1</ele>
    <time>2026-08-14T12:58:11Z</time>
   </trkpt>
   <trkpt lat="37.2478710" lon="127.0780160">
    <ele>74.1</ele>
    <time>2026-08-14T12:58:12Z</time>
   </trkpt>
   <trkpt lat="37.2478680" lon="127.0780310">
    <ele>74.2</ele>
    <time>2026-08-14T12:58:13Z</time>
   </trkpt>
   <trkpt lat="37.2478670" lon="127.0780490">
    <ele>74.2</ele>
    <time>2026-08-14T12:58:14Z</time>
   </trkpt>
   <trkpt lat="37.2478630" lon="127.0780680">
    <ele>74.3</ele>
    <time>2026-08-14T12:58:15Z</time>
   </trkpt>
   <trkpt lat="37.2478610" lon="127.0780810">
    <ele>74.3</ele>
    <time>2026-08-14T12:58:16Z</time>
   </trkpt>
   <trkpt lat="37.2478590" lon="127.0780960">
    <ele>74.3</ele>
    <time>2026-08-14T12:58:17Z</time>
   </trkpt>
   <trkpt lat="37.2478580" lon="127.0781080">
    <ele>74.4</ele>
    <time>2026-08-14T12:58:18Z</time>
   </trkpt>
   <trkpt lat="37.2478550" lon="127.0781200">
    <ele>74.4</ele>
    <time>2026-08-14T12:58:19Z</time>
   </trkpt>
   <trkpt lat="37.2478510" lon="127.0781360">
    <ele>74.4</ele>
    <time>2026-08-14T12:58:20Z</time>
   </trkpt>
   <trkpt lat="37.2478470" lon="127.0781480">
    <ele>74.5</ele>
    <time>2026-08-14T12:58:21Z</time>
   </trkpt>
   <trkpt lat="37.2478400" lon="127.0781580">
    <ele>74.5</ele>
    <time>2026-08-14T12:58:22Z</time>
   </trkpt>
   <trkpt lat="37.2478330" lon="127.0781700">
    <ele>74.5</ele>
    <time>2026-08-14T12:58:23Z</time>
   </trkpt>
   <trkpt lat="37.2478250" lon="127.0781780">
    <ele>74.6</ele>
    <time>2026-08-14T12:58:24Z</time>
   </trkpt>
   <trkpt lat="37.2478250" lon="127.0781890">
    <ele>74.6</ele>
    <time>2026-08-14T12:58:25Z</time>
   </trkpt>
   <trkpt lat="37.2478210" lon="127.0782000">
    <ele>74.6</ele>
    <time>2026-08-14T12:58:26Z</time>
   </trkpt>
   <trkpt lat="37.2478140" lon="127.0782080">
    <ele>74.7</ele>
    <time>2026-08-14T12:58:27Z</time>
   </trkpt>
   <trkpt lat="37.2478050" lon="127.0782200">
    <ele>74.7</ele>
    <time>2026-08-14T12:58:28Z</time>
   </trkpt>
   <trkpt lat="37.2478020" lon="127.0782340">
    <ele>74.7</ele>
    <time>2026-08-14T12:58:29Z</time>
   </trkpt>
   <trkpt lat="37.2478000" lon="127.0782480">
    <ele>74.8</ele>
    <time>2026-08-14T12:58:30Z</time>
   </trkpt>
   <trkpt lat="37.2478010" lon="127.0782610">
    <ele>74.8</ele>
    <time>2026-08-14T12:58:31Z</time>
   </trkpt>
   <trkpt lat="37.2478020" lon="127.0782750">
    <ele>74.8</ele>
    <time>2026-08-14T12:58:32Z</time>
   </trkpt>
   <trkpt lat="37.2478020" lon="127.0782880">
    <ele>74.9</ele>
    <time>2026-08-14T12:58:33Z</time>
   </trkpt>
   <trkpt lat="37.2478010" lon="127.0783040">
    <ele>74.9</ele>
    <time>2026-08-14T12:58:34Z</time>
   </trkpt>
   <trkpt lat="37.2478020" lon="127.0783190">
    <ele>75.0</ele>
    <time>2026-08-14T12:58:35Z</time>
   </trkpt>
   <trkpt lat="37.2478040" lon="127.0783310">
    <ele>75.0</ele>
    <time>2026-08-14T12:58:36Z</time>
   </trkpt>
   <trkpt lat="37.2478060" lon="127.0783440">
    <ele>75.1</ele>
    <time>2026-08-14T12:58:37Z</time>
   </trkpt>
   <trkpt lat="37.2478060" lon="127.0783560">
    <ele>75.1</ele>
    <time>2026-08-14T12:58:38Z</time>
   </trkpt>
   <trkpt lat="37.2478060" lon="127.0783560">
    <ele>75.1</ele>
    <time>2026-08-14T12:58:39Z</time>
   </trkpt>
  </trkseg>
 </trk>
</gpx>
