<?xml version="1.0" encoding="UTF-8"?>
<gpx creator="StravaGPX" version="1.1" xmlns="http://www.topografix.com/GPX/1/1" xmlns:xsi="http://www.w3.org/2001/XMLSchema-instance" xsi:schemaLocation="http://www.topografix.com/GPX/1/1 http://www.topografix.com/GPX/1/1/gpx.xsd">
 <metadata>
  <time>2026-08-14T11:57:27Z</time>
 </metadata>
 <trk>
  <name>급 오르막1</name>
  <type>walking</type>
  <trkseg>
   <trkpt lat="37.2438530" lon="127.0787750">
    <ele>75.5</ele>
    <time>2026-08-14T11:57:27Z</time>
   </trkpt>
   <trkpt lat="37.2438530" lon="127.0787750">
    <ele>75.5</ele>
    <time>2026-08-14T11:57:28Z</time>
   </trkpt>
   <trkpt lat="37.2438620" lon="127.0788160">
    <ele>75.5</ele>
    <time>2026-08-14T11:57:29Z</time>
   </trkpt>
   <trkpt lat="37.2438640" lon="127.0788510">
    <ele>75.5</ele>
    <time>2026-08-14T11:57:30Z</time>
   </trkpt>
   <trkpt lat="37.2438610" lon="127.0788760">
    <ele>75.6</ele>
    <time>2026-08-14T11:57:31Z</time>
   </trkpt>
   <trkpt lat="37.2438670" lon="127.0789770">
    <ele>75.6</ele>
    <time>2026-08-14T11:57:32Z</time>
   </trkpt>
   <trkpt lat="37.2439020" lon="127.0791260">
    <ele>75.8</ele>
    <time>2026-08-14T11:57:33Z</time>
   </trkpt>
   <trkpt lat="37.2438940" lon="127.0791260">
    <ele>75.8</ele>
    <time>2026-08-14T11:57:34Z</time>
   </trkpt>
   <trkpt lat="37.2438820" lon="127.0791270">
    <ele>75.8</ele>
    <time>2026-08-14T11:57:35Z</time>
   </trkpt>
   <trkpt lat="37.2438710" lon="127.0791260">
    <ele>75.8</ele>
    <time>2026-08-14T11:57:36Z</time>
   </trkpt>
   <trkpt lat="37.2438610" lon="127.0791270">
    <ele>75.8</ele>
    <time>2026-08-14T11:57:37Z</time>
   </trkpt>
   <trkpt lat="37.2438490" lon="127.0791290">
    <ele>75.8</ele>
    <time>2026-08-14T11:57:38Z</time>
   </trkpt>
   <trkpt lat="37.2438400" lon="127.0791310">
    <ele>75.8</ele>
    <time>2026-08-14T11:57:39Z</time>
   </trkpt>
   <trkpt lat="37.2438310" lon="127.0791290">
    <ele>75.9</ele>
    <time>2026-08-14T11:57:40Z</time>
   </trkpt>
   <trkpt lat="37.2438220" lon="127.0791310">
    <ele>75.9</ele>
    <time>2026-08-14T11:57:41Z</time>
   </trkpt>
   <trkpt lat="37.2438110" lon="127.0791330">
    <ele>75.9</ele>
    <time>2026-08-14T11:57:42Z</time>
   </trkpt>
   <trkpt lat="37.2438000" lon="127.0791360">
    <ele>75.9</ele>
    <time>2026-08-14T11:57:43Z</time>
   </trkpt>
   <trkpt lat="37.2437880" lon="127.0791370">
    <ele>75.9</ele>
    <time>2026-08-14T11:57:44Z</time>
   </trkpt>
   <trkpt lat="37.2437740" lon="127.0791380">
    <ele>75.9</ele>
    <time>2026-08-14T11:57:45Z</time>
   </trkpt>
   <trkpt lat="37.2437620" lon="127.0791450">
    <ele>76.0</ele>
    <time>2026-08-14T11:57:46Z</time>
   </trkpt>
   <trkpt lat="37.2437470" lon="127.0791470">
    <ele>76.0</ele>
    <time>2026-08-14T11:57:47Z</time>
   </trkpt>
   <trkpt lat="37.2437320" lon="127.0791570">
    <ele>76.1</ele>
    <time>2026-08-14T11:57:48Z</time>
   </trkpt>
   <trkpt lat="37.2437200" lon="127.0791640">
    <ele>76.1</ele>
    <time>2026-08-14T11:57:49Z</time>
   </trkpt>
   <trkpt lat="37.2437090" lon="127.0791670">
    <ele>76.1</ele>
    <time>2026-08-14T11:57:50Z</time>
   </trkpt>
   <trkpt lat="37.2436970" lon="127.0791710">
    <ele>76.2</ele>
    <time>2026-08-14T11:57:51Z</time>
   </trkpt>
   <trkpt lat="37.2436870" lon="127.0791760">
    <ele>76.2</ele>
    <time>2026-08-14T11:57:52Z</time>
   </trkpt>
   <trkpt lat="37.2436760" lon="127.0791820">
    <ele>76.2</ele>
    <time>2026-08-14T11:57:53Z</time>
   </trkpt>
   <trkpt lat="37.2436640" lon="127.0791880">
    <ele>76.2</ele>
    <time>2026-08-14T11:57:54Z</time>
   </trkpt>
   <trkpt lat="37.2436550" lon="127.0791910">
    <ele>76.3</ele>
    <time>2026-08-14T11:57:55Z</time>
   </trkpt>
   <trkpt lat="37.2436380" lon="127.0791960">
    <ele>76.3</ele>
    <time>2026-08-14T11:57:56Z</time>
   </trkpt>
   <trkpt lat="37.2436270" lon="127.0792090">
    <ele>76.5</ele>
    <time>2026-08-14T11:57:57Z</time>
   </trkpt>
   <trkpt lat="37.2436190" lon="127.0792180">
    <ele>76.5</ele>
    <time>2026-08-14T11:57:58Z</time>
   </trkpt>
   <trkpt lat="37.2436130" lon="127.0792260">
    <ele>76.6</ele>
    <time>2026-08-14T11:57:59Z</time>
   </trkpt>
   <trkpt lat="37.2436050" lon="127.0792330">
    <ele>76.6</ele>
    <time>2026-08-14T11:58:00Z</time>
   </trkpt>
   <trkpt lat="37.2435980" lon="127.0792410">
    <ele>76.7</ele>
    <time>2026-08-14T11:58:01Z</time>
   </trkpt>
   <trkpt lat="37.2435920" lon="127.0792510">
    <ele>76.8</ele>
    <time>2026-08-14T11:58:02Z</time>
   </trkpt>
   <trkpt lat="37.2435870" lon="127.0792650">
    <ele>76.9</ele>
    <time>2026-08-14T11:58:03Z</time>
   </trkpt>
   <trkpt lat="37.2435750" lon="127.0792770">
    <ele>77.0</ele>
    <time>2026-08-14T11:58:04Z</time>
   </trkpt>
   <trkpt lat="37.2435710" lon="127.0792930">
    <ele>77.1</ele>
    <time>2026-08-14T11:58:05Z</time>
   </trkpt>
   <trkpt lat="37.2435710" lon="127.0793080">
    <ele>77.1</ele>
    <time>2026-08-14T11:58:06Z</time>
   </trkpt>
   <trkpt lat="37.2435700" lon="127.0793230">
    <ele>77.2</ele>
    <time>2026-08-14T11:58:07Z</time>
   </trkpt>
   <trkpt lat="37.2435680" lon="127.0793400">
    <ele>77.3</ele>
    <time>2026-08-14T11:58:08Z</time>
   </trkpt>
   <trkpt lat="37.2435680" lon="127.0793570">
    <ele>77.4</ele>
    <time>2026-08-14T11:58:09Z</time>
   </trkpt>
   <trkpt lat="37.2435650" lon="127.0793750">
    <ele>77.5</ele>
    <time>2026-08-14T11:58:10Z</time>
   </trkpt>
   <trkpt lat="37.2435660" lon="127.0793860">
    <ele>77.6</ele>
    <time>2026-08-14T11:58:11Z</time>
   </trkpt>
   <trkpt lat="37.2435650" lon="127.0794060">
    <ele>77.7</ele>
    <time>2026-08-14T11:58:12Z</time>
   </trkpt>
   <trkpt lat="37.2435660" lon="127.0794230">
    <ele>77.8</ele>
    <time>2026-08-14T11:58:13Z</time>
   </trkpt>
   <trkpt lat="37.2435610" lon="127.0794340">
    <ele>77.9</ele>
    <time>2026-08-14T11:58:14Z</time>
   </trkpt>
   <trkpt lat="37.2435590" lon="127.0794450">
    <ele>78.0</ele>
    <time>2026-08-14T11:58:15Z</time>
   </trkpt>
   <trkpt lat="37.2435630" lon="127.0794620">
    <ele>78.1</ele>
    <time>2026-08-14T11:58:16Z</time>
   </trkpt>
   <trkpt lat="37.2435650" lon="127.0794810">
    <ele>78.2</ele>
    <time>2026-08-14T11:58:17Z</time>
   </trkpt>
   <trkpt lat="37.2435680" lon="127.0794970">
    <ele>78.3</ele>
    <time>2026-08-14T11:58:18Z</time>
   </trkpt>
   <trkpt lat="37.2435680" lon="127.0795170">
    <ele>78.4</ele>
    <time>2026-08-14T11:58:19Z</time>
   </trkpt>
   <trkpt lat="37.2435700" lon="127.0795320">
    <ele>78.5</ele>
    <time>2026-08-14T11:58:20Z</time>
   </trkpt>
   <trkpt lat="37.2435700" lon="127.0795460">
    <ele>78.6</ele>
    <time>2026-08-14T11:58:21Z</time>
   </trkpt>
   <trkpt lat="37.2435710" lon="127.0795560">
    <ele>78.7</ele>
    <time>2026-08-14T11:58:22Z</time>
   </trkpt>
   <trkpt lat="37.2435720" lon="127.0795650">
    <ele>78.7</ele>
    <time>2026-08-14T11:58:23Z</time>
   </trkpt>
   <trkpt lat="37.2435730" lon="127.0795750">
    <ele>78.8</ele>
    <time>2026-08-14T11:58:24Z</time>
   </trkpt>
   <trkpt lat="37.2435750" lon="127.0795900">
    <ele>78.9</ele>
    <time>2026-08-14T11:58:25Z</time>
   </trkpt>
   <trkpt lat="37.2435750" lon="127.0796020">
    <ele>79.0</ele>
    <time>2026-08-14T11:58:26Z</time>
   </trkpt>
   <trkpt lat="37.2435720" lon="127.0796120">
    <ele>79.1</ele>
    <time>2026-08-14T11:58:27Z</time>
   </trkpt>
   <trkpt lat="37.2435730" lon="127.0796270">
    <ele>79.2</ele>
    <time>2026-08-14T11:58:28Z</time>
   </trkpt>
   <trkpt lat="37.2435740" lon="127.0796400">
    <ele>79.3</ele>
    <time>2026-08-14T11:58:29Z</time>
   </trkpt>
   <trkpt lat="37.2435740" lon="127.0796510">
    <ele>79.3</ele>
    <time>2026-08-14T11:58:30Z</time>
   </trkpt>
   <trkpt lat="37.2435770" lon="127.0796630">
    <ele>79.4</ele>
    <time>2026-08-14T11:58:31Z</time>
   </trkpt>
   <trkpt lat="37.2435790" lon="127.0796720">
    <ele>79.5</ele>
    <time>2026-08-14T11:58:32Z</time>
   </trkpt>
   <trkpt lat="37.2435820" lon="127.0796870">
    <ele>79.6</ele>
    <time>2026-08-14T11:58:33Z</time>
   </trkpt>
   <trkpt lat="37.2435840" lon="127.0796980">
    <ele>79.7</ele>
    <time>2026-08-14T11:58:34Z</time>
   </trkpt>
   <trkpt lat="37.2435830" lon="127.0797090">
    <ele>79.7</ele>
    <time>2026-08-14T11:58:35Z</time>
   </trkpt>
   <trkpt lat="37.2435830" lon="127.0797230">
    <ele>79.8</ele>
    <time>2026-08-14T11:58:36Z</time>
   </trkpt>
   <trkpt lat="37.2435850" lon="127.0797350">
    <ele>79.9</ele>
    <time>2026-08-14T11:58:37Z</time>
   </trkpt>
   <trkpt lat="37.2435850" lon="127.0797460">
    <ele>80.0</ele>
    <time>2026-08-14T11:58:38Z</time>
   </trkpt>
   <trkpt lat="37.2435840" lon="127.0797580">
    <ele>80.1</ele>
    <time>2026-08-14T11:58:39Z</time>
   </trkpt>
   <trkpt lat="37.2435840" lon="127.0797720">
    <ele>80.2</ele>
    <time>2026-08-14T11:58:40Z</time>
   </trkpt>
   <trkpt lat="37.2435850" lon="127.0797790">
    <ele>80.2</ele>
    <time>2026-08-14T11:58:41Z</time>
   </trkpt>
   <trkpt lat="37.2435840" lon="127.0797910">
    <ele>80.3</ele>
    <time>2026-08-14T11:58:42Z</time>
   </trkpt>
   <trkpt lat="37.2435840" lon="127.0798060">
    <ele>80.4</ele>
    <time>2026-08-14T11:58:43Z</time>
   </trkpt>
   <trkpt lat="37.2435840" lon="127.0798190">
    <ele>80.5</ele>
    <time>2026-08-14T11:58:44Z</time>
   </trkpt>
   <trkpt lat="37.2435860" lon="127.0798310">
    <ele>80.6</ele>
    <time>2026-08-14T11:58:45Z</time>
   </trkpt>
   <trkpt lat="37.2435860" lon="127.0798430">
    <ele>80.7</ele>
    <time>2026-08-14T11:58:46Z</time>
   </trkpt>
   <trkpt lat="37.2435840" lon="127.0798550">
    <ele>80.8</ele>
    <time>2026-08-14T11:58:47Z</time>
   </trkpt>
   <trkpt lat="37.2435830" lon="127.0798670">
    <ele>80.9</ele>
    <time>2026-08-14T11:58:48Z</time>
   </trkpt>
   <trkpt lat="37.2435840" lon="127.0798780">
    <ele>81.0</ele>
    <time>2026-08-14T11:58:49Z</time>
   </trkpt>
   <trkpt lat="37.2435850" lon="127.0798880">
    <ele>81.0</ele>
    <time>2026-08-14T11:58:50Z</time>
   </trkpt>
   <trkpt lat="37.2435860" lon="127.0799040">
    <ele>81.1</ele>
    <time>2026-08-14T11:58:51Z</time>
   </trkpt>
   <trkpt lat="37.2435850" lon="127.0799220">
    <ele>81.3</ele>
    <time>2026-08-14T11:58:52Z</time>
   </trkpt>
   <trkpt lat="37.2435890" lon="127.0799360">
    <ele>81.4</ele>
    <time>2026-08-14T11:58:53Z</time>
   </trkpt>
   <trkpt lat="37.2435880" lon="127.0799490">
    <ele>81.5</ele>
    <time>2026-08-14T11:58:54Z</time>
   </trkpt>
   <trkpt lat="37.2435880" lon="127.0799660">
    <ele>81.6</ele>
    <time>2026-08-14T11:58:55Z</time>
   </trkpt>
   <trkpt lat="37.2435850" lon="127.0799760">
    <ele>81.7</ele>
    <time>2026-08-14T11:58:56Z</time>
   </trkpt>
   <trkpt lat="37.2435850" lon="127.0799860">
    <ele>81.7</ele>
    <time>2026-08-14T11:58:57Z</time>
   </trkpt>
   <trkpt lat="37.2435860" lon="127.0799980">
    <ele>81.8</ele>
    <time>2026-08-14T11:58:58Z</time>
   </trkpt>
   <trkpt lat="37.2435890" lon="127.0800080">
    <ele>81.9</ele>
    <time>2026-08-14T11:58:59Z</time>
   </trkpt>
   <trkpt lat="37.2435900" lon="127.0800170">
    <ele>82.0</ele>
    <time>2026-08-14T11:59:00Z</time>
   </trkpt>
   <trkpt lat="37.2435900" lon="127.0800250">
    <ele>82.0</ele>
    <time>2026-08-14T11:59:01Z</time>
   </trkpt>
   <trkpt lat="37.2435910" lon="127.0800350">
    <ele>82.1</ele>
    <time>2026-08-14T11:59:02Z</time>
   </trkpt>
   <trkpt lat="37.2435920" lon="127.0800460">
    <ele>82.2</ele>
    <time>2026-08-14T11:59:03Z</time>
   </trkpt>
   <trkpt lat="37.2435930" lon="127.0800580">
    <ele>82.3</ele>
    <time>2026-08-14T11:59:04Z</time>
   </trkpt>
   <trkpt lat="37.2435930" lon="127.0800710">
    <ele>82.4</ele>
    <time>2026-08-14T11:59:05Z</time>
   </trkpt>
   <trkpt lat="37.2435880" lon="127.0800830">
    <ele>82.5</ele>
    <time>2026-08-14T11:59:06Z</time>
   </trkpt>
   <trkpt lat="37.2435880" lon="127.0800930">
    <ele>82.5</ele>
    <time>2026-08-14T11:59:07Z</time>
   </trkpt>
   <trkpt lat="37.2435890" lon="127.0801030">
    <ele>82.6</ele>
    <time>2026-08-14T11:59:08Z</time>
   </trkpt>
   <trkpt lat="37.2435900" lon="127.0801170">
    <ele>82.7</ele>
    <time>2026-08-14T11:59:09Z</time>
   </trkpt>
   <trkpt lat="37.2435940" lon="127.0801310">
    <ele>82.8</ele>
    <time>2026-08-14T11:59:10Z</time>
   </trkpt>
   <trkpt lat="37.2435970" lon="127.0801440">
    <ele>82.9</ele>
    <time>2026-08-14T11:59:11Z</time>
   </trkpt>
   <trkpt lat="37.2436000" lon="127.0801520">
    <ele>83.0</ele>
    <time>2026-08-14T11:59:12Z</time>
   </trkpt>
   <trkpt lat="37.2436070" lon="127.0801590">
    <ele>83.0</ele>
    <time>2026-08-14T11:59:13Z</time>
   </trkpt>
   <trkpt lat="37.2436140" lon="127.0801690">
    <ele>83.1</ele>
    <time>2026-08-14T11:59:14Z</time>
   </trkpt>
   <trkpt lat="37.2436250" lon="127.0801760">
    <ele>83.3</ele>
    <time>2026-08-14T11:59:15Z</time>
   </trkpt>
   <trkpt lat="37.2436330" lon="127.0801860">
    <ele>83.4</ele>
    <time>2026-08-14T11:59:16Z</time>
   </trkpt>
   <trkpt lat="37.2436380" lon="127.0801970">
    <ele>83.4</ele>
    <time>2026-08-14T11:59:17Z</time>
   </trkpt>
   <trkpt lat="37.2436440" lon="127.0802080">
    <ele>83.5</ele>
    <time>2026-08-14T11:59:18Z</time>
   </trkpt>
   <trkpt lat="37.2436480" lon="127.0802170">
    <ele>83.6</ele>
    <time>2026-08-14T11:59:19Z</time>
   </trkpt>
   <trkpt lat="37.2436530" lon="127.0802290">
    <ele>83.7</ele>
    <time>2026-08-14T11:59:20Z</time>
   </trkpt>
   <trkpt lat="37.2436560" lon="127.0802420">
    <ele>83.8</ele>
    <time>2026-08-14T11:59:21Z</time>
   </trkpt>
   <trkpt lat="37.2436570" lon="127.0802560">
    <ele>83.9</ele>
    <time>2026-08-14T11:59:22Z</time>
   </trkpt>
   <trkpt lat="37.2436560" lon="127.0802680">
    <ele>84.0</ele>
    <time>2026-08-14T11:59:23Z</time>
   </trkpt>
   <trkpt lat="37.2436530" lon="127.0802810">
    <ele>84.1</ele>
    <time>2026-08-14T11:59:24Z</time>
   </trkpt>
   <trkpt lat="37.2436520" lon="127.0802950">
    <ele>84.2</ele>
    <time>2026-08-14T11:59:25Z</time>
   </trkpt>
   <trkpt lat="37.2436540" lon="127.0803050">
    <ele>84.3</ele>
    <time>2026-08-14T11:59:26Z</time>
   </trkpt>
   <trkpt lat="37.2436520" lon="127.0803160">
    <ele>84.3</ele>
    <time>2026-08-14T11:59:27Z</time>
   </trkpt>
   <trkpt lat="37.2436490" lon="127.0803310">
    <ele>84.4</ele>
    <time>2026-08-14T11:59:28Z</time>
   </trkpt>
   <trkpt lat="37.2436430" lon="127.0803420">
    <ele>84.5</ele>
    <time>2026-08-14T11:59:29Z</time>
   </trkpt>
   <trkpt lat="37.2436320" lon="127.0803500">
    <ele>84.6</ele>
    <time>2026-08-14T11:59:30Z</time>
   </trkpt>
   <trkpt lat="37.2436180" lon="127.0803630">
    <ele>84.8</ele>
    <time>2026-08-14T11:59:31Z</time>
   </trkpt>
   <trkpt lat="37.2436120" lon="127.0803720">
    <ele>84.9</ele>
    <time>2026-08-14T11:59:32Z</time>
   </trkpt>
   <trkpt lat="37.2436070" lon="127.0803860">
    <ele>85.0</ele>
    <time>2026-08-14T11:59:33Z</time>
   </trkpt>
   <trkpt lat="37.2436070" lon="127.0804020">
    <ele>85.1</ele>
    <time>2026-08-14T11:59:34Z</time>
   </trkpt>
   <trkpt lat="37.2436070" lon="127.0804150">
    <ele>85.2</ele>
    <time>2026-08-14T11:59:35Z</time>
   </trkpt>
   <trkpt lat="37.2436060" lon="127.0804270">
    <ele>85.2</ele>
    <time>2026-08-14T11:59:36Z</time>
   </trkpt>
   <trkpt lat="37.2436030" lon="127.0804420">
    <ele>85.3</ele>
    <time>2026-08-14T11:59:37Z</time>
   </trkpt>
   <trkpt lat="37.2435990" lon="127.0804570">
    <ele>85.4</ele>
    <time>2026-08-14T11:59:38Z</time>
   </trkpt>
   <trkpt lat="37.2435950" lon="127.0804690">
    <ele>85.5</ele>
    <time>2026-08-14T11:59:39Z</time>
   </trkpt>
   <trkpt lat="37.2435940" lon="127.0804840">
    <ele>85.6</ele>
    <time>2026-08-14T11:59:40Z</time>
   </trkpt>
   <trkpt lat="37.2435880" lon="127.0804920">
    <ele>85.7</ele>
    <time>2026-08-14T11:59:41Z</time>
   </trkpt>
   <trkpt lat="37.2435830" lon="127.0804970">
    <ele>85.8</ele>
    <time>2026-08-14T11:59:42Z</time>
   </trkpt>
   <trkpt lat="37.2435770" lon="127.0805120">
    <ele>85.9</ele>
    <time>2026-08-14T11:59:43Z</time>
   </trkpt>
   <trkpt lat="37.2435710" lon="127.0805270">
    <ele>86.0</ele>
    <time>2026-08-14T11:59:44Z</time>
   </trkpt>
   <trkpt lat="37.2435620" lon="127.0805390">
    <ele>86.1</ele>
    <time>2026-08-14T11:59:45Z</time>
   </trkpt>
   <trkpt lat="37.2435560" lon="127.0805530">
    <ele>86.2</ele>
    <time>2026-08-14T11:59:46Z</time>
   </trkpt>
   <trkpt lat="37.2435450" lon="127.0805620">
    <ele>86.3</ele>
    <time>2026-08-14T11:59:47Z</time>
   </trkpt>
   <trkpt lat="37.2435330" lon="127.0805690">
    <ele>86.4</ele>
    <time>2026-08-14T11:59:48Z</time>
   </trkpt>
   <trkpt lat="37.2435250" lon="127.0805810">
    <ele>86.5</ele>
    <time>2026-08-14T11:59:49Z</time>
   </trkpt>
   <trkpt lat="37.2435190" lon="127.0805960">
    <ele>86.6</ele>
    <time>2026-08-14T11:59:50Z</time>
   </trkpt>
   <trkpt lat="37.2435150" lon="127.0806140">
    <ele>86.7</ele>
    <time>2026-08-14T11:59:51Z</time>
   </trkpt>
   <trkpt lat="37.2435120" lon="127.0806290">
    <ele>86.8</ele>
    <time>2026-08-14T11:59:52Z</time>
   </trkpt>
   <trkpt lat="37.2435150" lon="127.0806420">
    <ele>86.9</ele>
    <time>2026-08-14T11:59:53Z</time>
   </trkpt>
   <trkpt lat="37.2435220" lon="127.0806580">
    <ele>87.0</ele>
    <time>2026-08-14T11:59:54Z</time>
   </trkpt>
   <trkpt lat="37.2435330" lon="127.0806680">
    <ele>87.1</ele>
    <time>2026-08-14T11:59:55Z</time>
   </trkpt>
   <trkpt lat="37.2435470" lon="127.0806700">
    <ele>87.2</ele>
    <time>2026-08-14T11:59:56Z</time>
   </trkpt>
   <trkpt lat="37.2435620" lon="127.0806710">
    <ele>87.3</ele>
    <time>2026-08-14T11:59:57Z</time>
   </trkpt>
   <trkpt lat="37.2435760" lon="127.0806720">
    <ele>87.4</ele>
    <time>2026-08-14T11:59:58Z</time>
   </trkpt>
   <trkpt lat="37.2435870" lon="127.0806730">
    <ele>87.5</ele>
    <time>2026-08-14T11:59:59Z</time>
   </trkpt>
   <trkpt lat="37.2435990" lon="127.0806740">
    <ele>87.6</ele>
    <time>2026-08-14T12:00:00Z</time>
   </trkpt>
   <trkpt lat="37.2436120" lon="127.0806750">
    <ele>87.7</ele>
    <time>2026-08-14T12:00:01Z</time>
   </trkpt>
   <trkpt lat="37.2436250" lon="127.0806790">
    <ele>87.8</ele>
    <time>2026-08-14T12:00:02Z</time>
   </trkpt>
   <trkpt lat="37.2436340" lon="127.0806870">
    <ele>87.9</ele>
    <time>2026-08-14T12:00:03Z</time>
   </trkpt>
   <trkpt lat="37.2436430" lon="127.0806940">
    <ele>87.9</ele>
    <time>2026-08-14T12:00:04Z</time>
   </trkpt>
   <trkpt lat="37.2436540" lon="127.0806970">
    <ele>88.0</ele>
    <time>2026-08-14T12:00:05Z</time>
   </trkpt>
   <trkpt lat="37.2436640" lon="127.0806950">
    <ele>88.1</ele>
    <time>2026-08-14T12:00:06Z</time>
   </trkpt>
   <trkpt lat="37.2436720" lon="127.0806960">
    <ele>88.1</ele>
    <time>2026-08-14T12:00:07Z</time>
   </trkpt>
   <trkpt lat="37.2436870" lon="127.0806980">
    <ele>88.2</ele>
    <time>2026-08-14T12:00:08Z</time>
   </trkpt>
   <trkpt lat="37.2436890" lon="127.0807080">
    <ele>88.3</ele>
    <time>2026-08-14T12:00:09Z</time>
   </trkpt>
   <trkpt lat="37.2436890" lon="127.0807200">
    <ele>88.4</ele>
    <time>2026-08-14T12:00:10Z</time>
   </trkpt>
   <trkpt lat="37.2436880" lon="127.0807270">
    <ele>88.4</ele>
    <time>2026-08-14T12:00:11Z</time>
   </trkpt>
   <trkpt lat="37.2436930" lon="127.0807410">
    <ele>88.5</ele>
    <time>2026-08-14T12:00:12Z</time>
   </trkpt>
   <trkpt lat="37.2436930" lon="127.0807510">
    <ele>88.5</ele>
    <time>2026-08-14T12:00:13Z</time>
   </trkpt>
   <trkpt lat="37.2436930" lon="127.0807620">
    <ele>88.6</ele>
    <time>2026-08-14T12:00:14Z</time>
   </trkpt>
   <trkpt lat="37.2436940" lon="127.0807730">
    <ele>88.7</ele>
    <time>2026-08-14T12:00:15Z</time>
   </trkpt>
   <trkpt lat="37.2436970" lon="127.0807850">
    <ele>88.7</ele>
    <time>2026-08-14T12:00:16Z</time>
   </trkpt>
   <trkpt lat="37.2436980" lon="127.0807930">
    <ele>88.8</ele>
    <time>2026-08-14T12:00:17Z</time>
   </trkpt>
   <trkpt lat="37.2436980" lon="127.0808040">
    <ele>88.8</ele>
    <time>2026-08-14T12:00:18Z</time>
   </trkpt>
   <trkpt lat="37.2436960" lon="127.0808150">
    <ele>88.9</ele>
    <time>2026-08-14T12:00:19Z</time>
   </trkpt>
   <trkpt lat="37.2436930" lon="127.0808290">
    <ele>89.0</ele>
    <time>2026-08-14T12:00:20Z</time>
   </trkpt>
   <trkpt lat="37.2436910" lon="127.0808420">
    <ele>89.0</ele>
    <time>2026-08-14T12:00:21Z</time>
   </trkpt>
   <trkpt lat="37.2436890" lon="127.0808500">
    <ele>89.1</ele>
    <time>2026-08-14T12:00:22Z</time>
   </trkpt>
   <trkpt lat="37.2436870" lon="127.0808600">
    <ele>89.1</ele>
    <time>2026-08-14T12:00:23Z</time>
   </trkpt>
   <trkpt lat="37.2436830" lon="127.0808680">
    <ele>89.2</ele>
    <time>2026-08-14T12:00:24Z</time>
   </trkpt>
   <trkpt lat="37.2436770" lon="127.0808780">
    <ele>89.2</ele>
    <time>2026-08-14T12:00:25Z</time>
   </trkpt>
   <trkpt lat="37.2436710" lon="127.0808800">
    <ele>89.3</ele>
    <time>2026-08-14T12:00:26Z</time>
   </trkpt>
   <trkpt lat="37.2436710" lon="127.0808880">
    <ele>89.3</ele>
    <time>2026-08-14T12:00:27Z</time>
   </trkpt>
   <trkpt lat="37.2436710" lon="127.0809020">
    <ele>89.4</ele>
    <time>2026-08-14T12:00:28Z</time>
   </trkpt>
   <trkpt lat="37.2436720" lon="127.0809120">
    <ele>89.4</ele>
    <time>2026-08-14T12:00:29Z</time>
   </trkpt>
   <trkpt lat="37.2436720" lon="127.0809170">
    <ele>89.5</ele>
    <time>2026-08-14T12:00:30Z</time>
   </trkpt>
   <trkpt lat="37.2436710" lon="127.0809300">
    <ele>89.5</ele>
    <time>2026-08-14T12:00:31Z</time>
   </trkpt>
   <trkpt lat="37.2436700" lon="127.0809420">
    <ele>89.6</ele>
    <time>2026-08-14T12:00:32Z</time>
   </trkpt>
   <trkpt lat="37.2436660" lon="127.0809520">
    <ele>89.6</ele>
    <time>2026-08-14T12:00:33Z</time>
   </trkpt>
   <trkpt lat="37.2436640" lon="127.0809580">
    <ele>89.6</ele>
    <time>2026-08-14T12:00:34Z</time>
   </trkpt>
   <trkpt lat="37.2436640" lon="127.0809690">
    <ele>89.7</ele>
    <time>2026-08-14T12:00:35Z</time>
   </trkpt>
   <trkpt lat="37.2436640" lon="127.0809820">
    <ele>89.7</ele>
    <time>2026-08-14T12:00:36Z</time>
   </trkpt>
   <trkpt lat="37.2436620" lon="127.0809940">
    <ele>89.8</ele>
    <time>2026-08-14T12:00:37Z</time>
   </trkpt>
   <trkpt lat="37.2436610" lon="127.0809990">
    <ele>89.8</ele>
    <time>2026-08-14T12:00:38Z</time>
   </trkpt>
   <trkpt lat="37.2436640" lon="127.0810050">
    <ele>89.8</ele>
    <time>2026-08-14T12:00:39Z</time>
   </trkpt>
   <trkpt lat="37.2436610" lon="127.0810100">
    <ele>89.9</ele>
    <time>2026-08-14T12:00:40Z</time>
   </trkpt>
   <trkpt lat="37.2436570" lon="127.0810290">
    <ele>89.9</ele>
    <time>2026-08-14T12:00:41Z</time>
   </trkpt>
  </trkseg>
 </trk>
</gpx>
