<?xml version="1.0" encoding="UTF-8"?>
<gpx creator="StravaGPX" version="1.1" xmlns="http://www.topografix.com/GPX/1/1" xmlns:xsi="http://www.w3.org/2001/XMLSchema-instance" xsi:schemaLocation="http://www.topografix.com/GPX/1/1 http://www.topografix.com/GPX/1/1/gpx.xsd">
 <metadata>
  <time>2026-08-14T12:12:46Z</time>
 </metadata>
 <trk>
  <name>급오르막3</name>
  <type>walking</type>
  <trkseg>
   <trkpt lat="37.2439120" lon="127.0791240">
    <ele>75.4</ele>
    <time>2026-08-14T12:12:46Z</time>
   </trkpt>
   <trkpt lat="37.2439110" lon="127.0791230">
    <ele>75.4</ele>
    <time>2026-08-14T12:12:47Z</time>
   </trkpt>
   <trkpt lat="37.2439110" lon="127.0791220">
    <ele>75.4</ele>
    <time>2026-08-14T12:12:48Z</time>
   </trkpt>
   <trkpt lat="37.2438880" lon="127.0791260">
    <ele>75.5</ele>
    <time>2026-08-14T12:12:49Z</time>
   </trkpt>
   <trkpt lat="37.2438740" lon="127.0791240">
    <ele>75.5</ele>
    <time>2026-08-14T12:12:50Z</time>
   </trkpt>
   <trkpt lat="37.2438460" lon="127.0791140">
    <ele>75.7</ele>
    <time>2026-08-14T12:12:51Z</time>
   </trkpt>
   <trkpt lat="37.2438330" lon="127.0791140">
    <ele>75.7</ele>
    <time>2026-08-14T12:12:52Z</time>
   </trkpt>
   <trkpt lat="37.2438250" lon="127.0791170">
    <ele>75.8</ele>
    <time>2026-08-14T12:12:53Z</time>
   </trkpt>
   <trkpt lat="37.2438130" lon="127.0791200">
    <ele>75.8</ele>
    <time>2026-08-14T12:12:54Z</time>
   </trkpt>
   <trkpt lat="37.2438020" lon="127.0791170">
    <ele>75.9</ele>
    <time>2026-08-14T12:12:55Z</time>
   </trkpt>
   <trkpt lat="37.2437900" lon="127.0791180">
    <ele>75.9</ele>
    <time>2026-08-14T12:12:56Z</time>
   </trkpt>
   <trkpt lat="37.2437820" lon="127.0791180">
    <ele>75.9</ele>
    <time>2026-08-14T12:12:57Z</time>
   </trkpt>
   <trkpt lat="37.2437720" lon="127.0791210">
    <ele>76.0</ele>
    <time>2026-08-14T12:12:58Z</time>
   </trkpt>
   <trkpt lat="37.2437600" lon="127.0791240">
    <ele>76.0</ele>
    <time>2026-08-14T12:12:59Z</time>
   </trkpt>
   <trkpt lat="37.2437500" lon="127.0791260">
    <ele>76.0</ele>
    <time>2026-08-14T12:13:00Z</time>
   </trkpt>
   <trkpt lat="37.2437380" lon="127.0791310">
    <ele>76.1</ele>
    <time>2026-08-14T12:13:01Z</time>
   </trkpt>
   <trkpt lat="37.2437250" lon="127.0791370">
    <ele>76.1</ele>
    <time>2026-08-14T12:13:02Z</time>
   </trkpt>
   <trkpt lat="37.2437120" lon="127.0791420">
    <ele>76.1</ele>
    <time>2026-08-14T12:13:03Z</time>
   </trkpt>
   <trkpt lat="37.2437020" lon="127.0791450">
    <ele>76.2</ele>
    <time>2026-08-14T12:13:04Z</time>
   </trkpt>
   <trkpt lat="37.2436890" lon="127.0791520">
    <ele>76.2</ele>
    <time>2026-08-14T12:13:05Z</time>
   </trkpt>
   <trkpt lat="37.2436800" lon="127.0791580">
    <ele>76.2</ele>
    <time>2026-08-14T12:13:06Z</time>
   </trkpt>
   <trkpt lat="37.2436680" lon="127.0791650">
    <ele>76.3</ele>
    <time>2026-08-14T12:13:07Z</time>
   </trkpt>
   <trkpt lat="37.2436590" lon="127.0791700">
    <ele>76.3</ele>
    <time>2026-08-14T12:13:08Z</time>
   </trkpt>
   <trkpt lat="37.2436450" lon="127.0791820">
    <ele>76.5</ele>
    <time>2026-08-14T12:13:09Z</time>
   </trkpt>
   <trkpt lat="37.2436380" lon="127.0791890">
    <ele>76.6</ele>
    <time>2026-08-14T12:13:10Z</time>
   </trkpt>
   <trkpt lat="37.2436320" lon="127.0792000">
    <ele>76.6</ele>
    <time>2026-08-14T12:13:11Z</time>
   </trkpt>
   <trkpt lat="37.2436230" lon="127.0792110">
    <ele>76.7</ele>
    <time>2026-08-14T12:13:12Z</time>
   </trkpt>
   <trkpt lat="37.2436160" lon="127.0792240">
    <ele>76.8</ele>
    <time>2026-08-14T12:13:13Z</time>
   </trkpt>
   <trkpt lat="37.2436090" lon="127.0792380">
    <ele>76.9</ele>
    <time>2026-08-14T12:13:14Z</time>
   </trkpt>
   <trkpt lat="37.2436030" lon="127.0792480">
    <ele>77.0</ele>
    <time>2026-08-14T12:13:15Z</time>
   </trkpt>
   <trkpt lat="37.2435980" lon="127.0792600">
    <ele>77.1</ele>
    <time>2026-08-14T12:13:16Z</time>
   </trkpt>
   <trkpt lat="37.2435910" lon="127.0792710">
    <ele>77.1</ele>
    <time>2026-08-14T12:13:17Z</time>
   </trkpt>
   <trkpt lat="37.2435850" lon="127.0792860">
    <ele>77.2</ele>
    <time>2026-08-14T12:13:18Z</time>
   </trkpt>
   <trkpt lat="37.2435820" lon="127.0793010">
    <ele>77.3</ele>
    <time>2026-08-14T12:13:19Z</time>
   </trkpt>
   <trkpt lat="37.2435780" lon="127.0793150">
    <ele>77.4</ele>
    <time>2026-08-14T12:13:20Z</time>
   </trkpt>
   <trkpt lat="37.2435700" lon="127.0793300">
    <ele>77.5</ele>
    <time>2026-08-14T12:13:21Z</time>
   </trkpt>
   <trkpt lat="37.2435620" lon="127.0793460">
    <ele>77.7</ele>
    <time>2026-08-14T12:13:22Z</time>
   </trkpt>
   <trkpt lat="37.2435610" lon="127.0793630">
    <ele>77.8</ele>
    <time>2026-08-14T12:13:23Z</time>
   </trkpt>
   <trkpt lat="37.2435590" lon="127.0793760">
    <ele>77.9</ele>
    <time>2026-08-14T12:13:24Z</time>
   </trkpt>
   <trkpt lat="37.2435620" lon="127.0793900">
    <ele>77.9</ele>
    <time>2026-08-14T12:13:25Z</time>
   </trkpt>
   <trkpt lat="37.2435660" lon="127.0794010">
    <ele>78.0</ele>
    <time>2026-08-14T12:13:26Z</time>
   </trkpt>
   <trkpt lat="37.2435710" lon="127.0794110">
    <ele>78.1</ele>
    <time>2026-08-14T12:13:27Z</time>
   </trkpt>
   <trkpt lat="37.2435770" lon="127.0794270">
    <ele>78.2</ele>
    <time>2026-08-14T12:13:28Z</time>
   </trkpt>
   <trkpt lat="37.2435790" lon="127.0794400">
    <ele>78.3</ele>
    <time>2026-08-14T12:13:29Z</time>
   </trkpt>
   <trkpt lat="37.2435850" lon="127.0794540">
    <ele>78.4</ele>
    <time>2026-08-14T12:13:30Z</time>
   </trkpt>
   <trkpt lat="37.2435900" lon="127.0794650">
    <ele>78.5</ele>
    <time>2026-08-14T12:13:31Z</time>
   </trkpt>
   <trkpt lat="37.2435950" lon="127.0794760">
    <ele>78.6</ele>
    <time>2026-08-14T12:13:32Z</time>
   </trkpt>
   <trkpt lat="37.2436020" lon="127.0794880">
    <ele>78.7</ele>
    <time>2026-08-14T12:13:33Z</time>
   </trkpt>
   <trkpt lat="37.2436090" lon="127.0794970">
    <ele>78.8</ele>
    <time>2026-08-14T12:13:34Z</time>
   </trkpt>
   <trkpt lat="37.2436150" lon="127.0795110">
    <ele>78.9</ele>
    <time>2026-08-14T12:13:35Z</time>
   </trkpt>
   <trkpt lat="37.2436170" lon="127.0795240">
    <ele>79.0</ele>
    <time>2026-08-14T12:13:36Z</time>
   </trkpt>
   <trkpt lat="37.2436180" lon="127.0795380">
    <ele>79.1</ele>
    <time>2026-08-14T12:13:37Z</time>
   </trkpt>
   <trkpt lat="37.2436190" lon="127.0795510">
    <ele>79.2</ele>
    <time>2026-08-14T12:13:38Z</time>
   </trkpt>
   <trkpt lat="37.2436170" lon="127.0795650">
    <ele>79.3</ele>
    <time>2026-08-14T12:13:39Z</time>
   </trkpt>
   <trkpt lat="37.2436210" lon="127.0795770">
    <ele>79.4</ele>
    <time>2026-08-14T12:13:40Z</time>
   </trkpt>
   <trkpt lat="37.2436290" lon="127.0795940">
    <ele>79.5</ele>
    <time>2026-08-14T12:13:41Z</time>
   </trkpt>
   <trkpt lat="37.2436270" lon="127.0796060">
    <ele>79.6</ele>
    <time>2026-08-14T12:13:42Z</time>
   </trkpt>
   <trkpt lat="37.2436240" lon="127.0796170">
    <ele>79.7</ele>
    <time>2026-08-14T12:13:43Z</time>
   </trkpt>
   <trkpt lat="37.2436230" lon="127.0796320">
    <ele>79.8</ele>
    <time>2026-08-14T12:13:44Z</time>
   </trkpt>
   <trkpt lat="37.2436180" lon="127.0796440">
    <ele>79.9</ele>
    <time>2026-08-14T12:13:45Z</time>
   </trkpt>
   <trkpt lat="37.2436160" lon="127.0796590">
    <ele>80.0</ele>
    <time>2026-08-14T12:13:46Z</time>
   </trkpt>
   <trkpt lat="37.2436160" lon="127.0796770">
    <ele>80.2</ele>
    <time>2026-08-14T12:13:47Z</time>
   </trkpt>
   <trkpt lat="37.2436190" lon="127.0796940">
    <ele>80.3</ele>
    <time>2026-08-14T12:13:48Z</time>
   </trkpt>
   <trkpt lat="37.2436170" lon="127.0797100">
    <ele>80.4</ele>
    <time>2026-08-14T12:13:49Z</time>
   </trkpt>
   <trkpt lat="37.2436150" lon="127.0797230">
    <ele>80.5</ele>
    <time>2026-08-14T12:13:50Z</time>
   </trkpt>
   <trkpt lat="37.2436150" lon="127.0797320">
    <ele>80.6</ele>
    <time>2026-08-14T12:13:51Z</time>
   </trkpt>
   <trkpt lat="37.2436110" lon="127.0797510">
    <ele>80.8</ele>
    <time>2026-08-14T12:13:52Z</time>
   </trkpt>
   <trkpt lat="37.2436170" lon="127.0797680">
    <ele>80.9</ele>
    <time>2026-08-14T12:13:53Z</time>
   </trkpt>
   <trkpt lat="37.2436210" lon="127.0797810">
    <ele>81.0</ele>
    <time>2026-08-14T12:13:54Z</time>
   </trkpt>
   <trkpt lat="37.2436260" lon="127.0797900">
    <ele>81.1</ele>
    <time>2026-08-14T12:13:55Z</time>
   </trkpt>
   <trkpt lat="37.2436360" lon="127.0797990">
    <ele>81.2</ele>
    <time>2026-08-14T12:13:56Z</time>
   </trkpt>
   <trkpt lat="37.2436400" lon="127.0798040">
    <ele>81.3</ele>
    <time>2026-08-14T12:13:57Z</time>
   </trkpt>
   <trkpt lat="37.2436450" lon="127.0798140">
    <ele>81.4</ele>
    <time>2026-08-14T12:13:58Z</time>
   </trkpt>
   <trkpt lat="37.2436470" lon="127.0798290">
    <ele>81.5</ele>
    <time>2026-08-14T12:13:59Z</time>
   </trkpt>
   <trkpt lat="37.2436480" lon="127.0798420">
    <ele>81.6</ele>
    <time>2026-08-14T12:14:00Z</time>
   </trkpt>
   <trkpt lat="37.2436500" lon="127.0798500">
    <ele>81.6</ele>
    <time>2026-08-14T12:14:01Z</time>
   </trkpt>
   <trkpt lat="37.2436500" lon="127.0798600">
    <ele>81.7</ele>
    <time>2026-08-14T12:14:02Z</time>
   </trkpt>
   <trkpt lat="37.2436520" lon="127.0798760">
    <ele>81.8</ele>
    <time>2026-08-14T12:14:03Z</time>
   </trkpt>
   <trkpt lat="37.2436520" lon="127.0798880">
    <ele>81.9</ele>
    <time>2026-08-14T12:14:04Z</time>
   </trkpt>
   <trkpt lat="37.2436510" lon="127.0799000">
    <ele>82.0</ele>
    <time>2026-08-14T12:14:05Z</time>
   </trkpt>
   <trkpt lat="37.2436490" lon="127.0799150">
    <ele>82.1</ele>
    <time>2026-08-14T12:14:06Z</time>
   </trkpt>
   <trkpt lat="37.2436460" lon="127.0799250">
    <ele>82.2</ele>
    <time>2026-08-14T12:14:07Z</time>
   </trkpt>
   <trkpt lat="37.2436430" lon="127.0799390">
    <ele>82.3</ele>
    <time>2026-08-14T12:14:08Z</time>
   </trkpt>
   <trkpt lat="37.2436380" lon="127.0799540">
    <ele>82.4</ele>
    <time>2026-08-14T12:14:09Z</time>
   </trkpt>
   <trkpt lat="37.2436370" lon="127.0799690">
    <ele>82.6</ele>
    <time>2026-08-14T12:14:10Z</time>
   </trkpt>
   <trkpt lat="37.2436380" lon="127.0799810">
    <ele>82.7</ele>
    <time>2026-08-14T12:14:11Z</time>
   </trkpt>
   <trkpt lat="37.2436400" lon="127.0799900">
    <ele>82.7</ele>
    <time>2026-08-14T12:14:12Z</time>
   </trkpt>
   <trkpt lat="37.2436400" lon="127.0800080">
    <ele>82.9</ele>
    <time>2026-08-14T12:14:13Z</time>
   </trkpt>
   <trkpt lat="37.2436410" lon="127.0800190">
    <ele>82.9</ele>
    <time>2026-08-14T12:14:14Z</time>
   </trkpt>
   <trkpt lat="37.2436410" lon="127.0800320">
    <ele>83.0</ele>
    <time>2026-08-14T12:14:16Z</time>
   </trkpt>
   <trkpt lat="37.2436420" lon="127.0800420">
    <ele>83.1</ele>
    <time>2026-08-14T12:14:17Z</time>
   </trkpt>
   <trkpt lat="37.2436440" lon="127.0800540">
    <ele>83.2</ele>
    <time>2026-08-14T12:14:18Z</time>
   </trkpt>
   <trkpt lat="37.2436490" lon="127.0800690">
    <ele>83.3</ele>
    <time>2026-08-14T12:14:19Z</time>
   </trkpt>
   <trkpt lat="37.2436520" lon="127.0800810">
    <ele>83.4</ele>
    <time>2026-08-14T12:14:20Z</time>
   </trkpt>
   <trkpt lat="37.2436540" lon="127.0800910">
    <ele>83.5</ele>
    <time>2026-08-14T12:14:21Z</time>
   </trkpt>
   <trkpt lat="37.2436580" lon="127.0801060">
    <ele>83.6</ele>
    <time>2026-08-14T12:14:22Z</time>
   </trkpt>
   <trkpt lat="37.2436590" lon="127.0801200">
    <ele>83.7</ele>
    <time>2026-08-14T12:14:23Z</time>
   </trkpt>
   <trkpt lat="37.2436560" lon="127.0801350">
    <ele>83.9</ele>
    <time>2026-08-14T12:14:24Z</time>
   </trkpt>
   <trkpt lat="37.2436560" lon="127.0801450">
    <ele>83.9</ele>
    <time>2026-08-14T12:14:25Z</time>
   </trkpt>
   <trkpt lat="37.2436560" lon="127.0801580">
    <ele>84.0</ele>
    <time>2026-08-14T12:14:26Z</time>
   </trkpt>
   <trkpt lat="37.2436580" lon="127.0801680">
    <ele>84.1</ele>
    <time>2026-08-14T12:14:27Z</time>
   </trkpt>
   <trkpt lat="37.2436590" lon="127.0801830">
    <ele>84.2</ele>
    <time>2026-08-14T12:14:28Z</time>
   </trkpt>
   <trkpt lat="37.2436580" lon="127.0801960">
    <ele>84.3</ele>
    <time>2026-08-14T12:14:29Z</time>
   </trkpt>
   <trkpt lat="37.2436570" lon="127.0802220">
    <ele>84.5</ele>
    <time>2026-08-14T12:14:30Z</time>
   </trkpt>
   <trkpt lat="37.2436570" lon="127.0802340">
    <ele>84.6</ele>
    <time>2026-08-14T12:14:31Z</time>
   </trkpt>
   <trkpt lat="37.2436590" lon="127.0802470">
    <ele>84.7</ele>
    <time>2026-08-14T12:14:32Z</time>
   </trkpt>
   <trkpt lat="37.2436620" lon="127.0802590">
    <ele>84.8</ele>
    <time>2026-08-14T12:14:33Z</time>
   </trkpt>
   <trkpt lat="37.2436630" lon="127.0802730">
    <ele>84.9</ele>
    <time>2026-08-14T12:14:34Z</time>
   </trkpt>
   <trkpt lat="37.2436660" lon="127.0802860">
    <ele>85.0</ele>
    <time>2026-08-14T12:14:35Z</time>
   </trkpt>
   <trkpt lat="37.2436670" lon="127.0802960">
    <ele>85.0</ele>
    <time>2026-08-14T12:14:36Z</time>
   </trkpt>
   <trkpt lat="37.2436600" lon="127.0803080">
    <ele>85.2</ele>
    <time>2026-08-14T12:14:37Z</time>
   </trkpt>
   <trkpt lat="37.2436610" lon="127.0803220">
    <ele>85.3</ele>
    <time>2026-08-14T12:14:38Z</time>
   </trkpt>
   <trkpt lat="37.2436580" lon="127.0803330">
    <ele>85.3</ele>
    <time>2026-08-14T12:14:39Z</time>
   </trkpt>
   <trkpt lat="37.2436590" lon="127.0803460">
    <ele>85.4</ele>
    <time>2026-08-14T12:14:40Z</time>
   </trkpt>
   <trkpt lat="37.2436600" lon="127.0803610">
    <ele>85.5</ele>
    <time>2026-08-14T12:14:41Z</time>
   </trkpt>
   <trkpt lat="37.2436640" lon="127.0803760">
    <ele>85.6</ele>
    <time>2026-08-14T12:14:42Z</time>
   </trkpt>
   <trkpt lat="37.2436680" lon="127.0803880">
    <ele>85.7</ele>
    <time>2026-08-14T12:14:43Z</time>
   </trkpt>
   <trkpt lat="37.2436710" lon="127.0804000">
    <ele>85.8</ele>
    <time>2026-08-14T12:14:44Z</time>
   </trkpt>
   <trkpt lat="37.2436710" lon="127.0804120">
    <ele>85.9</ele>
    <time>2026-08-14T12:14:45Z</time>
   </trkpt>
   <trkpt lat="37.2436700" lon="127.0804240">
    <ele>86.0</ele>
    <time>2026-08-14T12:14:46Z</time>
   </trkpt>
   <trkpt lat="37.2436740" lon="127.0804400">
    <ele>86.1</ele>
    <time>2026-08-14T12:14:47Z</time>
   </trkpt>
   <trkpt lat="37.2436810" lon="127.0804550">
    <ele>86.2</ele>
    <time>2026-08-14T12:14:48Z</time>
   </trkpt>
   <trkpt lat="37.2436760" lon="127.0804640">
    <ele>86.3</ele>
    <time>2026-08-14T12:14:49Z</time>
   </trkpt>
   <trkpt lat="37.2436730" lon="127.0804750">
    <ele>86.4</ele>
    <time>2026-08-14T12:14:50Z</time>
   </trkpt>
   <trkpt lat="37.2436720" lon="127.0804890">
    <ele>86.4</ele>
    <time>2026-08-14T12:14:51Z</time>
   </trkpt>
   <trkpt lat="37.2436720" lon="127.0805040">
    <ele>86.5</ele>
    <time>2026-08-14T12:14:52Z</time>
   </trkpt>
   <trkpt lat="37.2436730" lon="127.0805170">
    <ele>86.6</ele>
    <time>2026-08-14T12:14:53Z</time>
   </trkpt>
   <trkpt lat="37.2436750" lon="127.0805290">
    <ele>86.7</ele>
    <time>2026-08-14T12:14:54Z</time>
   </trkpt>
   <trkpt lat="37.2436810" lon="127.0805470">
    <ele>86.8</ele>
    <time>2026-08-14T12:14:55Z</time>
   </trkpt>
   <trkpt lat="37.2436830" lon="127.0805620">
    <ele>86.9</ele>
    <time>2026-08-14T12:14:56Z</time>
   </trkpt>
   <trkpt lat="37.2436860" lon="127.0805740">
    <ele>87.0</ele>
    <time>2026-08-14T12:14:57Z</time>
   </trkpt>
   <trkpt lat="37.2436860" lon="127.0805850">
    <ele>87.1</ele>
    <time>2026-08-14T12:14:58Z</time>
   </trkpt>
   <trkpt lat="37.2436890" lon="127.0805970">
    <ele>87.2</ele>
    <time>2026-08-14T12:14:59Z</time>
   </trkpt>
   <trkpt lat="37.2436860" lon="127.0806070">
    <ele>87.2</ele>
    <time>2026-08-14T12:15:00Z</time>
   </trkpt>
   <trkpt lat="37.2436840" lon="127.0806240">
    <ele>87.3</ele>
    <time>2026-08-14T12:15:01Z</time>
   </trkpt>
   <trkpt lat="37.2436830" lon="127.0806380">
    <ele>87.4</ele>
    <time>2026-08-14T12:15:02Z</time>
   </trkpt>
   <trkpt lat="37.2436840" lon="127.0806530">
    <ele>87.5</ele>
    <time>2026-08-14T12:15:03Z</time>
   </trkpt>
   <trkpt lat="37.2436860" lon="127.0806670">
    <ele>87.6</ele>
    <time>2026-08-14T12:15:04Z</time>
   </trkpt>
   <trkpt lat="37.2436880" lon="127.0806790">
    <ele>87.7</ele>
    <time>2026-08-14T12:15:05Z</time>
   </trkpt>
   <trkpt lat="37.2436950" lon="127.0806940">
    <ele>87.8</ele>
    <time>2026-08-14T12:15:06Z</time>
   </trkpt>
   <trkpt lat="37.2436980" lon="127.0807050">
    <ele>87.9</ele>
    <time>2026-08-14T12:15:07Z</time>
   </trkpt>
   <trkpt lat="37.2437020" lon="127.0807210">
    <ele>88.0</ele>
    <time>2026-08-14T12:15:08Z</time>
   </trkpt>
   <trkpt lat="37.2437010" lon="127.0807280">
    <ele>88.0</ele>
    <time>2026-08-14T12:15:09Z</time>
   </trkpt>
   <trkpt lat="37.2437000" lon="127.0807370">
    <ele>88.1</ele>
    <time>2026-08-14T12:15:10Z</time>
   </trkpt>
   <trkpt lat="37.2437020" lon="127.0807490">
    <ele>88.1</ele>
    <time>2026-08-14T12:15:11Z</time>
   </trkpt>
   <trkpt lat="37.2437020" lon="127.0807600">
    <ele>88.2</ele>
    <time>2026-08-14T12:15:12Z</time>
   </trkpt>
   <trkpt lat="37.2437030" lon="127.0807660">
    <ele>88.2</ele>
    <time>2026-08-14T12:15:13Z</time>
   </trkpt>
   <trkpt lat="37.2437030" lon="127.0807740">
    <ele>88.3</ele>
    <time>2026-08-14T12:15:14Z</time>
   </trkpt>
   <trkpt lat="37.2437020" lon="127.0807840">
    <ele>88.4</ele>
    <time>2026-08-14T12:15:16Z</time>
   </trkpt>
   <trkpt lat="37.2437050" lon="127.0807920">
    <ele>88.4</ele>
    <time>2026-08-14T12:15:17Z</time>
   </trkpt>
   <trkpt lat="37.2437060" lon="127.0807990">
    <ele>88.4</ele>
    <time>2026-08-14T12:15:18Z</time>
   </trkpt>
   <trkpt lat="37.2437030" lon="127.0808070">
    <ele>88.5</ele>
    <time>2026-08-14T12:15:19Z</time>
   </trkpt>
   <trkpt lat="37.2436980" lon="127.0808220">
    <ele>88.6</ele>
    <time>2026-08-14T12:15:20Z</time>
   </trkpt>
   <trkpt lat="37.2436990" lon="127.0808360">
    <ele>88.7</ele>
    <time>2026-08-14T12:15:21Z</time>
   </trkpt>
   <trkpt lat="37.2436990" lon="127.0808460">
    <ele>88.7</ele>
    <time>2026-08-14T12:15:22Z</time>
   </trkpt>
   <trkpt lat="37.2436980" lon="127.0808570">
    <ele>88.8</ele>
    <time>2026-08-14T12:15:23Z</time>
   </trkpt>
   <trkpt lat="37.2436970" lon="127.0808680">
    <ele>88.9</ele>
    <time>2026-08-14T12:15:24Z</time>
   </trkpt>
   <trkpt lat="37.2436960" lon="127.0808800">
    <ele>88.9</ele>
    <time>2026-08-14T12:15:25Z</time>
   </trkpt>
   <trkpt lat="37.2436940" lon="127.0808900">
    <ele>89.0</ele>
    <time>2026-08-14T12:15:26Z</time>
   </trkpt>
   <trkpt lat="37.2436890" lon="127.0809010">
    <ele>89.1</ele>
    <time>2026-08-14T12:15:27Z</time>
   </trkpt>
   <trkpt lat="37.2436840" lon="127.0809150">
    <ele>89.1</ele>
    <time>2026-08-14T12:15:28Z</time>
   </trkpt>
   <trkpt lat="37.2436830" lon="127.0809270">
    <ele>89.2</ele>
    <time>2026-08-14T12:15:29Z</time>
   </trkpt>
   <trkpt lat="37.2436840" lon="127.0809370">
    <ele>89.3</ele>
    <time>2026-08-14T12:15:30Z</time>
   </trkpt>
   <trkpt lat="37.2436850" lon="127.0809470">
    <ele>89.3</ele>
    <time>2026-08-14T12:15:31Z</time>
   </trkpt>
   <trkpt lat="37.2436830" lon="127.0809570">
    <ele>89.4</ele>
    <time>2026-08-14T12:15:32Z</time>
   </trkpt>
   <trkpt lat="37.2436850" lon="127.0809650">
    <ele>89.4</ele>
    <time>2026-08-14T12:15:33Z</time>
   </trkpt>
   <trkpt lat="37.2436840" lon="127.0809730">
    <ele>89.4</ele>
    <time>2026-08-14T12:15:34Z</time>
   </trkpt>
   <trkpt lat="37.2436870" lon="127.0809800">
    <ele>89.5</ele>
    <time>2026-08-14T12:15:35Z</time>
   </trkpt>
   <trkpt lat="37.2436890" lon="127.0809860">
    <ele>89.5</ele>
    <time>2026-08-14T12:15:36Z</time>
   </trkpt>
   <trkpt lat="37.2436830" lon="127.0809930">
    <ele>89.6</ele>
    <time>2026-08-14T12:15:37Z</time>
   </trkpt>
   <trkpt lat="37.2436810" lon="127.0809990">
    <ele>89.6</ele>
    <time>2026-08-14T12:15:38Z</time>
   </trkpt>
   <trkpt lat="37.2436760" lon="127.0810050">
    <ele>89.6</ele>
    <time>2026-08-14T12:15:39Z</time>
   </trkpt>
   <trkpt lat="37.2436730" lon="127.0810090">
    <ele>89.7</ele>
    <time>2026-08-14T12:15:40Z</time>
   </trkpt>
   <trkpt lat="37.2436600" lon="127.0810220">
    <ele>89.7</ele>
    <time>2026-08-14T12:15:41Z</time>
   </trkpt>
   <trkpt lat="37.2436500" lon="127.0810400">
    <ele>89.8</ele>
    <time>2026-08-14T12:15:42Z</time>
   </trkpt>
   <trkpt lat="37.2436420" lon="127.0810610">
    <ele>89.9</ele>
    <time>2026-08-14T12:15:43Z</time>
   </trkpt>
   <trkpt lat="37.2436280" lon="127.0810760">
    <ele>90.0</ele>
    <time>2026-08-14T12:15:44Z</time>
   </trkpt>
   <trkpt lat="37.2436140" lon="127.0810870">
    <ele>90.1</ele>
    <time>2026-08-14T12:15:45Z</time>
   </trkpt>
   <trkpt lat="37.2436040" lon="127.0810970">
    <ele>90.1</ele>
    <time>2026-08-14T12:15:46Z</time>
   </trkpt>
  </trkseg>
 </trk>
</gpx>
