<?xml version="1.0" encoding="UTF-8"?>
<gpx creator="StravaGPX" version="1.1" xmlns="http://www.topografix.com/GPX/1/1" xmlns:xsi="http://www.w3.org/2001/XMLSchema-instance" xsi:schemaLocation="http://www.topografix.com/GPX/1/1 http://www.topografix.com/GPX/1/1/gpx.xsd">
 <metadata>
  <time>2026-08-14T13:10:16Z</time>
 </metadata>
 <trk>
  <name>가파른내리막_3회차</name>
  <type>walking</type>
  <trkseg>
   <trkpt lat="37.2436550" lon="127.0807150">
    <ele>90.0</ele>
    <time>2026-08-14T13:10:16Z</time>
   </trkpt>
   <trkpt lat="37.2436580" lon="127.0807110">
    <ele>90.0</ele>
    <time>2026-08-14T13:10:17Z</time>
   </trkpt>
   <trkpt lat="37.2436620" lon="127.0807060">
    <ele>89.9</ele>
    <time>2026-08-14T13:10:18Z</time>
   </trkpt>
   <trkpt lat="37.2436670" lon="127.0807020">
    <ele>89.9</ele>
    <time>2026-08-14T13:10:19Z</time>
   </trkpt>
   <trkpt lat="37.2436750" lon="127.0806950">
    <ele>89.8</ele>
    <time>2026-08-14T13:10:20Z</time>
   </trkpt>
   <trkpt lat="37.2436800" lon="127.0806910">
    <ele>89.8</ele>
    <time>2026-08-14T13:10:21Z</time>
   </trkpt>
   <trkpt lat="37.2436830" lon="127.0806840">
    <ele>89.8</ele>
    <time>2026-08-14T13:10:22Z</time>
   </trkpt>
   <trkpt lat="37.2436840" lon="127.0806740">
    <ele>89.7</ele>
    <time>2026-08-14T13:10:23Z</time>
   </trkpt>
   <trkpt lat="37.2436840" lon="127.0806640">
    <ele>89.6</ele>
    <time>2026-08-14T13:10:24Z</time>
   </trkpt>
   <trkpt lat="37.2436840" lon="127.0806550">
    <ele>89.6</ele>
    <time>2026-08-14T13:10:25Z</time>
   </trkpt>
   <trkpt lat="37.2436830" lon="127.0806480">
    <ele>89.6</ele>
    <time>2026-08-14T13:10:26Z</time>
   </trkpt>
   <trkpt lat="37.2436830" lon="127.0806350">
    <ele>89.5</ele>
    <time>2026-08-14T13:10:27Z</time>
   </trkpt>
   <trkpt lat="37.2436860" lon="127.0806220">
    <ele>89.4</ele>
    <time>2026-08-14T13:10:28Z</time>
   </trkpt>
   <trkpt lat="37.2436910" lon="127.0806040">
    <ele>89.3</ele>
    <time>2026-08-14T13:10:29Z</time>
   </trkpt>
   <trkpt lat="37.2436950" lon="127.0805880">
    <ele>89.2</ele>
    <time>2026-08-14T13:10:30Z</time>
   </trkpt>
   <trkpt lat="37.2436980" lon="127.0805750">
    <ele>89.1</ele>
    <time>2026-08-14T13:10:31Z</time>
   </trkpt>
   <trkpt lat="37.2436970" lon="127.0805690">
    <ele>89.1</ele>
    <time>2026-08-14T13:10:32Z</time>
   </trkpt>
   <trkpt lat="37.2436920" lon="127.0805640">
    <ele>89.0</ele>
    <time>2026-08-14T13:10:33Z</time>
   </trkpt>
   <trkpt lat="37.2436870" lon="127.0805520">
    <ele>88.9</ele>
    <time>2026-08-14T13:10:34Z</time>
   </trkpt>
   <trkpt lat="37.2436820" lon="127.0805330">
    <ele>88.8</ele>
    <time>2026-08-14T13:10:35Z</time>
   </trkpt>
   <trkpt lat="37.2436810" lon="127.0805150">
    <ele>88.7</ele>
    <time>2026-08-14T13:10:36Z</time>
   </trkpt>
   <trkpt lat="37.2436790" lon="127.0804970">
    <ele>88.5</ele>
    <time>2026-08-14T13:10:37Z</time>
   </trkpt>
   <trkpt lat="37.2436760" lon="127.0804830">
    <ele>88.4</ele>
    <time>2026-08-14T13:10:38Z</time>
   </trkpt>
   <trkpt lat="37.2436710" lon="127.0804700">
    <ele>88.3</ele>
    <time>2026-08-14T13:10:39Z</time>
   </trkpt>
   <trkpt lat="37.2436640" lon="127.0804640">
    <ele>88.2</ele>
    <time>2026-08-14T13:10:40Z</time>
   </trkpt>
   <trkpt lat="37.2436650" lon="127.0804540">
    <ele>88.2</ele>
    <time>2026-08-14T13:10:42Z</time>
   </trkpt>
   <trkpt lat="37.2436680" lon="127.0804370">
    <ele>88.0</ele>
    <time>2026-08-14T13:10:43Z</time>
   </trkpt>
   <trkpt lat="37.2436690" lon="127.0804210">
    <ele>87.9</ele>
    <time>2026-08-14T13:10:44Z</time>
   </trkpt>
   <trkpt lat="37.2436690" lon="127.0804080">
    <ele>87.8</ele>
    <time>2026-08-14T13:10:45Z</time>
   </trkpt>
   <trkpt lat="37.2436700" lon="127.0804000">
    <ele>87.8</ele>
    <time>2026-08-14T13:10:46Z</time>
   </trkpt>
   <trkpt lat="37.2436690" lon="127.0803940">
    <ele>87.7</ele>
    <time>2026-08-14T13:10:47Z</time>
   </trkpt>
   <trkpt lat="37.2436680" lon="127.0803920">
    <ele>87.7</ele>
    <time>2026-08-14T13:10:48Z</time>
   </trkpt>
   <trkpt lat="37.2436550" lon="127.0803750">
    <ele>87.5</ele>
    <time>2026-08-14T13:10:49Z</time>
   </trkpt>
   <trkpt lat="37.2436390" lon="127.0803620">
    <ele>87.3</ele>
    <time>2026-08-14T13:10:50Z</time>
   </trkpt>
   <trkpt lat="37.2436300" lon="127.0803510">
    <ele>87.2</ele>
    <time>2026-08-14T13:10:51Z</time>
   </trkpt>
   <trkpt lat="37.2436240" lon="127.0803480">
    <ele>87.2</ele>
    <time>2026-08-14T13:10:52Z</time>
   </trkpt>
   <trkpt lat="37.2436170" lon="127.0803440">
    <ele>87.1</ele>
    <time>2026-08-14T13:10:53Z</time>
   </trkpt>
   <trkpt lat="37.2436130" lon="127.0803390">
    <ele>87.0</ele>
    <time>2026-08-14T13:10:54Z</time>
   </trkpt>
   <trkpt lat="37.2436050" lon="127.0803340">
    <ele>86.9</ele>
    <time>2026-08-14T13:10:55Z</time>
   </trkpt>
   <trkpt lat="37.2435960" lon="127.0803260">
    <ele>86.8</ele>
    <time>2026-08-14T13:10:56Z</time>
   </trkpt>
   <trkpt lat="37.2435860" lon="127.0803130">
    <ele>86.7</ele>
    <time>2026-08-14T13:10:57Z</time>
   </trkpt>
   <trkpt lat="37.2435700" lon="127.0802990">
    <ele>86.5</ele>
    <time>2026-08-14T13:10:58Z</time>
   </trkpt>
   <trkpt lat="37.2435630" lon="127.0802870">
    <ele>86.4</ele>
    <time>2026-08-14T13:10:59Z</time>
   </trkpt>
   <trkpt lat="37.2435670" lon="127.0802760">
    <ele>86.3</ele>
    <time>2026-08-14T13:11:00Z</time>
   </trkpt>
   <trkpt lat="37.2435710" lon="127.0802640">
    <ele>86.2</ele>
    <time>2026-08-14T13:11:01Z</time>
   </trkpt>
   <trkpt lat="37.2435720" lon="127.0802540">
    <ele>86.1</ele>
    <time>2026-08-14T13:11:02Z</time>
   </trkpt>
   <trkpt lat="37.2435700" lon="127.0802410">
    <ele>86.0</ele>
    <time>2026-08-14T13:11:03Z</time>
   </trkpt>
   <trkpt lat="37.2435710" lon="127.0802250">
    <ele>85.9</ele>
    <time>2026-08-14T13:11:04Z</time>
   </trkpt>
   <trkpt lat="37.2435720" lon="127.0802140">
    <ele>85.8</ele>
    <time>2026-08-14T13:11:05Z</time>
   </trkpt>
   <trkpt lat="37.2435750" lon="127.0802060">
    <ele>85.7</ele>
    <time>2026-08-14T13:11:06Z</time>
   </trkpt>
   <trkpt lat="37.2435740" lon="127.0801920">
    <ele>85.6</ele>
    <time>2026-08-14T13:11:07Z</time>
   </trkpt>
   <trkpt lat="37.2435710" lon="127.0801810">
    <ele>85.5</ele>
    <time>2026-08-14T13:11:08Z</time>
   </trkpt>
   <trkpt lat="37.2435700" lon="127.0801680">
    <ele>85.4</ele>
    <time>2026-08-14T13:11:09Z</time>
   </trkpt>
   <trkpt lat="37.2435680" lon="127.0801550">
    <ele>85.3</ele>
    <time>2026-08-14T13:11:10Z</time>
   </trkpt>
   <trkpt lat="37.2435670" lon="127.0801440">
    <ele>85.2</ele>
    <time>2026-08-14T13:11:11Z</time>
   </trkpt>
   <trkpt lat="37.2435650" lon="127.0801290">
    <ele>85.0</ele>
    <time>2026-08-14T13:11:12Z</time>
   </trkpt>
   <trkpt lat="37.2435610" lon="127.0801170">
    <ele>84.9</ele>
    <time>2026-08-14T13:11:13Z</time>
   </trkpt>
   <trkpt lat="37.2435590" lon="127.0801040">
    <ele>84.8</ele>
    <time>2026-08-14T13:11:14Z</time>
   </trkpt>
   <trkpt lat="37.2435600" lon="127.0800900">
    <ele>84.7</ele>
    <time>2026-08-14T13:11:15Z</time>
   </trkpt>
   <trkpt lat="37.2435600" lon="127.0800810">
    <ele>84.6</ele>
    <time>2026-08-14T13:11:16Z</time>
   </trkpt>
   <trkpt lat="37.2435600" lon="127.0800660">
    <ele>84.5</ele>
    <time>2026-08-14T13:11:17Z</time>
   </trkpt>
   <trkpt lat="37.2435600" lon="127.0800540">
    <ele>84.4</ele>
    <time>2026-08-14T13:11:18Z</time>
   </trkpt>
   <trkpt lat="37.2435590" lon="127.0800400">
    <ele>84.3</ele>
    <time>2026-08-14T13:11:19Z</time>
   </trkpt>
   <trkpt lat="37.2435560" lon="127.0800220">
    <ele>84.1</ele>
    <time>2026-08-14T13:11:20Z</time>
   </trkpt>
   <trkpt lat="37.2435540" lon="127.0800110">
    <ele>84.0</ele>
    <time>2026-08-14T13:11:21Z</time>
   </trkpt>
   <trkpt lat="37.2435580" lon="127.0799940">
    <ele>83.8</ele>
    <time>2026-08-14T13:11:22Z</time>
   </trkpt>
   <trkpt lat="37.2435600" lon="127.0799860">
    <ele>83.8</ele>
    <time>2026-08-14T13:11:23Z</time>
   </trkpt>
   <trkpt lat="37.2435620" lon="127.0799690">
    <ele>83.6</ele>
    <time>2026-08-14T13:11:24Z</time>
   </trkpt>
   <trkpt lat="37.2435570" lon="127.0799570">
    <ele>83.5</ele>
    <time>2026-08-14T13:11:25Z</time>
   </trkpt>
   <trkpt lat="37.2435560" lon="127.0799420">
    <ele>83.3</ele>
    <time>2026-08-14T13:11:26Z</time>
   </trkpt>
   <trkpt lat="37.2435550" lon="127.0799310">
    <ele>83.2</ele>
    <time>2026-08-14T13:11:27Z</time>
   </trkpt>
   <trkpt lat="37.2435560" lon="127.0799220">
    <ele>83.2</ele>
    <time>2026-08-14T13:11:28Z</time>
   </trkpt>
   <trkpt lat="37.2435560" lon="127.0799090">
    <ele>83.0</ele>
    <time>2026-08-14T13:11:29Z</time>
   </trkpt>
   <trkpt lat="37.2435590" lon="127.0798950">
    <ele>82.9</ele>
    <time>2026-08-14T13:11:30Z</time>
   </trkpt>
   <trkpt lat="37.2435540" lon="127.0798850">
    <ele>82.8</ele>
    <time>2026-08-14T13:11:31Z</time>
   </trkpt>
   <trkpt lat="37.2435570" lon="127.0798720">
    <ele>82.7</ele>
    <time>2026-08-14T13:11:32Z</time>
   </trkpt>
   <trkpt lat="37.2435590" lon="127.0798580">
    <ele>82.5</ele>
    <time>2026-08-14T13:11:33Z</time>
   </trkpt>
   <trkpt lat="37.2435600" lon="127.0798440">
    <ele>82.4</ele>
    <time>2026-08-14T13:11:34Z</time>
   </trkpt>
   <trkpt lat="37.2435590" lon="127.0798320">
    <ele>82.3</ele>
    <time>2026-08-14T13:11:35Z</time>
   </trkpt>
   <trkpt lat="37.2435630" lon="127.0798120">
    <ele>82.1</ele>
    <time>2026-08-14T13:11:36Z</time>
   </trkpt>
   <trkpt lat="37.2435620" lon="127.0798000">
    <ele>82.0</ele>
    <time>2026-08-14T13:11:37Z</time>
   </trkpt>
   <trkpt lat="37.2435610" lon="127.0797890">
    <ele>81.9</ele>
    <time>2026-08-14T13:11:38Z</time>
   </trkpt>
   <trkpt lat="37.2435610" lon="127.0797740">
    <ele>81.8</ele>
    <time>2026-08-14T13:11:39Z</time>
   </trkpt>
   <trkpt lat="37.2435640" lon="127.0797600">
    <ele>81.6</ele>
    <time>2026-08-14T13:11:40Z</time>
   </trkpt>
   <trkpt lat="37.2435680" lon="127.0797460">
    <ele>81.5</ele>
    <time>2026-08-14T13:11:41Z</time>
   </trkpt>
   <trkpt lat="37.2435720" lon="127.0797320">
    <ele>81.3</ele>
    <time>2026-08-14T13:11:42Z</time>
   </trkpt>
   <trkpt lat="37.2435730" lon="127.0797190">
    <ele>81.2</ele>
    <time>2026-08-14T13:11:43Z</time>
   </trkpt>
   <trkpt lat="37.2435790" lon="127.0797070">
    <ele>81.1</ele>
    <time>2026-08-14T13:11:44Z</time>
   </trkpt>
   <trkpt lat="37.2435790" lon="127.0796900">
    <ele>80.9</ele>
    <time>2026-08-14T13:11:45Z</time>
   </trkpt>
   <trkpt lat="37.2435770" lon="127.0796750">
    <ele>80.8</ele>
    <time>2026-08-14T13:11:46Z</time>
   </trkpt>
   <trkpt lat="37.2435790" lon="127.0796570">
    <ele>80.6</ele>
    <time>2026-08-14T13:11:47Z</time>
   </trkpt>
   <trkpt lat="37.2435770" lon="127.0796450">
    <ele>80.5</ele>
    <time>2026-08-14T13:11:48Z</time>
   </trkpt>
   <trkpt lat="37.2435800" lon="127.0796320">
    <ele>80.4</ele>
    <time>2026-08-14T13:11:49Z</time>
   </trkpt>
   <trkpt lat="37.2435780" lon="127.0796150">
    <ele>80.2</ele>
    <time>2026-08-14T13:11:50Z</time>
   </trkpt>
   <trkpt lat="37.2435790" lon="127.0796060">
    <ele>80.1</ele>
    <time>2026-08-14T13:11:51Z</time>
   </trkpt>
   <trkpt lat="37.2435750" lon="127.0795920">
    <ele>80.0</ele>
    <time>2026-08-14T13:11:52Z</time>
   </trkpt>
   <trkpt lat="37.2435740" lon="127.0795820">
    <ele>79.9</ele>
    <time>2026-08-14T13:11:53Z</time>
   </trkpt>
   <trkpt lat="37.2435710" lon="127.0795650">
    <ele>79.8</ele>
    <time>2026-08-14T13:11:54Z</time>
   </trkpt>
   <trkpt lat="37.2435690" lon="127.0795460">
    <ele>79.6</ele>
    <time>2026-08-14T13:11:55Z</time>
   </trkpt>
   <trkpt lat="37.2435650" lon="127.0795350">
    <ele>79.5</ele>
    <time>2026-08-14T13:11:56Z</time>
   </trkpt>
   <trkpt lat="37.2435640" lon="127.0795200">
    <ele>79.4</ele>
    <time>2026-08-14T13:11:57Z</time>
   </trkpt>
   <trkpt lat="37.2435630" lon="127.0795060">
    <ele>79.2</ele>
    <time>2026-08-14T13:11:58Z</time>
   </trkpt>
   <trkpt lat="37.2435690" lon="127.0794940">
    <ele>79.1</ele>
    <time>2026-08-14T13:11:59Z</time>
   </trkpt>
   <trkpt lat="37.2435750" lon="127.0794830">
    <ele>79.0</ele>
    <time>2026-08-14T13:12:00Z</time>
   </trkpt>
   <trkpt lat="37.2435830" lon="127.0794680">
    <ele>78.8</ele>
    <time>2026-08-14T13:12:01Z</time>
   </trkpt>
   <trkpt lat="37.2435850" lon="127.0794530">
    <ele>78.7</ele>
    <time>2026-08-14T13:12:02Z</time>
   </trkpt>
   <trkpt lat="37.2435860" lon="127.0794400">
    <ele>78.6</ele>
    <time>2026-08-14T13:12:03Z</time>
   </trkpt>
   <trkpt lat="37.2435890" lon="127.0794250">
    <ele>78.5</ele>
    <time>2026-08-14T13:12:04Z</time>
   </trkpt>
   <trkpt lat="37.2435910" lon="127.0794110">
    <ele>78.3</ele>
    <time>2026-08-14T13:12:05Z</time>
   </trkpt>
   <trkpt lat="37.2435940" lon="127.0793940">
    <ele>78.2</ele>
    <time>2026-08-14T13:12:06Z</time>
   </trkpt>
   <trkpt lat="37.2435950" lon="127.0793840">
    <ele>78.1</ele>
    <time>2026-08-14T13:12:07Z</time>
   </trkpt>
   <trkpt lat="37.2435960" lon="127.0793710">
    <ele>78.0</ele>
    <time>2026-08-14T13:12:08Z</time>
   </trkpt>
   <trkpt lat="37.2435960" lon="127.0793610">
    <ele>77.9</ele>
    <time>2026-08-14T13:12:09Z</time>
   </trkpt>
   <trkpt lat="37.2435960" lon="127.0793460">
    <ele>77.8</ele>
    <time>2026-08-14T13:12:10Z</time>
   </trkpt>
   <trkpt lat="37.2435990" lon="127.0793370">
    <ele>77.7</ele>
    <time>2026-08-14T13:12:11Z</time>
   </trkpt>
   <trkpt lat="37.2436040" lon="127.0793230">
    <ele>77.6</ele>
    <time>2026-08-14T13:12:12Z</time>
   </trkpt>
   <trkpt lat="37.2436020" lon="127.0793130">
    <ele>77.5</ele>
    <time>2026-08-14T13:12:13Z</time>
   </trkpt>
   <trkpt lat="37.2436090" lon="127.0792980">
    <ele>77.4</ele>
    <time>2026-08-14T13:12:14Z</time>
   </trkpt>
   <trkpt lat="37.2436110" lon="127.0792850">
    <ele>77.3</ele>
    <time>2026-08-14T13:12:15Z</time>
   </trkpt>
   <trkpt lat="37.2436120" lon="127.0792690">
    <ele>77.2</ele>
    <time>2026-08-14T13:12:16Z</time>
   </trkpt>
   <trkpt lat="37.2436100" lon="127.0792600">
    <ele>77.1</ele>
    <time>2026-08-14T13:12:17Z</time>
   </trkpt>
   <trkpt lat="37.2436140" lon="127.0792500">
    <ele>77.1</ele>
    <time>2026-08-14T13:12:18Z</time>
   </trkpt>
   <trkpt lat="37.2436290" lon="127.0792320">
    <ele>76.9</ele>
    <time>2026-08-14T13:12:19Z</time>
   </trkpt>
   <trkpt lat="37.2436380" lon="127.0792200">
    <ele>76.8</ele>
    <time>2026-08-14T13:12:20Z</time>
   </trkpt>
   <trkpt lat="37.2436520" lon="127.0792100">
    <ele>76.6</ele>
    <time>2026-08-14T13:12:21Z</time>
   </trkpt>
   <trkpt lat="37.2436640" lon="127.0791990">
    <ele>76.5</ele>
    <time>2026-08-14T13:12:22Z</time>
   </trkpt>
   <trkpt lat="37.2436730" lon="127.0791970">
    <ele>76.4</ele>
    <time>2026-08-14T13:12:23Z</time>
   </trkpt>
   <trkpt lat="37.2436830" lon="127.0791890">
    <ele>76.3</ele>
    <time>2026-08-14T13:12:24Z</time>
   </trkpt>
   <trkpt lat="37.2436880" lon="127.0791880">
    <ele>76.3</ele>
    <time>2026-08-14T13:12:25Z</time>
   </trkpt>
   <trkpt lat="37.2436980" lon="127.0791840">
    <ele>76.3</ele>
    <time>2026-08-14T13:12:26Z</time>
   </trkpt>
   <trkpt lat="37.2437080" lon="127.0791810">
    <ele>76.2</ele>
    <time>2026-08-14T13:12:27Z</time>
   </trkpt>
   <trkpt lat="37.2437240" lon="127.0791740">
    <ele>76.2</ele>
    <time>2026-08-14T13:12:28Z</time>
   </trkpt>
   <trkpt lat="37.2437320" lon="127.0791680">
    <ele>76.2</ele>
    <time>2026-08-14T13:12:29Z</time>
   </trkpt>
   <trkpt lat="37.2437370" lon="127.0791640">
    <ele>76.2</ele>
    <time>2026-08-14T13:12:30Z</time>
   </trkpt>
   <trkpt lat="37.2437450" lon="127.0791640">
    <ele>76.1</ele>
    <time>2026-08-14T13:12:31Z</time>
   </trkpt>
   <trkpt lat="37.2437540" lon="127.0791590">
    <ele>76.1</ele>
    <time>2026-08-14T13:12:32Z</time>
   </trkpt>
   <trkpt lat="37.2437640" lon="127.0791580">
    <ele>76.1</ele>
    <time>2026-08-14T13:12:33Z</time>
   </trkpt>
   <trkpt lat="37.2437730" lon="127.0791550">
    <ele>76.0</ele>
    <time>2026-08-14T13:12:34Z</time>
   </trkpt>
   <trkpt lat="37.2437880" lon="127.0791510">
    <ele>76.0</ele>
    <time>2026-08-14T13:12:35Z</time>
   </trkpt>
   <trkpt lat="37.2437950" lon="127.0791490">
    <ele>76.0</ele>
    <time>2026-08-14T13:12:36Z</time>
   </trkpt>
   <trkpt lat="37.2438040" lon="127.0791440">
    <ele>76.0</ele>
    <time>2026-08-14T13:12:37Z</time>
   </trkpt>
   <trkpt lat="37.2438140" lon="127.0791420">
    <ele>75.9</ele>
    <time>2026-08-14T13:12:38Z</time>
   </trkpt>
   <trkpt lat="37.2438240" lon="127.0791390">
    <ele>75.9</ele>
    <time>2026-08-14T13:12:39Z</time>
   </trkpt>
   <trkpt lat="37.2438330" lon="127.0791400">
    <ele>75.8</ele>
    <time>2026-08-14T13:12:40Z</time>
   </trkpt>
   <trkpt lat="37.2438450" lon="127.0791400">
    <ele>75.7</ele>
    <time>2026-08-14T13:12:41Z</time>
   </trkpt>
   <trkpt lat="37.2438540" lon="127.0791380">
    <ele>75.7</ele>
    <time>2026-08-14T13:12:42Z</time>
   </trkpt>
   <trkpt lat="37.2438670" lon="127.0791380">
    <ele>75.6</ele>
    <time>2026-08-14T13:12:43Z</time>
   </trkpt>
   <trkpt lat="37.2438770" lon="127.0791400">
    <ele>75.6</ele>
    <time>2026-08-14T13:12:44Z</time>
   </trkpt>
   <trkpt lat="37.2438890" lon="127.0791360">
    <ele>75.5</ele>
    <time>2026-08-14T13:12:45Z</time>
   </trkpt>
   <trkpt lat="37.2438940" lon="127.0791320">
    <ele>75.5</ele>
    <time>2026-08-14T13:12:46Z</time>
   </trkpt>
   <trkpt lat="37.2439040" lon="127.0791270">
    <ele>75.4</ele>
    <time>2026-08-14T13:12:47Z</time>
   </trkpt>
   <trkpt lat="37.2439150" lon="127.0791230">
    <ele>75.4</ele>
    <time>2026-08-14T13:12:48Z</time>
   </trkpt>
   <trkpt lat="37.2439260" lon="127.0791220">
    <ele>75.3</ele>
    <time>2026-08-14T13:12:49Z</time>
   </trkpt>
   <trkpt lat="37.2439370" lon="127.0791200">
    <ele>75.3</ele>
    <time>2026-08-14T13:12:50Z</time>
   </trkpt>
   <trkpt lat="37.2439520" lon="127.0791190">
    <ele>75.2</ele>
    <time>2026-08-14T13:12:51Z</time>
   </trkpt>
   <trkpt lat="37.2439620" lon="127.0791180">
    <ele>75.2</ele>
    <time>2026-08-14T13:12:52Z</time>
   </trkpt>
   <trkpt lat="37.2439740" lon="127.0791150">
    <ele>75.1</ele>
    <time>2026-08-14T13:12:53Z</time>
   </trkpt>
   <trkpt lat="37.2439830" lon="127.0791160">
    <ele>75.1</ele>
    <time>2026-08-14T13:12:54Z</time>
   </trkpt>
   <trkpt lat="37.2439980" lon="127.0791110">
    <ele>75.0</ele>
    <time>2026-08-14T13:12:55Z</time>
   </trkpt>
   <trkpt lat="37.2440100" lon="127.0791080">
    <ele>75.0</ele>
    <time>2026-08-14T13:12:56Z</time>
   </trkpt>
   <trkpt lat="37.2440190" lon="127.0791080">
    <ele>74.9</ele>
    <time>2026-08-14T13:12:57Z</time>
   </trkpt>
   <trkpt lat="37.2440330" lon="127.0791060">
    <ele>74.9</ele>
    <time>2026-08-14T13:12:58Z</time>
   </trkpt>
   <trkpt lat="37.2440440" lon="127.0791030">
    <ele>74.9</ele>
    <time>2026-08-14T13:12:59Z</time>
   </trkpt>
   <trkpt lat="37.2440560" lon="127.0790990">
    <ele>74.8</ele>
    <time>2026-08-14T13:13:00Z</time>
   </trkpt>
   <trkpt lat="37.2440680" lon="127.0790940">
    <ele>74.8</ele>
    <time>2026-08-14T13:13:01Z</time>
   </trkpt>
   <trkpt lat="37.2440790" lon="127.0790920">
    <ele>74.7</ele>
    <time>2026-08-14T13:13:02Z</time>
   </trkpt>
   <trkpt lat="37.2440900" lon="127.0790920">
    <ele>74.7</ele>
    <time>2026-08-14T13:13:03Z</time>
   </trkpt>
   <trkpt lat="37.2441010" lon="127.0790920">
    <ele>74.7</ele>
    <time>2026-08-14T13:13:04Z</time>
   </trkpt>
   <trkpt lat="37.2441140" lon="127.0790910">
    <ele>74.7</ele>
    <time>2026-08-14T13:13:05Z</time>
   </trkpt>
   <trkpt lat="37.2441260" lon="127.0790890">
    <ele>74.6</ele>
    <time>2026-08-14T13:13:06Z</time>
   </trkpt>
   <trkpt lat="37.2441340" lon="127.0790880">
    <ele>74.6</ele>
    <time>2026-08-14T13:13:07Z</time>
   </trkpt>
  </trkseg>
 </trk>
</gpx>
