<?xml version="1.0" encoding="UTF-8"?>
<gpx creator="StravaGPX" version="1.1" xmlns="http://www.topografix.com/GPX/1/1" xmlns:xsi="http://www.w3.org/2001/XMLSchema-instance" xsi:schemaLocation="http://www.topografix.com/GPX/1/1 http://www.topografix.com/GPX/1/1/gpx.xsd">
 <metadata>
  <time>2026-08-14T01:04:47Z</time>
 </metadata>
 <trk>
  <name>윤예진_완만오르막_4회차</name>
  <type>walking</type>
  <trkseg>
   <trkpt lat="37.2115300" lon="127.1066710">
    <ele>65.9</ele>
    <time>2026-08-14T01:04:47Z</time>
   </trkpt>
   <trkpt lat="37.2115370" lon="127.1066730">
    <ele>65.9</ele>
    <time>2026-08-14T01:04:48Z</time>
   </trkpt>
   <trkpt lat="37.2115440" lon="127.1066710">
    <ele>65.9</ele>
    <time>2026-08-14T01:04:49Z</time>
   </trkpt>
   <trkpt lat="37.2115390" lon="127.1066860">
    <ele>65.9</ele>
    <time>2026-08-14T01:04:50Z</time>
   </trkpt>
   <trkpt lat="37.2115500" lon="127.1066960">
    <ele>66.0</ele>
    <time>2026-08-14T01:04:51Z</time>
   </trkpt>
   <trkpt lat="37.2115670" lon="127.1066980">
    <ele>66.0</ele>
    <time>2026-08-14T01:04:52Z</time>
   </trkpt>
   <trkpt lat="37.2115790" lon="127.1067050">
    <ele>66.0</ele>
    <time>2026-08-14T01:04:53Z</time>
   </trkpt>
   <trkpt lat="37.2115920" lon="127.1067190">
    <ele>66.1</ele>
    <time>2026-08-14T01:04:54Z</time>
   </trkpt>
   <trkpt lat="37.2116050" lon="127.1067260">
    <ele>66.1</ele>
    <time>2026-08-14T01:04:55Z</time>
   </trkpt>
   <trkpt lat="37.2116140" lon="127.1067340">
    <ele>66.2</ele>
    <time>2026-08-14T01:04:56Z</time>
   </trkpt>
   <trkpt lat="37.2116210" lon="127.1067390">
    <ele>66.2</ele>
    <time>2026-08-14T01:04:57Z</time>
   </trkpt>
   <trkpt lat="37.2116290" lon="127.1067490">
    <ele>66.2</ele>
    <time>2026-08-14T01:04:58Z</time>
   </trkpt>
   <trkpt lat="37.2116380" lon="127.1067580">
    <ele>66.2</ele>
    <time>2026-08-14T01:04:59Z</time>
   </trkpt>
   <trkpt lat="37.2116490" lon="127.1067650">
    <ele>66.3</ele>
    <time>2026-08-14T01:05:00Z</time>
   </trkpt>
   <trkpt lat="37.2116560" lon="127.1067740">
    <ele>66.3</ele>
    <time>2026-08-14T01:05:01Z</time>
   </trkpt>
   <trkpt lat="37.2116690" lon="127.1067800">
    <ele>66.3</ele>
    <time>2026-08-14T01:05:02Z</time>
   </trkpt>
   <trkpt lat="37.2116770" lon="127.1067940">
    <ele>66.4</ele>
    <time>2026-08-14T01:05:04Z</time>
   </trkpt>
   <trkpt lat="37.2116860" lon="127.1067950">
    <ele>66.4</ele>
    <time>2026-08-14T01:05:05Z</time>
   </trkpt>
   <trkpt lat="37.2116930" lon="127.1068030">
    <ele>66.4</ele>
    <time>2026-08-14T01:05:06Z</time>
   </trkpt>
   <trkpt lat="37.2117070" lon="127.1068120">
    <ele>66.4</ele>
    <time>2026-08-14T01:05:07Z</time>
   </trkpt>
   <trkpt lat="37.2117150" lon="127.1068210">
    <ele>66.5</ele>
    <time>2026-08-14T01:05:08Z</time>
   </trkpt>
   <trkpt lat="37.2117190" lon="127.1068290">
    <ele>66.5</ele>
    <time>2026-08-14T01:05:09Z</time>
   </trkpt>
   <trkpt lat="37.2117270" lon="127.1068360">
    <ele>66.5</ele>
    <time>2026-08-14T01:05:10Z</time>
   </trkpt>
   <trkpt lat="37.2117330" lon="127.1068440">
    <ele>66.5</ele>
    <time>2026-08-14T01:05:11Z</time>
   </trkpt>
   <trkpt lat="37.2117400" lon="127.1068520">
    <ele>66.6</ele>
    <time>2026-08-14T01:05:12Z</time>
   </trkpt>
   <trkpt lat="37.2117450" lon="127.1068580">
    <ele>66.6</ele>
    <time>2026-08-14T01:05:13Z</time>
   </trkpt>
   <trkpt lat="37.2117540" lon="127.1068730">
    <ele>66.6</ele>
    <time>2026-08-14T01:05:14Z</time>
   </trkpt>
   <trkpt lat="37.2117650" lon="127.1068810">
    <ele>66.6</ele>
    <time>2026-08-14T01:05:15Z</time>
   </trkpt>
   <trkpt lat="37.2117700" lon="127.1068930">
    <ele>66.7</ele>
    <time>2026-08-14T01:05:16Z</time>
   </trkpt>
   <trkpt lat="37.2117840" lon="127.1069040">
    <ele>66.7</ele>
    <time>2026-08-14T01:05:17Z</time>
   </trkpt>
   <trkpt lat="37.2117920" lon="127.1069140">
    <ele>66.8</ele>
    <time>2026-08-14T01:05:18Z</time>
   </trkpt>
   <trkpt lat="37.2118010" lon="127.1069250">
    <ele>66.8</ele>
    <time>2026-08-14T01:05:19Z</time>
   </trkpt>
   <trkpt lat="37.2118000" lon="127.1069300">
    <ele>66.8</ele>
    <time>2026-08-14T01:05:20Z</time>
   </trkpt>
   <trkpt lat="37.2118100" lon="127.1069440">
    <ele>66.8</ele>
    <time>2026-08-14T01:05:21Z</time>
   </trkpt>
   <trkpt lat="37.2118190" lon="127.1069590">
    <ele>66.9</ele>
    <time>2026-08-14T01:05:22Z</time>
   </trkpt>
   <trkpt lat="37.2118260" lon="127.1069640">
    <ele>66.9</ele>
    <time>2026-08-14T01:05:23Z</time>
   </trkpt>
   <trkpt lat="37.2118390" lon="127.1069740">
    <ele>66.9</ele>
    <time>2026-08-14T01:05:24Z</time>
   </trkpt>
   <trkpt lat="37.2118490" lon="127.1069810">
    <ele>67.0</ele>
    <time>2026-08-14T01:05:25Z</time>
   </trkpt>
   <trkpt lat="37.2118570" lon="127.1069890">
    <ele>67.0</ele>
    <time>2026-08-14T01:05:26Z</time>
   </trkpt>
   <trkpt lat="37.2118690" lon="127.1070000">
    <ele>67.1</ele>
    <time>2026-08-14T01:05:27Z</time>
   </trkpt>
   <trkpt lat="37.2118860" lon="127.1070150">
    <ele>67.1</ele>
    <time>2026-08-14T01:05:28Z</time>
   </trkpt>
   <trkpt lat="37.2118990" lon="127.1070230">
    <ele>67.2</ele>
    <time>2026-08-14T01:05:29Z</time>
   </trkpt>
   <trkpt lat="37.2119020" lon="127.1070330">
    <ele>67.2</ele>
    <time>2026-08-14T01:05:30Z</time>
   </trkpt>
   <trkpt lat="37.2119100" lon="127.1070440">
    <ele>67.3</ele>
    <time>2026-08-14T01:05:31Z</time>
   </trkpt>
   <trkpt lat="37.2119120" lon="127.1070510">
    <ele>67.3</ele>
    <time>2026-08-14T01:05:32Z</time>
   </trkpt>
   <trkpt lat="37.2119240" lon="127.1070640">
    <ele>67.3</ele>
    <time>2026-08-14T01:05:33Z</time>
   </trkpt>
   <trkpt lat="37.2119280" lon="127.1070740">
    <ele>67.4</ele>
    <time>2026-08-14T01:05:34Z</time>
   </trkpt>
   <trkpt lat="37.2119360" lon="127.1070830">
    <ele>67.4</ele>
    <time>2026-08-14T01:05:35Z</time>
   </trkpt>
   <trkpt lat="37.2119450" lon="127.1070950">
    <ele>67.4</ele>
    <time>2026-08-14T01:05:36Z</time>
   </trkpt>
   <trkpt lat="37.2119550" lon="127.1071050">
    <ele>67.5</ele>
    <time>2026-08-14T01:05:37Z</time>
   </trkpt>
   <trkpt lat="37.2119670" lon="127.1071160">
    <ele>67.5</ele>
    <time>2026-08-14T01:05:38Z</time>
   </trkpt>
   <trkpt lat="37.2119720" lon="127.1071250">
    <ele>67.6</ele>
    <time>2026-08-14T01:05:39Z</time>
   </trkpt>
   <trkpt lat="37.2119790" lon="127.1071390">
    <ele>67.6</ele>
    <time>2026-08-14T01:05:40Z</time>
   </trkpt>
   <trkpt lat="37.2119840" lon="127.1071450">
    <ele>67.6</ele>
    <time>2026-08-14T01:05:41Z</time>
   </trkpt>
   <trkpt lat="37.2119930" lon="127.1071630">
    <ele>67.7</ele>
    <time>2026-08-14T01:05:42Z</time>
   </trkpt>
   <trkpt lat="37.2120000" lon="127.1071660">
    <ele>67.7</ele>
    <time>2026-08-14T01:05:43Z</time>
   </trkpt>
   <trkpt lat="37.2120040" lon="127.1071750">
    <ele>67.7</ele>
    <time>2026-08-14T01:05:44Z</time>
   </trkpt>
   <trkpt lat="37.2120120" lon="127.1071820">
    <ele>67.8</ele>
    <time>2026-08-14T01:05:45Z</time>
   </trkpt>
   <trkpt lat="37.2120210" lon="127.1071970">
    <ele>67.8</ele>
    <time>2026-08-14T01:05:46Z</time>
   </trkpt>
   <trkpt lat="37.2120260" lon="127.1072070">
    <ele>67.9</ele>
    <time>2026-08-14T01:05:47Z</time>
   </trkpt>
   <trkpt lat="37.2120300" lon="127.1072170">
    <ele>67.9</ele>
    <time>2026-08-14T01:05:48Z</time>
   </trkpt>
   <trkpt lat="37.2120390" lon="127.1072240">
    <ele>67.9</ele>
    <time>2026-08-14T01:05:49Z</time>
   </trkpt>
   <trkpt lat="37.2120520" lon="127.1072320">
    <ele>68.0</ele>
    <time>2026-08-14T01:05:50Z</time>
   </trkpt>
   <trkpt lat="37.2120590" lon="127.1072400">
    <ele>68.0</ele>
    <time>2026-08-14T01:05:51Z</time>
   </trkpt>
   <trkpt lat="37.2120660" lon="127.1072490">
    <ele>68.1</ele>
    <time>2026-08-14T01:05:52Z</time>
   </trkpt>
   <trkpt lat="37.2120750" lon="127.1072610">
    <ele>68.1</ele>
    <time>2026-08-14T01:05:53Z</time>
   </trkpt>
   <trkpt lat="37.2120850" lon="127.1072740">
    <ele>68.2</ele>
    <time>2026-08-14T01:05:55Z</time>
   </trkpt>
   <trkpt lat="37.2120950" lon="127.1072810">
    <ele>68.2</ele>
    <time>2026-08-14T01:05:56Z</time>
   </trkpt>
   <trkpt lat="37.2120990" lon="127.1072920">
    <ele>68.3</ele>
    <time>2026-08-14T01:05:57Z</time>
   </trkpt>
   <trkpt lat="37.2121070" lon="127.1073020">
    <ele>68.3</ele>
    <time>2026-08-14T01:05:58Z</time>
   </trkpt>
   <trkpt lat="37.2121170" lon="127.1073090">
    <ele>68.4</ele>
    <time>2026-08-14T01:05:59Z</time>
   </trkpt>
   <trkpt lat="37.2121240" lon="127.1073210">
    <ele>68.4</ele>
    <time>2026-08-14T01:06:00Z</time>
   </trkpt>
   <trkpt lat="37.2121310" lon="127.1073300">
    <ele>68.4</ele>
    <time>2026-08-14T01:06:01Z</time>
   </trkpt>
   <trkpt lat="37.2121340" lon="127.1073330">
    <ele>68.5</ele>
    <time>2026-08-14T01:06:02Z</time>
   </trkpt>
   <trkpt lat="37.2121410" lon="127.1073420">
    <ele>68.5</ele>
    <time>2026-08-14T01:06:03Z</time>
   </trkpt>
   <trkpt lat="37.2121510" lon="127.1073550">
    <ele>68.6</ele>
    <time>2026-08-14T01:06:04Z</time>
   </trkpt>
   <trkpt lat="37.2121620" lon="127.1073700">
    <ele>68.6</ele>
    <time>2026-08-14T01:06:05Z</time>
   </trkpt>
   <trkpt lat="37.2121710" lon="127.1073790">
    <ele>68.7</ele>
    <time>2026-08-14T01:06:06Z</time>
   </trkpt>
   <trkpt lat="37.2121800" lon="127.1073860">
    <ele>68.7</ele>
    <time>2026-08-14T01:06:07Z</time>
   </trkpt>
   <trkpt lat="37.2121870" lon="127.1073930">
    <ele>68.8</ele>
    <time>2026-08-14T01:06:08Z</time>
   </trkpt>
   <trkpt lat="37.2121960" lon="127.1074070">
    <ele>68.8</ele>
    <time>2026-08-14T01:06:09Z</time>
   </trkpt>
   <trkpt lat="37.2122010" lon="127.1074150">
    <ele>68.8</ele>
    <time>2026-08-14T01:06:10Z</time>
   </trkpt>
   <trkpt lat="37.2122080" lon="127.1074200">
    <ele>68.9</ele>
    <time>2026-08-14T01:06:11Z</time>
   </trkpt>
   <trkpt lat="37.2122190" lon="127.1074400">
    <ele>69.0</ele>
    <time>2026-08-14T01:06:12Z</time>
   </trkpt>
   <trkpt lat="37.2122270" lon="127.1074510">
    <ele>69.0</ele>
    <time>2026-08-14T01:06:13Z</time>
   </trkpt>
   <trkpt lat="37.2122330" lon="127.1074540">
    <ele>69.0</ele>
    <time>2026-08-14T01:06:14Z</time>
   </trkpt>
   <trkpt lat="37.2122390" lon="127.1074670">
    <ele>69.1</ele>
    <time>2026-08-14T01:06:15Z</time>
   </trkpt>
   <trkpt lat="37.2122520" lon="127.1074830">
    <ele>69.2</ele>
    <time>2026-08-14T01:06:16Z</time>
   </trkpt>
   <trkpt lat="37.2122580" lon="127.1074880">
    <ele>69.2</ele>
    <time>2026-08-14T01:06:17Z</time>
   </trkpt>
   <trkpt lat="37.2122620" lon="127.1074970">
    <ele>69.2</ele>
    <time>2026-08-14T01:06:18Z</time>
   </trkpt>
   <trkpt lat="37.2122690" lon="127.1075080">
    <ele>69.3</ele>
    <time>2026-08-14T01:06:19Z</time>
   </trkpt>
   <trkpt lat="37.2122800" lon="127.1075190">
    <ele>69.3</ele>
    <time>2026-08-14T01:06:20Z</time>
   </trkpt>
   <trkpt lat="37.2122850" lon="127.1075270">
    <ele>69.4</ele>
    <time>2026-08-14T01:06:21Z</time>
   </trkpt>
   <trkpt lat="37.2122970" lon="127.1075350">
    <ele>69.4</ele>
    <time>2026-08-14T01:06:22Z</time>
   </trkpt>
   <trkpt lat="37.2123030" lon="127.1075450">
    <ele>69.5</ele>
    <time>2026-08-14T01:06:23Z</time>
   </trkpt>
   <trkpt lat="37.2123020" lon="127.1075420">
    <ele>69.5</ele>
    <time>2026-08-14T01:06:24Z</time>
   </trkpt>
   <trkpt lat="37.2123130" lon="127.1075590">
    <ele>69.6</ele>
    <time>2026-08-14T01:06:25Z</time>
   </trkpt>
   <trkpt lat="37.2123190" lon="127.1075690">
    <ele>69.6</ele>
    <time>2026-08-14T01:06:26Z</time>
   </trkpt>
   <trkpt lat="37.2123280" lon="127.1075820">
    <ele>69.7</ele>
    <time>2026-08-14T01:06:27Z</time>
   </trkpt>
   <trkpt lat="37.2123350" lon="127.1075940">
    <ele>69.7</ele>
    <time>2026-08-14T01:06:28Z</time>
   </trkpt>
   <trkpt lat="37.2123460" lon="127.1076070">
    <ele>69.8</ele>
    <time>2026-08-14T01:06:29Z</time>
   </trkpt>
   <trkpt lat="37.2123550" lon="127.1076180">
    <ele>69.9</ele>
    <time>2026-08-14T01:06:30Z</time>
   </trkpt>
   <trkpt lat="37.2123660" lon="127.1076300">
    <ele>69.9</ele>
    <time>2026-08-14T01:06:31Z</time>
   </trkpt>
   <trkpt lat="37.2123710" lon="127.1076320">
    <ele>69.9</ele>
    <time>2026-08-14T01:06:32Z</time>
   </trkpt>
   <trkpt lat="37.2123790" lon="127.1076460">
    <ele>70.0</ele>
    <time>2026-08-14T01:06:33Z</time>
   </trkpt>
   <trkpt lat="37.2123880" lon="127.1076550">
    <ele>70.1</ele>
    <time>2026-08-14T01:06:34Z</time>
   </trkpt>
   <trkpt lat="37.2123930" lon="127.1076650">
    <ele>70.1</ele>
    <time>2026-08-14T01:06:35Z</time>
   </trkpt>
   <trkpt lat="37.2124020" lon="127.1076770">
    <ele>70.2</ele>
    <time>2026-08-14T01:06:36Z</time>
   </trkpt>
   <trkpt lat="37.2124130" lon="127.1076840">
    <ele>70.2</ele>
    <time>2026-08-14T01:06:37Z</time>
   </trkpt>
   <trkpt lat="37.2124210" lon="127.1076980">
    <ele>70.3</ele>
    <time>2026-08-14T01:06:38Z</time>
   </trkpt>
   <trkpt lat="37.2124280" lon="127.1077120">
    <ele>70.4</ele>
    <time>2026-08-14T01:06:39Z</time>
   </trkpt>
   <trkpt lat="37.2124390" lon="127.1077240">
    <ele>70.4</ele>
    <time>2026-08-14T01:06:40Z</time>
   </trkpt>
   <trkpt lat="37.2124480" lon="127.1077280">
    <ele>70.5</ele>
    <time>2026-08-14T01:06:41Z</time>
   </trkpt>
   <trkpt lat="37.2124540" lon="127.1077440">
    <ele>70.5</ele>
    <time>2026-08-14T01:06:42Z</time>
   </trkpt>
   <trkpt lat="37.2124640" lon="127.1077540">
    <ele>70.6</ele>
    <time>2026-08-14T01:06:43Z</time>
   </trkpt>
   <trkpt lat="37.2124710" lon="127.1077630">
    <ele>70.6</ele>
    <time>2026-08-14T01:06:44Z</time>
   </trkpt>
   <trkpt lat="37.2124800" lon="127.1077760">
    <ele>70.7</ele>
    <time>2026-08-14T01:06:45Z</time>
   </trkpt>
   <trkpt lat="37.2124860" lon="127.1077840">
    <ele>70.7</ele>
    <time>2026-08-14T01:06:46Z</time>
   </trkpt>
   <trkpt lat="37.2124940" lon="127.1078000">
    <ele>70.8</ele>
    <time>2026-08-14T01:06:47Z</time>
   </trkpt>
   <trkpt lat="37.2124950" lon="127.1078010">
    <ele>70.8</ele>
    <time>2026-08-14T01:06:48Z</time>
   </trkpt>
   <trkpt lat="37.2125070" lon="127.1078150">
    <ele>70.9</ele>
    <time>2026-08-14T01:06:49Z</time>
   </trkpt>
   <trkpt lat="37.2125150" lon="127.1078300">
    <ele>71.0</ele>
    <time>2026-08-14T01:06:50Z</time>
   </trkpt>
   <trkpt lat="37.2125250" lon="127.1078430">
    <ele>71.0</ele>
    <time>2026-08-14T01:06:51Z</time>
   </trkpt>
   <trkpt lat="37.2125330" lon="127.1078560">
    <ele>71.1</ele>
    <time>2026-08-14T01:06:52Z</time>
   </trkpt>
   <trkpt lat="37.2125390" lon="127.1078620">
    <ele>71.1</ele>
    <time>2026-08-14T01:06:53Z</time>
   </trkpt>
   <trkpt lat="37.2125420" lon="127.1078730">
    <ele>71.2</ele>
    <time>2026-08-14T01:06:54Z</time>
   </trkpt>
   <trkpt lat="37.2125500" lon="127.1078870">
    <ele>71.2</ele>
    <time>2026-08-14T01:06:55Z</time>
   </trkpt>
   <trkpt lat="37.2125570" lon="127.1078990">
    <ele>71.3</ele>
    <time>2026-08-14T01:06:56Z</time>
   </trkpt>
   <trkpt lat="37.2125650" lon="127.1079090">
    <ele>71.3</ele>
    <time>2026-08-14T01:06:57Z</time>
   </trkpt>
   <trkpt lat="37.2125720" lon="127.1079220">
    <ele>71.4</ele>
    <time>2026-08-14T01:06:58Z</time>
   </trkpt>
   <trkpt lat="37.2125810" lon="127.1079320">
    <ele>71.4</ele>
    <time>2026-08-14T01:06:59Z</time>
   </trkpt>
   <trkpt lat="37.2125860" lon="127.1079380">
    <ele>71.5</ele>
    <time>2026-08-14T01:07:00Z</time>
   </trkpt>
   <trkpt lat="37.2125950" lon="127.1079540">
    <ele>71.5</ele>
    <time>2026-08-14T01:07:01Z</time>
   </trkpt>
   <trkpt lat="37.2125990" lon="127.1079660">
    <ele>71.6</ele>
    <time>2026-08-14T01:07:02Z</time>
   </trkpt>
   <trkpt lat="37.2126030" lon="127.1079780">
    <ele>71.6</ele>
    <time>2026-08-14T01:07:03Z</time>
   </trkpt>
   <trkpt lat="37.2126120" lon="127.1079930">
    <ele>71.7</ele>
    <time>2026-08-14T01:07:04Z</time>
   </trkpt>
   <trkpt lat="37.2126210" lon="127.1080030">
    <ele>71.7</ele>
    <time>2026-08-14T01:07:05Z</time>
   </trkpt>
   <trkpt lat="37.2126330" lon="127.1080210">
    <ele>71.8</ele>
    <time>2026-08-14T01:07:06Z</time>
   </trkpt>
   <trkpt lat="37.2126390" lon="127.1080340">
    <ele>71.9</ele>
    <time>2026-08-14T01:07:07Z</time>
   </trkpt>
   <trkpt lat="37.2126460" lon="127.1080420">
    <ele>71.9</ele>
    <time>2026-08-14T01:07:08Z</time>
   </trkpt>
   <trkpt lat="37.2126510" lon="127.1080530">
    <ele>71.9</ele>
    <time>2026-08-14T01:07:09Z</time>
   </trkpt>
   <trkpt lat="37.2126570" lon="127.1080620">
    <ele>72.0</ele>
    <time>2026-08-14T01:07:10Z</time>
   </trkpt>
   <trkpt lat="37.2126620" lon="127.1080760">
    <ele>72.0</ele>
    <time>2026-08-14T01:07:11Z</time>
   </trkpt>
   <trkpt lat="37.2126700" lon="127.1080900">
    <ele>72.1</ele>
    <time>2026-08-14T01:07:12Z</time>
   </trkpt>
   <trkpt lat="37.2126750" lon="127.1080990">
    <ele>72.1</ele>
    <time>2026-08-14T01:07:13Z</time>
   </trkpt>
   <trkpt lat="37.2126770" lon="127.1081060">
    <ele>72.1</ele>
    <time>2026-08-14T01:07:14Z</time>
   </trkpt>
   <trkpt lat="37.2126830" lon="127.1081220">
    <ele>72.2</ele>
    <time>2026-08-14T01:07:15Z</time>
   </trkpt>
   <trkpt lat="37.2126950" lon="127.1081330">
    <ele>72.3</ele>
    <time>2026-08-14T01:07:16Z</time>
   </trkpt>
   <trkpt lat="37.2127000" lon="127.1081420">
    <ele>72.3</ele>
    <time>2026-08-14T01:07:17Z</time>
   </trkpt>
   <trkpt lat="37.2127050" lon="127.1081540">
    <ele>72.3</ele>
    <time>2026-08-14T01:07:18Z</time>
   </trkpt>
   <trkpt lat="37.2127100" lon="127.1081710">
    <ele>72.4</ele>
    <time>2026-08-14T01:07:19Z</time>
   </trkpt>
   <trkpt lat="37.2127140" lon="127.1081830">
    <ele>72.4</ele>
    <time>2026-08-14T01:07:20Z</time>
   </trkpt>
   <trkpt lat="37.2127170" lon="127.1081930">
    <ele>72.5</ele>
    <time>2026-08-14T01:07:21Z</time>
   </trkpt>
   <trkpt lat="37.2127220" lon="127.1082140">
    <ele>72.5</ele>
    <time>2026-08-14T01:07:22Z</time>
   </trkpt>
   <trkpt lat="37.2127210" lon="127.1082200">
    <ele>72.6</ele>
    <time>2026-08-14T01:07:23Z</time>
   </trkpt>
   <trkpt lat="37.2127250" lon="127.1082300">
    <ele>72.6</ele>
    <time>2026-08-14T01:07:24Z</time>
   </trkpt>
   <trkpt lat="37.2127320" lon="127.1082410">
    <ele>72.6</ele>
    <time>2026-08-14T01:07:25Z</time>
   </trkpt>
   <trkpt lat="37.2127380" lon="127.1082590">
    <ele>72.7</ele>
    <time>2026-08-14T01:07:26Z</time>
   </trkpt>
   <trkpt lat="37.2127440" lon="127.1082660">
    <ele>72.7</ele>
    <time>2026-08-14T01:07:27Z</time>
   </trkpt>
   <trkpt lat="37.2127540" lon="127.1082690">
    <ele>72.7</ele>
    <time>2026-08-14T01:07:28Z</time>
   </trkpt>
   <trkpt lat="37.2127640" lon="127.1082840">
    <ele>72.8</ele>
    <time>2026-08-14T01:07:29Z</time>
   </trkpt>
   <trkpt lat="37.2127730" lon="127.1082910">
    <ele>72.8</ele>
    <time>2026-08-14T01:07:30Z</time>
   </trkpt>
   <trkpt lat="37.2127740" lon="127.1082970">
    <ele>72.9</ele>
    <time>2026-08-14T01:07:31Z</time>
   </trkpt>
  </trkseg>
 </trk>
</gpx>
