<?xml version="1.0" encoding="UTF-8"?>
<gpx creator="StravaGPX" version="1.1" xmlns="http://www.topografix.com/GPX/1/1" xmlns:xsi="http://www.w3.org/2001/XMLSchema-instance" xsi:schemaLocation="http://www.topografix.com/GPX/1/1 http://www.topografix.com/GPX/1/1/gpx.xsd">
 <metadata>
  <time>2026-08-14T00:38:38Z</time>
 </metadata>
 <trk>
  <name>윤예진_평지_6회차</name>
  <type>walking</type>
  <trkseg>
   <trkpt lat="37.2067320" lon="127.1049910">
    <ele>57.1</ele>
    <time>2026-08-14T00:38:38Z</time>
   </trkpt>
   <trkpt lat="37.2067320" lon="127.1049910">
    <ele>57.1</ele>
    <time>2026-08-14T00:38:39Z</time>
   </trkpt>
   <trkpt lat="37.2067300" lon="127.1049970">
    <ele>57.1</ele>
    <time>2026-08-14T00:38:40Z</time>
   </trkpt>
   <trkpt lat="37.2067310" lon="127.1049990">
    <ele>57.1</ele>
    <time>2026-08-14T00:38:41Z</time>
   </trkpt>
   <trkpt lat="37.2067290" lon="127.1050030">
    <ele>57.1</ele>
    <time>2026-08-14T00:38:42Z</time>
   </trkpt>
   <trkpt lat="37.2067240" lon="127.1050160">
    <ele>57.1</ele>
    <time>2026-08-14T00:38:43Z</time>
   </trkpt>
   <trkpt lat="37.2067240" lon="127.1050270">
    <ele>57.1</ele>
    <time>2026-08-14T00:38:44Z</time>
   </trkpt>
   <trkpt lat="37.2067270" lon="127.1050400">
    <ele>57.2</ele>
    <time>2026-08-14T00:38:45Z</time>
   </trkpt>
   <trkpt lat="37.2067230" lon="127.1050640">
    <ele>57.2</ele>
    <time>2026-08-14T00:38:46Z</time>
   </trkpt>
   <trkpt lat="37.2067280" lon="127.1050780">
    <ele>57.2</ele>
    <time>2026-08-14T00:38:47Z</time>
   </trkpt>
   <trkpt lat="37.2067370" lon="127.1050870">
    <ele>57.3</ele>
    <time>2026-08-14T00:38:48Z</time>
   </trkpt>
   <trkpt lat="37.2067430" lon="127.1050970">
    <ele>57.3</ele>
    <time>2026-08-14T00:38:49Z</time>
   </trkpt>
   <trkpt lat="37.2067530" lon="127.1051070">
    <ele>57.3</ele>
    <time>2026-08-14T00:38:50Z</time>
   </trkpt>
   <trkpt lat="37.2067630" lon="127.1051160">
    <ele>57.4</ele>
    <time>2026-08-14T00:38:51Z</time>
   </trkpt>
   <trkpt lat="37.2067720" lon="127.1051150">
    <ele>57.4</ele>
    <time>2026-08-14T00:38:52Z</time>
   </trkpt>
   <trkpt lat="37.2067910" lon="127.1051340">
    <ele>57.4</ele>
    <time>2026-08-14T00:38:53Z</time>
   </trkpt>
   <trkpt lat="37.2068000" lon="127.1051430">
    <ele>57.5</ele>
    <time>2026-08-14T00:38:54Z</time>
   </trkpt>
   <trkpt lat="37.2068110" lon="127.1051510">
    <ele>57.5</ele>
    <time>2026-08-14T00:38:55Z</time>
   </trkpt>
   <trkpt lat="37.2068190" lon="127.1051580">
    <ele>57.5</ele>
    <time>2026-08-14T00:38:56Z</time>
   </trkpt>
   <trkpt lat="37.2068270" lon="127.1051680">
    <ele>57.5</ele>
    <time>2026-08-14T00:38:57Z</time>
   </trkpt>
   <trkpt lat="37.2068360" lon="127.1051750">
    <ele>57.6</ele>
    <time>2026-08-14T00:38:58Z</time>
   </trkpt>
   <trkpt lat="37.2068460" lon="127.1051850">
    <ele>57.6</ele>
    <time>2026-08-14T00:38:59Z</time>
   </trkpt>
   <trkpt lat="37.2068570" lon="127.1051940">
    <ele>57.6</ele>
    <time>2026-08-14T00:39:00Z</time>
   </trkpt>
   <trkpt lat="37.2068650" lon="127.1052050">
    <ele>57.6</ele>
    <time>2026-08-14T00:39:01Z</time>
   </trkpt>
   <trkpt lat="37.2068750" lon="127.1052210">
    <ele>57.7</ele>
    <time>2026-08-14T00:39:02Z</time>
   </trkpt>
   <trkpt lat="37.2068830" lon="127.1052300">
    <ele>57.7</ele>
    <time>2026-08-14T00:39:03Z</time>
   </trkpt>
   <trkpt lat="37.2068930" lon="127.1052460">
    <ele>57.7</ele>
    <time>2026-08-14T00:39:04Z</time>
   </trkpt>
   <trkpt lat="37.2069020" lon="127.1052540">
    <ele>57.8</ele>
    <time>2026-08-14T00:39:05Z</time>
   </trkpt>
   <trkpt lat="37.2069090" lon="127.1052710">
    <ele>57.8</ele>
    <time>2026-08-14T00:39:06Z</time>
   </trkpt>
   <trkpt lat="37.2069190" lon="127.1052860">
    <ele>57.8</ele>
    <time>2026-08-14T00:39:07Z</time>
   </trkpt>
   <trkpt lat="37.2069260" lon="127.1052970">
    <ele>57.8</ele>
    <time>2026-08-14T00:39:08Z</time>
   </trkpt>
   <trkpt lat="37.2069350" lon="127.1053130">
    <ele>57.9</ele>
    <time>2026-08-14T00:39:09Z</time>
   </trkpt>
   <trkpt lat="37.2069470" lon="127.1053350">
    <ele>57.9</ele>
    <time>2026-08-14T00:39:10Z</time>
   </trkpt>
   <trkpt lat="37.2069520" lon="127.1053530">
    <ele>58.0</ele>
    <time>2026-08-14T00:39:11Z</time>
   </trkpt>
   <trkpt lat="37.2069600" lon="127.1053660">
    <ele>58.0</ele>
    <time>2026-08-14T00:39:12Z</time>
   </trkpt>
   <trkpt lat="37.2069680" lon="127.1053770">
    <ele>58.0</ele>
    <time>2026-08-14T00:39:13Z</time>
   </trkpt>
   <trkpt lat="37.2069820" lon="127.1053870">
    <ele>58.0</ele>
    <time>2026-08-14T00:39:14Z</time>
   </trkpt>
   <trkpt lat="37.2069930" lon="127.1053990">
    <ele>58.1</ele>
    <time>2026-08-14T00:39:15Z</time>
   </trkpt>
   <trkpt lat="37.2070010" lon="127.1054100">
    <ele>58.1</ele>
    <time>2026-08-14T00:39:16Z</time>
   </trkpt>
   <trkpt lat="37.2070100" lon="127.1054190">
    <ele>58.1</ele>
    <time>2026-08-14T00:39:17Z</time>
   </trkpt>
   <trkpt lat="37.2070170" lon="127.1054280">
    <ele>58.1</ele>
    <time>2026-08-14T00:39:18Z</time>
   </trkpt>
   <trkpt lat="37.2070260" lon="127.1054410">
    <ele>58.2</ele>
    <time>2026-08-14T00:39:19Z</time>
   </trkpt>
   <trkpt lat="37.2070330" lon="127.1054520">
    <ele>58.2</ele>
    <time>2026-08-14T00:39:20Z</time>
   </trkpt>
   <trkpt lat="37.2070400" lon="127.1054670">
    <ele>58.2</ele>
    <time>2026-08-14T00:39:21Z</time>
   </trkpt>
   <trkpt lat="37.2070460" lon="127.1054810">
    <ele>58.3</ele>
    <time>2026-08-14T00:39:22Z</time>
   </trkpt>
   <trkpt lat="37.2070510" lon="127.1054910">
    <ele>58.3</ele>
    <time>2026-08-14T00:39:23Z</time>
   </trkpt>
   <trkpt lat="37.2070590" lon="127.1055010">
    <ele>58.3</ele>
    <time>2026-08-14T00:39:24Z</time>
   </trkpt>
   <trkpt lat="37.2070700" lon="127.1055130">
    <ele>58.4</ele>
    <time>2026-08-14T00:39:25Z</time>
   </trkpt>
   <trkpt lat="37.2070710" lon="127.1055200">
    <ele>58.4</ele>
    <time>2026-08-14T00:39:26Z</time>
   </trkpt>
   <trkpt lat="37.2070720" lon="127.1055370">
    <ele>58.4</ele>
    <time>2026-08-14T00:39:27Z</time>
   </trkpt>
   <trkpt lat="37.2070720" lon="127.1055520">
    <ele>58.4</ele>
    <time>2026-08-14T00:39:28Z</time>
   </trkpt>
   <trkpt lat="37.2070750" lon="127.1055670">
    <ele>58.5</ele>
    <time>2026-08-14T00:39:29Z</time>
   </trkpt>
   <trkpt lat="37.2070740" lon="127.1055850">
    <ele>58.5</ele>
    <time>2026-08-14T00:39:30Z</time>
   </trkpt>
   <trkpt lat="37.2070730" lon="127.1055950">
    <ele>58.5</ele>
    <time>2026-08-14T00:39:31Z</time>
   </trkpt>
   <trkpt lat="37.2070700" lon="127.1056130">
    <ele>58.6</ele>
    <time>2026-08-14T00:39:32Z</time>
   </trkpt>
   <trkpt lat="37.2070740" lon="127.1056250">
    <ele>58.6</ele>
    <time>2026-08-14T00:39:33Z</time>
   </trkpt>
   <trkpt lat="37.2070790" lon="127.1056420">
    <ele>58.6</ele>
    <time>2026-08-14T00:39:34Z</time>
   </trkpt>
   <trkpt lat="37.2070790" lon="127.1056570">
    <ele>58.7</ele>
    <time>2026-08-14T00:39:35Z</time>
   </trkpt>
   <trkpt lat="37.2070850" lon="127.1056690">
    <ele>58.7</ele>
    <time>2026-08-14T00:39:36Z</time>
   </trkpt>
   <trkpt lat="37.2070890" lon="127.1056900">
    <ele>58.7</ele>
    <time>2026-08-14T00:39:37Z</time>
   </trkpt>
   <trkpt lat="37.2070860" lon="127.1057040">
    <ele>58.8</ele>
    <time>2026-08-14T00:39:38Z</time>
   </trkpt>
   <trkpt lat="37.2070850" lon="127.1057150">
    <ele>58.8</ele>
    <time>2026-08-14T00:39:39Z</time>
   </trkpt>
   <trkpt lat="37.2070840" lon="127.1057260">
    <ele>58.8</ele>
    <time>2026-08-14T00:39:40Z</time>
   </trkpt>
   <trkpt lat="37.2070840" lon="127.1057430">
    <ele>58.9</ele>
    <time>2026-08-14T00:39:41Z</time>
   </trkpt>
   <trkpt lat="37.2070890" lon="127.1057580">
    <ele>58.9</ele>
    <time>2026-08-14T00:39:42Z</time>
   </trkpt>
   <trkpt lat="37.2070900" lon="127.1057780">
    <ele>58.9</ele>
    <time>2026-08-14T00:39:43Z</time>
   </trkpt>
   <trkpt lat="37.2070950" lon="127.1057830">
    <ele>59.0</ele>
    <time>2026-08-14T00:39:44Z</time>
   </trkpt>
   <trkpt lat="37.2070960" lon="127.1058040">
    <ele>59.0</ele>
    <time>2026-08-14T00:39:45Z</time>
   </trkpt>
   <trkpt lat="37.2070990" lon="127.1058190">
    <ele>59.0</ele>
    <time>2026-08-14T00:39:46Z</time>
   </trkpt>
   <trkpt lat="37.2070920" lon="127.1058350">
    <ele>59.1</ele>
    <time>2026-08-14T00:39:47Z</time>
   </trkpt>
   <trkpt lat="37.2070960" lon="127.1058540">
    <ele>59.1</ele>
    <time>2026-08-14T00:39:48Z</time>
   </trkpt>
   <trkpt lat="37.2070910" lon="127.1058690">
    <ele>59.2</ele>
    <time>2026-08-14T00:39:49Z</time>
   </trkpt>
   <trkpt lat="37.2070920" lon="127.1058790">
    <ele>59.2</ele>
    <time>2026-08-14T00:39:50Z</time>
   </trkpt>
   <trkpt lat="37.2070930" lon="127.1058960">
    <ele>59.2</ele>
    <time>2026-08-14T00:39:51Z</time>
   </trkpt>
   <trkpt lat="37.2070890" lon="127.1058980">
    <ele>59.2</ele>
    <time>2026-08-14T00:39:52Z</time>
   </trkpt>
   <trkpt lat="37.2070930" lon="127.1059020">
    <ele>59.3</ele>
    <time>2026-08-14T00:39:53Z</time>
   </trkpt>
   <trkpt lat="37.2070950" lon="127.1059240">
    <ele>59.3</ele>
    <time>2026-08-14T00:39:54Z</time>
   </trkpt>
   <trkpt lat="37.2070960" lon="127.1059460">
    <ele>59.3</ele>
    <time>2026-08-14T00:39:55Z</time>
   </trkpt>
   <trkpt lat="37.2070970" lon="127.1059530">
    <ele>59.4</ele>
    <time>2026-08-14T00:39:56Z</time>
   </trkpt>
   <trkpt lat="37.2070970" lon="127.1059730">
    <ele>59.4</ele>
    <time>2026-08-14T00:39:57Z</time>
   </trkpt>
   <trkpt lat="37.2070980" lon="127.1059940">
    <ele>59.4</ele>
    <time>2026-08-14T00:39:58Z</time>
   </trkpt>
   <trkpt lat="37.2070960" lon="127.1060160">
    <ele>59.5</ele>
    <time>2026-08-14T00:39:59Z</time>
   </trkpt>
   <trkpt lat="37.2070910" lon="127.1060400">
    <ele>59.5</ele>
    <time>2026-08-14T00:40:00Z</time>
   </trkpt>
   <trkpt lat="37.2070890" lon="127.1060570">
    <ele>59.6</ele>
    <time>2026-08-14T00:40:01Z</time>
   </trkpt>
   <trkpt lat="37.2070870" lon="127.1060760">
    <ele>59.6</ele>
    <time>2026-08-14T00:40:02Z</time>
   </trkpt>
   <trkpt lat="37.2070910" lon="127.1060890">
    <ele>59.6</ele>
    <time>2026-08-14T00:40:03Z</time>
   </trkpt>
   <trkpt lat="37.2070890" lon="127.1061040">
    <ele>59.7</ele>
    <time>2026-08-14T00:40:04Z</time>
   </trkpt>
   <trkpt lat="37.2070970" lon="127.1061150">
    <ele>59.7</ele>
    <time>2026-08-14T00:40:05Z</time>
   </trkpt>
   <trkpt lat="37.2070870" lon="127.1061260">
    <ele>59.7</ele>
    <time>2026-08-14T00:40:06Z</time>
   </trkpt>
   <trkpt lat="37.2070890" lon="127.1061390">
    <ele>59.8</ele>
    <time>2026-08-14T00:40:07Z</time>
   </trkpt>
   <trkpt lat="37.2070980" lon="127.1061540">
    <ele>59.8</ele>
    <time>2026-08-14T00:40:08Z</time>
   </trkpt>
   <trkpt lat="37.2071030" lon="127.1061630">
    <ele>59.8</ele>
    <time>2026-08-14T00:40:09Z</time>
   </trkpt>
   <trkpt lat="37.2071160" lon="127.1061740">
    <ele>59.9</ele>
    <time>2026-08-14T00:40:10Z</time>
   </trkpt>
   <trkpt lat="37.2071270" lon="127.1061930">
    <ele>59.9</ele>
    <time>2026-08-14T00:40:11Z</time>
   </trkpt>
   <trkpt lat="37.2071380" lon="127.1062030">
    <ele>59.9</ele>
    <time>2026-08-14T00:40:12Z</time>
   </trkpt>
   <trkpt lat="37.2071530" lon="127.1062190">
    <ele>60.0</ele>
    <time>2026-08-14T00:40:13Z</time>
   </trkpt>
   <trkpt lat="37.2071720" lon="127.1062240">
    <ele>60.0</ele>
    <time>2026-08-14T00:40:14Z</time>
   </trkpt>
   <trkpt lat="37.2071940" lon="127.1062290">
    <ele>60.1</ele>
    <time>2026-08-14T00:40:15Z</time>
   </trkpt>
   <trkpt lat="37.2072110" lon="127.1062390">
    <ele>60.1</ele>
    <time>2026-08-14T00:40:16Z</time>
   </trkpt>
   <trkpt lat="37.2072270" lon="127.1062480">
    <ele>60.2</ele>
    <time>2026-08-14T00:40:17Z</time>
   </trkpt>
   <trkpt lat="37.2072370" lon="127.1062550">
    <ele>60.2</ele>
    <time>2026-08-14T00:40:18Z</time>
   </trkpt>
   <trkpt lat="37.2072450" lon="127.1062650">
    <ele>60.2</ele>
    <time>2026-08-14T00:40:19Z</time>
   </trkpt>
   <trkpt lat="37.2072530" lon="127.1062730">
    <ele>60.2</ele>
    <time>2026-08-14T00:40:20Z</time>
   </trkpt>
   <trkpt lat="37.2072690" lon="127.1062890">
    <ele>60.3</ele>
    <time>2026-08-14T00:40:21Z</time>
   </trkpt>
   <trkpt lat="37.2072760" lon="127.1062960">
    <ele>60.3</ele>
    <time>2026-08-14T00:40:22Z</time>
   </trkpt>
   <trkpt lat="37.2072890" lon="127.1063050">
    <ele>60.3</ele>
    <time>2026-08-14T00:40:23Z</time>
   </trkpt>
   <trkpt lat="37.2073070" lon="127.1063160">
    <ele>60.4</ele>
    <time>2026-08-14T00:40:24Z</time>
   </trkpt>
   <trkpt lat="37.2073070" lon="127.1063180">
    <ele>60.4</ele>
    <time>2026-08-14T00:40:25Z</time>
   </trkpt>
   <trkpt lat="37.2073150" lon="127.1063260">
    <ele>60.4</ele>
    <time>2026-08-14T00:40:26Z</time>
   </trkpt>
   <trkpt lat="37.2073250" lon="127.1063440">
    <ele>60.4</ele>
    <time>2026-08-14T00:40:27Z</time>
   </trkpt>
   <trkpt lat="37.2073360" lon="127.1063530">
    <ele>60.5</ele>
    <time>2026-08-14T00:40:28Z</time>
   </trkpt>
   <trkpt lat="37.2073480" lon="127.1063720">
    <ele>60.5</ele>
    <time>2026-08-14T00:40:29Z</time>
   </trkpt>
   <trkpt lat="37.2073550" lon="127.1063850">
    <ele>60.5</ele>
    <time>2026-08-14T00:40:30Z</time>
   </trkpt>
   <trkpt lat="37.2073610" lon="127.1064000">
    <ele>60.6</ele>
    <time>2026-08-14T00:40:31Z</time>
   </trkpt>
   <trkpt lat="37.2073660" lon="127.1064010">
    <ele>60.6</ele>
    <time>2026-08-14T00:40:32Z</time>
   </trkpt>
   <trkpt lat="37.2073730" lon="127.1064150">
    <ele>60.6</ele>
    <time>2026-08-14T00:40:33Z</time>
   </trkpt>
   <trkpt lat="37.2073850" lon="127.1064350">
    <ele>60.7</ele>
    <time>2026-08-14T00:40:34Z</time>
   </trkpt>
   <trkpt lat="37.2073930" lon="127.1064490">
    <ele>60.7</ele>
    <time>2026-08-14T00:40:35Z</time>
   </trkpt>
   <trkpt lat="37.2073980" lon="127.1064660">
    <ele>60.7</ele>
    <time>2026-08-14T00:40:36Z</time>
   </trkpt>
   <trkpt lat="37.2074030" lon="127.1064810">
    <ele>60.8</ele>
    <time>2026-08-14T00:40:37Z</time>
   </trkpt>
   <trkpt lat="37.2074090" lon="127.1064930">
    <ele>60.8</ele>
    <time>2026-08-14T00:40:38Z</time>
   </trkpt>
   <trkpt lat="37.2074110" lon="127.1065000">
    <ele>60.8</ele>
    <time>2026-08-14T00:40:39Z</time>
   </trkpt>
   <trkpt lat="37.2074180" lon="127.1065150">
    <ele>60.8</ele>
    <time>2026-08-14T00:40:40Z</time>
   </trkpt>
   <trkpt lat="37.2074320" lon="127.1065340">
    <ele>60.9</ele>
    <time>2026-08-14T00:40:41Z</time>
   </trkpt>
   <trkpt lat="37.2074430" lon="127.1065530">
    <ele>60.9</ele>
    <time>2026-08-14T00:40:42Z</time>
   </trkpt>
   <trkpt lat="37.2074500" lon="127.1065690">
    <ele>61.0</ele>
    <time>2026-08-14T00:40:43Z</time>
   </trkpt>
   <trkpt lat="37.2074570" lon="127.1065880">
    <ele>61.0</ele>
    <time>2026-08-14T00:40:44Z</time>
   </trkpt>
   <trkpt lat="37.2074590" lon="127.1066080">
    <ele>61.0</ele>
    <time>2026-08-14T00:40:45Z</time>
   </trkpt>
   <trkpt lat="37.2074630" lon="127.1066230">
    <ele>61.1</ele>
    <time>2026-08-14T00:40:46Z</time>
   </trkpt>
   <trkpt lat="37.2074680" lon="127.1066310">
    <ele>61.1</ele>
    <time>2026-08-14T00:40:47Z</time>
   </trkpt>
   <trkpt lat="37.2074740" lon="127.1066450">
    <ele>61.1</ele>
    <time>2026-08-14T00:40:48Z</time>
   </trkpt>
   <trkpt lat="37.2074770" lon="127.1066700">
    <ele>61.2</ele>
    <time>2026-08-14T00:40:49Z</time>
   </trkpt>
   <trkpt lat="37.2074780" lon="127.1066840">
    <ele>61.2</ele>
    <time>2026-08-14T00:40:50Z</time>
   </trkpt>
   <trkpt lat="37.2074830" lon="127.1067050">
    <ele>61.3</ele>
    <time>2026-08-14T00:40:51Z</time>
   </trkpt>
   <trkpt lat="37.2074860" lon="127.1067230">
    <ele>61.3</ele>
    <time>2026-08-14T00:40:52Z</time>
   </trkpt>
   <trkpt lat="37.2074890" lon="127.1067280">
    <ele>61.3</ele>
    <time>2026-08-14T00:40:53Z</time>
   </trkpt>
   <trkpt lat="37.2074940" lon="127.1067360">
    <ele>61.3</ele>
    <time>2026-08-14T00:40:54Z</time>
   </trkpt>
   <trkpt lat="37.2075020" lon="127.1067580">
    <ele>61.4</ele>
    <time>2026-08-14T00:40:55Z</time>
   </trkpt>
   <trkpt lat="37.2075030" lon="127.1067760">
    <ele>61.4</ele>
    <time>2026-08-14T00:40:56Z</time>
   </trkpt>
   <trkpt lat="37.2075060" lon="127.1067940">
    <ele>61.5</ele>
    <time>2026-08-14T00:40:57Z</time>
   </trkpt>
   <trkpt lat="37.2075140" lon="127.1068040">
    <ele>61.5</ele>
    <time>2026-08-14T00:40:58Z</time>
   </trkpt>
   <trkpt lat="37.2075220" lon="127.1068170">
    <ele>61.5</ele>
    <time>2026-08-14T00:40:59Z</time>
   </trkpt>
   <trkpt lat="37.2075260" lon="127.1068330">
    <ele>61.6</ele>
    <time>2026-08-14T00:41:00Z</time>
   </trkpt>
   <trkpt lat="37.2075290" lon="127.1068520">
    <ele>61.6</ele>
    <time>2026-08-14T00:41:01Z</time>
   </trkpt>
   <trkpt lat="37.2075320" lon="127.1068690">
    <ele>61.7</ele>
    <time>2026-08-14T00:41:02Z</time>
   </trkpt>
   <trkpt lat="37.2075360" lon="127.1068840">
    <ele>61.7</ele>
    <time>2026-08-14T00:41:03Z</time>
   </trkpt>
   <trkpt lat="37.2075400" lon="127.1068930">
    <ele>61.7</ele>
    <time>2026-08-14T00:41:04Z</time>
   </trkpt>
   <trkpt lat="37.2075440" lon="127.1069080">
    <ele>61.8</ele>
    <time>2026-08-14T00:41:05Z</time>
   </trkpt>
   <trkpt lat="37.2075440" lon="127.1069200">
    <ele>61.8</ele>
    <time>2026-08-14T00:41:06Z</time>
   </trkpt>
   <trkpt lat="37.2075520" lon="127.1069340">
    <ele>61.8</ele>
    <time>2026-08-14T00:41:07Z</time>
   </trkpt>
   <trkpt lat="37.2075500" lon="127.1069410">
    <ele>61.9</ele>
    <time>2026-08-14T00:41:08Z</time>
   </trkpt>
   <trkpt lat="37.2075550" lon="127.1069590">
    <ele>61.9</ele>
    <time>2026-08-14T00:41:09Z</time>
   </trkpt>
   <trkpt lat="37.2075610" lon="127.1069820">
    <ele>62.0</ele>
    <time>2026-08-14T00:41:10Z</time>
   </trkpt>
   <trkpt lat="37.2075620" lon="127.1069950">
    <ele>62.0</ele>
    <time>2026-08-14T00:41:11Z</time>
   </trkpt>
   <trkpt lat="37.2075650" lon="127.1070160">
    <ele>62.0</ele>
    <time>2026-08-14T00:41:12Z</time>
   </trkpt>
   <trkpt lat="37.2075690" lon="127.1070240">
    <ele>62.1</ele>
    <time>2026-08-14T00:41:13Z</time>
   </trkpt>
   <trkpt lat="37.2075730" lon="127.1070480">
    <ele>62.1</ele>
    <time>2026-08-14T00:41:14Z</time>
   </trkpt>
   <trkpt lat="37.2075720" lon="127.1070640">
    <ele>62.2</ele>
    <time>2026-08-14T00:41:15Z</time>
   </trkpt>
   <trkpt lat="37.2075740" lon="127.1070820">
    <ele>62.2</ele>
    <time>2026-08-14T00:41:16Z</time>
   </trkpt>
   <trkpt lat="37.2075760" lon="127.1070900">
    <ele>62.2</ele>
    <time>2026-08-14T00:41:17Z</time>
   </trkpt>
   <trkpt lat="37.2075850" lon="127.1071040">
    <ele>62.3</ele>
    <time>2026-08-14T00:41:18Z</time>
   </trkpt>
   <trkpt lat="37.2075890" lon="127.1071240">
    <ele>62.3</ele>
    <time>2026-08-14T00:41:19Z</time>
   </trkpt>
   <trkpt lat="37.2075950" lon="127.1071360">
    <ele>62.4</ele>
    <time>2026-08-14T00:41:20Z</time>
   </trkpt>
   <trkpt lat="37.2075970" lon="127.1071440">
    <ele>62.4</ele>
    <time>2026-08-14T00:41:21Z</time>
   </trkpt>
   <trkpt lat="37.2075980" lon="127.1071550">
    <ele>62.4</ele>
    <time>2026-08-14T00:41:22Z</time>
   </trkpt>
   <trkpt lat="37.2076020" lon="127.1071740">
    <ele>62.5</ele>
    <time>2026-08-14T00:41:23Z</time>
   </trkpt>
   <trkpt lat="37.2076070" lon="127.1071940">
    <ele>62.6</ele>
    <time>2026-08-14T00:41:24Z</time>
   </trkpt>
   <trkpt lat="37.2076060" lon="127.1072090">
    <ele>62.6</ele>
    <time>2026-08-14T00:41:25Z</time>
   </trkpt>
   <trkpt lat="37.2076100" lon="127.1072270">
    <ele>62.7</ele>
    <time>2026-08-14T00:41:26Z</time>
   </trkpt>
   <trkpt lat="37.2076150" lon="127.1072470">
    <ele>62.7</ele>
    <time>2026-08-14T00:41:27Z</time>
   </trkpt>
   <trkpt lat="37.2076190" lon="127.1072610">
    <ele>62.8</ele>
    <time>2026-08-14T00:41:28Z</time>
   </trkpt>
   <trkpt lat="37.2076200" lon="127.1072790">
    <ele>62.8</ele>
    <time>2026-08-14T00:41:29Z</time>
   </trkpt>
   <trkpt lat="37.2076240" lon="127.1072770">
    <ele>62.9</ele>
    <time>2026-08-14T00:41:30Z</time>
   </trkpt>
   <trkpt lat="37.2076260" lon="127.1072770">
    <ele>62.9</ele>
    <time>2026-08-14T00:41:31Z</time>
   </trkpt>
   <trkpt lat="37.2076260" lon="127.1072770">
    <ele>62.9</ele>
    <time>2026-08-14T00:41:32Z</time>
   </trkpt>
  </trkseg>
 </trk>
</gpx>
