<?xml version="1.0" encoding="UTF-8"?>
<gpx creator="StravaGPX" version="1.1" xmlns="http://www.topografix.com/GPX/1/1" xmlns:xsi="http://www.w3.org/2001/XMLSchema-instance" xsi:schemaLocation="http://www.topografix.com/GPX/1/1 http://www.topografix.com/GPX/1/1/gpx.xsd">
 <metadata>
  <time>2026-08-14T00:32:20Z</time>
 </metadata>
 <trk>
  <name>윤예진_평지_5회차</name>
  <type>walking</type>
  <trkseg>
   <trkpt lat="37.2066570" lon="127.1051810">
    <ele>57.5</ele>
    <time>2026-08-14T00:32:20Z</time>
   </trkpt>
   <trkpt lat="37.2066980" lon="127.1051770">
    <ele>57.6</ele>
    <time>2026-08-14T00:32:21Z</time>
   </trkpt>
   <trkpt lat="37.2066980" lon="127.1051770">
    <ele>57.6</ele>
    <time>2026-08-14T00:32:23Z</time>
   </trkpt>
   <trkpt lat="37.2067360" lon="127.1050460">
    <ele>57.8</ele>
    <time>2026-08-14T00:32:24Z</time>
   </trkpt>
   <trkpt lat="37.2067490" lon="127.1050870">
    <ele>57.8</ele>
    <time>2026-08-14T00:32:26Z</time>
   </trkpt>
   <trkpt lat="37.2067490" lon="127.1050900">
    <ele>57.8</ele>
    <time>2026-08-14T00:32:28Z</time>
   </trkpt>
   <trkpt lat="37.2067580" lon="127.1050920">
    <ele>57.9</ele>
    <time>2026-08-14T00:32:29Z</time>
   </trkpt>
   <trkpt lat="37.2067610" lon="127.1051100">
    <ele>57.9</ele>
    <time>2026-08-14T00:32:30Z</time>
   </trkpt>
   <trkpt lat="37.2067690" lon="127.1051240">
    <ele>57.9</ele>
    <time>2026-08-14T00:32:31Z</time>
   </trkpt>
   <trkpt lat="37.2067790" lon="127.1051350">
    <ele>57.9</ele>
    <time>2026-08-14T00:32:32Z</time>
   </trkpt>
   <trkpt lat="37.2067860" lon="127.1051470">
    <ele>58.0</ele>
    <time>2026-08-14T00:32:33Z</time>
   </trkpt>
   <trkpt lat="37.2067920" lon="127.1051620">
    <ele>58.0</ele>
    <time>2026-08-14T00:32:34Z</time>
   </trkpt>
   <trkpt lat="37.2067990" lon="127.1051750">
    <ele>58.0</ele>
    <time>2026-08-14T00:32:35Z</time>
   </trkpt>
   <trkpt lat="37.2068070" lon="127.1051850">
    <ele>58.0</ele>
    <time>2026-08-14T00:32:36Z</time>
   </trkpt>
   <trkpt lat="37.2068030" lon="127.1051720">
    <ele>58.0</ele>
    <time>2026-08-14T00:32:37Z</time>
   </trkpt>
   <trkpt lat="37.2068310" lon="127.1051990">
    <ele>58.1</ele>
    <time>2026-08-14T00:32:38Z</time>
   </trkpt>
   <trkpt lat="37.2068480" lon="127.1051440">
    <ele>58.2</ele>
    <time>2026-08-14T00:32:39Z</time>
   </trkpt>
   <trkpt lat="37.2068540" lon="127.1051620">
    <ele>58.2</ele>
    <time>2026-08-14T00:32:40Z</time>
   </trkpt>
   <trkpt lat="37.2068590" lon="127.1051820">
    <ele>58.3</ele>
    <time>2026-08-14T00:32:41Z</time>
   </trkpt>
   <trkpt lat="37.2068730" lon="127.1051950">
    <ele>58.3</ele>
    <time>2026-08-14T00:32:42Z</time>
   </trkpt>
   <trkpt lat="37.2068800" lon="127.1052150">
    <ele>58.3</ele>
    <time>2026-08-14T00:32:43Z</time>
   </trkpt>
   <trkpt lat="37.2068900" lon="127.1052280">
    <ele>58.4</ele>
    <time>2026-08-14T00:32:44Z</time>
   </trkpt>
   <trkpt lat="37.2068970" lon="127.1052490">
    <ele>58.4</ele>
    <time>2026-08-14T00:32:45Z</time>
   </trkpt>
   <trkpt lat="37.2069080" lon="127.1052620">
    <ele>58.4</ele>
    <time>2026-08-14T00:32:46Z</time>
   </trkpt>
   <trkpt lat="37.2069180" lon="127.1052670">
    <ele>58.5</ele>
    <time>2026-08-14T00:32:47Z</time>
   </trkpt>
   <trkpt lat="37.2069400" lon="127.1052960">
    <ele>58.5</ele>
    <time>2026-08-14T00:32:48Z</time>
   </trkpt>
   <trkpt lat="37.2069480" lon="127.1053100">
    <ele>58.6</ele>
    <time>2026-08-14T00:32:49Z</time>
   </trkpt>
   <trkpt lat="37.2069630" lon="127.1053190">
    <ele>58.6</ele>
    <time>2026-08-14T00:32:51Z</time>
   </trkpt>
   <trkpt lat="37.2069700" lon="127.1053400">
    <ele>58.6</ele>
    <time>2026-08-14T00:32:52Z</time>
   </trkpt>
   <trkpt lat="37.2069820" lon="127.1053470">
    <ele>58.7</ele>
    <time>2026-08-14T00:32:53Z</time>
   </trkpt>
   <trkpt lat="37.2069860" lon="127.1053650">
    <ele>58.7</ele>
    <time>2026-08-14T00:32:54Z</time>
   </trkpt>
   <trkpt lat="37.2069970" lon="127.1053780">
    <ele>58.7</ele>
    <time>2026-08-14T00:32:55Z</time>
   </trkpt>
   <trkpt lat="37.2070070" lon="127.1053920">
    <ele>58.8</ele>
    <time>2026-08-14T00:32:56Z</time>
   </trkpt>
   <trkpt lat="37.2070110" lon="127.1054050">
    <ele>58.8</ele>
    <time>2026-08-14T00:32:57Z</time>
   </trkpt>
   <trkpt lat="37.2070130" lon="127.1054260">
    <ele>58.8</ele>
    <time>2026-08-14T00:32:58Z</time>
   </trkpt>
   <trkpt lat="37.2070170" lon="127.1054420">
    <ele>58.9</ele>
    <time>2026-08-14T00:32:59Z</time>
   </trkpt>
   <trkpt lat="37.2070190" lon="127.1054610">
    <ele>58.9</ele>
    <time>2026-08-14T00:33:00Z</time>
   </trkpt>
   <trkpt lat="37.2070280" lon="127.1054730">
    <ele>58.9</ele>
    <time>2026-08-14T00:33:01Z</time>
   </trkpt>
   <trkpt lat="37.2070380" lon="127.1054820">
    <ele>58.9</ele>
    <time>2026-08-14T00:33:02Z</time>
   </trkpt>
   <trkpt lat="37.2070490" lon="127.1055120">
    <ele>59.0</ele>
    <time>2026-08-14T00:33:03Z</time>
   </trkpt>
   <trkpt lat="37.2070590" lon="127.1055250">
    <ele>59.0</ele>
    <time>2026-08-14T00:33:05Z</time>
   </trkpt>
   <trkpt lat="37.2070640" lon="127.1055370">
    <ele>59.1</ele>
    <time>2026-08-14T00:33:06Z</time>
   </trkpt>
   <trkpt lat="37.2070640" lon="127.1055530">
    <ele>59.1</ele>
    <time>2026-08-14T00:33:07Z</time>
   </trkpt>
   <trkpt lat="37.2070570" lon="127.1055750">
    <ele>59.1</ele>
    <time>2026-08-14T00:33:08Z</time>
   </trkpt>
   <trkpt lat="37.2070630" lon="127.1055940">
    <ele>59.2</ele>
    <time>2026-08-14T00:33:09Z</time>
   </trkpt>
   <trkpt lat="37.2070570" lon="127.1056100">
    <ele>59.2</ele>
    <time>2026-08-14T00:33:10Z</time>
   </trkpt>
   <trkpt lat="37.2070730" lon="127.1056360">
    <ele>59.3</ele>
    <time>2026-08-14T00:33:11Z</time>
   </trkpt>
   <trkpt lat="37.2070700" lon="127.1056320">
    <ele>59.3</ele>
    <time>2026-08-14T00:33:13Z</time>
   </trkpt>
   <trkpt lat="37.2070720" lon="127.1056400">
    <ele>59.3</ele>
    <time>2026-08-14T00:33:14Z</time>
   </trkpt>
   <trkpt lat="37.2070740" lon="127.1056590">
    <ele>59.3</ele>
    <time>2026-08-14T00:33:15Z</time>
   </trkpt>
   <trkpt lat="37.2070770" lon="127.1056720">
    <ele>59.4</ele>
    <time>2026-08-14T00:33:16Z</time>
   </trkpt>
   <trkpt lat="37.2070750" lon="127.1056860">
    <ele>59.4</ele>
    <time>2026-08-14T00:33:17Z</time>
   </trkpt>
   <trkpt lat="37.2070780" lon="127.1057030">
    <ele>59.4</ele>
    <time>2026-08-14T00:33:18Z</time>
   </trkpt>
   <trkpt lat="37.2070780" lon="127.1057130">
    <ele>59.4</ele>
    <time>2026-08-14T00:33:19Z</time>
   </trkpt>
   <trkpt lat="37.2070770" lon="127.1057250">
    <ele>59.4</ele>
    <time>2026-08-14T00:33:20Z</time>
   </trkpt>
   <trkpt lat="37.2070750" lon="127.1057450">
    <ele>59.5</ele>
    <time>2026-08-14T00:33:21Z</time>
   </trkpt>
   <trkpt lat="37.2070730" lon="127.1057500">
    <ele>59.5</ele>
    <time>2026-08-14T00:33:22Z</time>
   </trkpt>
   <trkpt lat="37.2070780" lon="127.1057670">
    <ele>59.5</ele>
    <time>2026-08-14T00:33:24Z</time>
   </trkpt>
   <trkpt lat="37.2070840" lon="127.1057900">
    <ele>59.6</ele>
    <time>2026-08-14T00:33:25Z</time>
   </trkpt>
   <trkpt lat="37.2070900" lon="127.1058160">
    <ele>59.6</ele>
    <time>2026-08-14T00:33:26Z</time>
   </trkpt>
   <trkpt lat="37.2070880" lon="127.1058390">
    <ele>59.6</ele>
    <time>2026-08-14T00:33:27Z</time>
   </trkpt>
   <trkpt lat="37.2070970" lon="127.1058720">
    <ele>59.7</ele>
    <time>2026-08-14T00:33:28Z</time>
   </trkpt>
   <trkpt lat="37.2070890" lon="127.1058840">
    <ele>59.7</ele>
    <time>2026-08-14T00:33:30Z</time>
   </trkpt>
   <trkpt lat="37.2070870" lon="127.1058950">
    <ele>59.7</ele>
    <time>2026-08-14T00:33:31Z</time>
   </trkpt>
   <trkpt lat="37.2070890" lon="127.1059110">
    <ele>59.8</ele>
    <time>2026-08-14T00:33:32Z</time>
   </trkpt>
   <trkpt lat="37.2070860" lon="127.1059220">
    <ele>59.8</ele>
    <time>2026-08-14T00:33:33Z</time>
   </trkpt>
   <trkpt lat="37.2070820" lon="127.1059350">
    <ele>59.8</ele>
    <time>2026-08-14T00:33:34Z</time>
   </trkpt>
   <trkpt lat="37.2070750" lon="127.1059510">
    <ele>59.8</ele>
    <time>2026-08-14T00:33:35Z</time>
   </trkpt>
   <trkpt lat="37.2070760" lon="127.1059660">
    <ele>59.9</ele>
    <time>2026-08-14T00:33:36Z</time>
   </trkpt>
   <trkpt lat="37.2070800" lon="127.1059800">
    <ele>59.9</ele>
    <time>2026-08-14T00:33:37Z</time>
   </trkpt>
   <trkpt lat="37.2070670" lon="127.1060060">
    <ele>59.9</ele>
    <time>2026-08-14T00:33:38Z</time>
   </trkpt>
   <trkpt lat="37.2070700" lon="127.1060470">
    <ele>60.0</ele>
    <time>2026-08-14T00:33:39Z</time>
   </trkpt>
   <trkpt lat="37.2070740" lon="127.1060810">
    <ele>60.1</ele>
    <time>2026-08-14T00:33:41Z</time>
   </trkpt>
   <trkpt lat="37.2070740" lon="127.1060990">
    <ele>60.1</ele>
    <time>2026-08-14T00:33:42Z</time>
   </trkpt>
   <trkpt lat="37.2070740" lon="127.1061100">
    <ele>60.1</ele>
    <time>2026-08-14T00:33:43Z</time>
   </trkpt>
   <trkpt lat="37.2070800" lon="127.1061300">
    <ele>60.1</ele>
    <time>2026-08-14T00:33:45Z</time>
   </trkpt>
   <trkpt lat="37.2070840" lon="127.1061390">
    <ele>60.1</ele>
    <time>2026-08-14T00:33:46Z</time>
   </trkpt>
   <trkpt lat="37.2070920" lon="127.1061540">
    <ele>60.2</ele>
    <time>2026-08-14T00:33:47Z</time>
   </trkpt>
   <trkpt lat="37.2071000" lon="127.1061650">
    <ele>60.2</ele>
    <time>2026-08-14T00:33:48Z</time>
   </trkpt>
   <trkpt lat="37.2071110" lon="127.1061800">
    <ele>60.2</ele>
    <time>2026-08-14T00:33:49Z</time>
   </trkpt>
   <trkpt lat="37.2071390" lon="127.1062000">
    <ele>60.3</ele>
    <time>2026-08-14T00:33:50Z</time>
   </trkpt>
   <trkpt lat="37.2071530" lon="127.1062160">
    <ele>60.3</ele>
    <time>2026-08-14T00:33:52Z</time>
   </trkpt>
   <trkpt lat="37.2071670" lon="127.1062260">
    <ele>60.4</ele>
    <time>2026-08-14T00:33:53Z</time>
   </trkpt>
   <trkpt lat="37.2071780" lon="127.1062370">
    <ele>60.4</ele>
    <time>2026-08-14T00:33:54Z</time>
   </trkpt>
   <trkpt lat="37.2072180" lon="127.1062530">
    <ele>60.5</ele>
    <time>2026-08-14T00:33:55Z</time>
   </trkpt>
   <trkpt lat="37.2072340" lon="127.1062610">
    <ele>60.5</ele>
    <time>2026-08-14T00:33:56Z</time>
   </trkpt>
   <trkpt lat="37.2072460" lon="127.1062730">
    <ele>60.5</ele>
    <time>2026-08-14T00:33:58Z</time>
   </trkpt>
   <trkpt lat="37.2072570" lon="127.1062870">
    <ele>60.5</ele>
    <time>2026-08-14T00:33:59Z</time>
   </trkpt>
   <trkpt lat="37.2072740" lon="127.1062940">
    <ele>60.6</ele>
    <time>2026-08-14T00:34:00Z</time>
   </trkpt>
   <trkpt lat="37.2073010" lon="127.1063150">
    <ele>60.6</ele>
    <time>2026-08-14T00:34:01Z</time>
   </trkpt>
   <trkpt lat="37.2073120" lon="127.1063290">
    <ele>60.7</ele>
    <time>2026-08-14T00:34:02Z</time>
   </trkpt>
   <trkpt lat="37.2073210" lon="127.1063360">
    <ele>60.7</ele>
    <time>2026-08-14T00:34:04Z</time>
   </trkpt>
   <trkpt lat="37.2073320" lon="127.1063440">
    <ele>60.7</ele>
    <time>2026-08-14T00:34:05Z</time>
   </trkpt>
   <trkpt lat="37.2073330" lon="127.1063590">
    <ele>60.7</ele>
    <time>2026-08-14T00:34:06Z</time>
   </trkpt>
   <trkpt lat="37.2073380" lon="127.1063590">
    <ele>60.7</ele>
    <time>2026-08-14T00:34:07Z</time>
   </trkpt>
   <trkpt lat="37.2073470" lon="127.1063760">
    <ele>60.8</ele>
    <time>2026-08-14T00:34:08Z</time>
   </trkpt>
   <trkpt lat="37.2073590" lon="127.1063860">
    <ele>60.8</ele>
    <time>2026-08-14T00:34:09Z</time>
   </trkpt>
   <trkpt lat="37.2073650" lon="127.1063960">
    <ele>60.8</ele>
    <time>2026-08-14T00:34:10Z</time>
   </trkpt>
   <trkpt lat="37.2073610" lon="127.1064030">
    <ele>60.8</ele>
    <time>2026-08-14T00:34:11Z</time>
   </trkpt>
   <trkpt lat="37.2073800" lon="127.1064270">
    <ele>60.9</ele>
    <time>2026-08-14T00:34:12Z</time>
   </trkpt>
   <trkpt lat="37.2073940" lon="127.1064440">
    <ele>60.9</ele>
    <time>2026-08-14T00:34:13Z</time>
   </trkpt>
   <trkpt lat="37.2074000" lon="127.1064540">
    <ele>60.9</ele>
    <time>2026-08-14T00:34:15Z</time>
   </trkpt>
   <trkpt lat="37.2074090" lon="127.1064680">
    <ele>61.0</ele>
    <time>2026-08-14T00:34:16Z</time>
   </trkpt>
   <trkpt lat="37.2074140" lon="127.1064820">
    <ele>61.0</ele>
    <time>2026-08-14T00:34:17Z</time>
   </trkpt>
   <trkpt lat="37.2074220" lon="127.1064970">
    <ele>61.0</ele>
    <time>2026-08-14T00:34:18Z</time>
   </trkpt>
   <trkpt lat="37.2074290" lon="127.1065100">
    <ele>61.1</ele>
    <time>2026-08-14T00:34:19Z</time>
   </trkpt>
   <trkpt lat="37.2074380" lon="127.1065420">
    <ele>61.1</ele>
    <time>2026-08-14T00:34:20Z</time>
   </trkpt>
   <trkpt lat="37.2074390" lon="127.1065520">
    <ele>61.1</ele>
    <time>2026-08-14T00:34:21Z</time>
   </trkpt>
   <trkpt lat="37.2074490" lon="127.1065600">
    <ele>61.2</ele>
    <time>2026-08-14T00:34:23Z</time>
   </trkpt>
   <trkpt lat="37.2074610" lon="127.1065790">
    <ele>61.2</ele>
    <time>2026-08-14T00:34:24Z</time>
   </trkpt>
   <trkpt lat="37.2074630" lon="127.1065920">
    <ele>61.2</ele>
    <time>2026-08-14T00:34:25Z</time>
   </trkpt>
   <trkpt lat="37.2074630" lon="127.1066040">
    <ele>61.2</ele>
    <time>2026-08-14T00:34:26Z</time>
   </trkpt>
   <trkpt lat="37.2074700" lon="127.1066250">
    <ele>61.3</ele>
    <time>2026-08-14T00:34:27Z</time>
   </trkpt>
   <trkpt lat="37.2074780" lon="127.1066350">
    <ele>61.3</ele>
    <time>2026-08-14T00:34:28Z</time>
   </trkpt>
   <trkpt lat="37.2074780" lon="127.1066520">
    <ele>61.4</ele>
    <time>2026-08-14T00:34:29Z</time>
   </trkpt>
   <trkpt lat="37.2074770" lon="127.1066640">
    <ele>61.4</ele>
    <time>2026-08-14T00:34:30Z</time>
   </trkpt>
   <trkpt lat="37.2074840" lon="127.1066960">
    <ele>61.4</ele>
    <time>2026-08-14T00:34:31Z</time>
   </trkpt>
   <trkpt lat="37.2074860" lon="127.1067160">
    <ele>61.5</ele>
    <time>2026-08-14T00:34:32Z</time>
   </trkpt>
   <trkpt lat="37.2074840" lon="127.1067390">
    <ele>61.5</ele>
    <time>2026-08-14T00:34:33Z</time>
   </trkpt>
   <trkpt lat="37.2074860" lon="127.1067550">
    <ele>61.6</ele>
    <time>2026-08-14T00:34:34Z</time>
   </trkpt>
   <trkpt lat="37.2074940" lon="127.1067710">
    <ele>61.6</ele>
    <time>2026-08-14T00:34:35Z</time>
   </trkpt>
   <trkpt lat="37.2074970" lon="127.1067860">
    <ele>61.6</ele>
    <time>2026-08-14T00:34:36Z</time>
   </trkpt>
   <trkpt lat="37.2075010" lon="127.1067990">
    <ele>61.6</ele>
    <time>2026-08-14T00:34:37Z</time>
   </trkpt>
   <trkpt lat="37.2075040" lon="127.1068130">
    <ele>61.7</ele>
    <time>2026-08-14T00:34:38Z</time>
   </trkpt>
   <trkpt lat="37.2075070" lon="127.1068260">
    <ele>61.7</ele>
    <time>2026-08-14T00:34:39Z</time>
   </trkpt>
   <trkpt lat="37.2075090" lon="127.1068470">
    <ele>61.7</ele>
    <time>2026-08-14T00:34:40Z</time>
   </trkpt>
   <trkpt lat="37.2075130" lon="127.1068610">
    <ele>61.8</ele>
    <time>2026-08-14T00:34:41Z</time>
   </trkpt>
   <trkpt lat="37.2075170" lon="127.1068760">
    <ele>61.8</ele>
    <time>2026-08-14T00:34:42Z</time>
   </trkpt>
   <trkpt lat="37.2075180" lon="127.1068910">
    <ele>61.8</ele>
    <time>2026-08-14T00:34:43Z</time>
   </trkpt>
   <trkpt lat="37.2075220" lon="127.1069060">
    <ele>61.9</ele>
    <time>2026-08-14T00:34:44Z</time>
   </trkpt>
   <trkpt lat="37.2075270" lon="127.1069220">
    <ele>61.9</ele>
    <time>2026-08-14T00:34:45Z</time>
   </trkpt>
   <trkpt lat="37.2075300" lon="127.1069340">
    <ele>61.9</ele>
    <time>2026-08-14T00:34:46Z</time>
   </trkpt>
   <trkpt lat="37.2075330" lon="127.1069500">
    <ele>61.9</ele>
    <time>2026-08-14T00:34:47Z</time>
   </trkpt>
   <trkpt lat="37.2075340" lon="127.1069670">
    <ele>62.0</ele>
    <time>2026-08-14T00:34:48Z</time>
   </trkpt>
   <trkpt lat="37.2075380" lon="127.1069810">
    <ele>62.0</ele>
    <time>2026-08-14T00:34:49Z</time>
   </trkpt>
   <trkpt lat="37.2075450" lon="127.1069990">
    <ele>62.0</ele>
    <time>2026-08-14T00:34:50Z</time>
   </trkpt>
   <trkpt lat="37.2075470" lon="127.1070120">
    <ele>62.1</ele>
    <time>2026-08-14T00:34:51Z</time>
   </trkpt>
   <trkpt lat="37.2075520" lon="127.1070240">
    <ele>62.1</ele>
    <time>2026-08-14T00:34:52Z</time>
   </trkpt>
   <trkpt lat="37.2075540" lon="127.1070390">
    <ele>62.1</ele>
    <time>2026-08-14T00:34:53Z</time>
   </trkpt>
   <trkpt lat="37.2075580" lon="127.1070540">
    <ele>62.2</ele>
    <time>2026-08-14T00:34:54Z</time>
   </trkpt>
   <trkpt lat="37.2075650" lon="127.1070730">
    <ele>62.2</ele>
    <time>2026-08-14T00:34:55Z</time>
   </trkpt>
   <trkpt lat="37.2075670" lon="127.1070840">
    <ele>62.2</ele>
    <time>2026-08-14T00:34:56Z</time>
   </trkpt>
   <trkpt lat="37.2075710" lon="127.1070780">
    <ele>62.3</ele>
    <time>2026-08-14T00:34:57Z</time>
   </trkpt>
   <trkpt lat="37.2075750" lon="127.1070920">
    <ele>62.3</ele>
    <time>2026-08-14T00:34:58Z</time>
   </trkpt>
   <trkpt lat="37.2075820" lon="127.1071140">
    <ele>62.4</ele>
    <time>2026-08-14T00:34:59Z</time>
   </trkpt>
   <trkpt lat="37.2075830" lon="127.1071290">
    <ele>62.4</ele>
    <time>2026-08-14T00:35:00Z</time>
   </trkpt>
   <trkpt lat="37.2075880" lon="127.1071530">
    <ele>62.4</ele>
    <time>2026-08-14T00:35:01Z</time>
   </trkpt>
   <trkpt lat="37.2075870" lon="127.1071660">
    <ele>62.5</ele>
    <time>2026-08-14T00:35:02Z</time>
   </trkpt>
   <trkpt lat="37.2075900" lon="127.1071800">
    <ele>62.5</ele>
    <time>2026-08-14T00:35:03Z</time>
   </trkpt>
   <trkpt lat="37.2075980" lon="127.1071910">
    <ele>62.6</ele>
    <time>2026-08-14T00:35:04Z</time>
   </trkpt>
   <trkpt lat="37.2076060" lon="127.1072020">
    <ele>62.6</ele>
    <time>2026-08-14T00:35:05Z</time>
   </trkpt>
   <trkpt lat="37.2076080" lon="127.1072150">
    <ele>62.6</ele>
    <time>2026-08-14T00:35:06Z</time>
   </trkpt>
   <trkpt lat="37.2076110" lon="127.1072300">
    <ele>62.7</ele>
    <time>2026-08-14T00:35:07Z</time>
   </trkpt>
   <trkpt lat="37.2076110" lon="127.1072300">
    <ele>62.7</ele>
    <time>2026-08-14T00:35:08Z</time>
   </trkpt>
  </trkseg>
 </trk>
</gpx>
