<?xml version="1.0" encoding="UTF-8"?>
<gpx creator="StravaGPX" version="1.1" xmlns="http://www.topografix.com/GPX/1/1" xmlns:xsi="http://www.w3.org/2001/XMLSchema-instance" xsi:schemaLocation="http://www.topografix.com/GPX/1/1 http://www.topografix.com/GPX/1/1/gpx.xsd">
 <metadata>
  <time>2026-08-14T12:06:16Z</time>
 </metadata>
 <trk>
  <name>descending_downhill_T1</name>
  <type>walking</type>
  <trkseg>
   <trkpt lat="37.4298600" lon="127.0050220">
    <ele>80.6</ele>
    <time>2026-08-14T12:06:16Z</time>
   </trkpt>
   <trkpt lat="37.4298600" lon="127.0050220">
    <ele>80.6</ele>
    <time>2026-08-14T12:06:17Z</time>
   </trkpt>
   <trkpt lat="37.4298600" lon="127.0050210">
    <ele>80.6</ele>
    <time>2026-08-14T12:06:18Z</time>
   </trkpt>
   <trkpt lat="37.4298590" lon="127.0050140">
    <ele>80.5</ele>
    <time>2026-08-14T12:06:19Z</time>
   </trkpt>
   <trkpt lat="37.4298510" lon="127.0049990">
    <ele>80.3</ele>
    <time>2026-08-14T12:06:20Z</time>
   </trkpt>
   <trkpt lat="37.4298420" lon="127.0049780">
    <ele>80.1</ele>
    <time>2026-08-14T12:06:21Z</time>
   </trkpt>
   <trkpt lat="37.4298310" lon="127.0049580">
    <ele>79.9</ele>
    <time>2026-08-14T12:06:22Z</time>
   </trkpt>
   <trkpt lat="37.4298240" lon="127.0049360">
    <ele>79.6</ele>
    <time>2026-08-14T12:06:23Z</time>
   </trkpt>
   <trkpt lat="37.4298140" lon="127.0049210">
    <ele>79.4</ele>
    <time>2026-08-14T12:06:24Z</time>
   </trkpt>
   <trkpt lat="37.4298080" lon="127.0049110">
    <ele>79.3</ele>
    <time>2026-08-14T12:06:25Z</time>
   </trkpt>
   <trkpt lat="37.4298040" lon="127.0048980">
    <ele>79.2</ele>
    <time>2026-08-14T12:06:26Z</time>
   </trkpt>
   <trkpt lat="37.4298000" lon="127.0048820">
    <ele>79.0</ele>
    <time>2026-08-14T12:06:27Z</time>
   </trkpt>
   <trkpt lat="37.4297970" lon="127.0048690">
    <ele>78.9</ele>
    <time>2026-08-14T12:06:28Z</time>
   </trkpt>
   <trkpt lat="37.4297960" lon="127.0048580">
    <ele>78.8</ele>
    <time>2026-08-14T12:06:29Z</time>
   </trkpt>
   <trkpt lat="37.4297910" lon="127.0048360">
    <ele>78.5</ele>
    <time>2026-08-14T12:06:30Z</time>
   </trkpt>
   <trkpt lat="37.4297880" lon="127.0048240">
    <ele>78.4</ele>
    <time>2026-08-14T12:06:31Z</time>
   </trkpt>
   <trkpt lat="37.4297840" lon="127.0048120">
    <ele>78.3</ele>
    <time>2026-08-14T12:06:32Z</time>
   </trkpt>
   <trkpt lat="37.4297810" lon="127.0048020">
    <ele>78.2</ele>
    <time>2026-08-14T12:06:33Z</time>
   </trkpt>
   <trkpt lat="37.4297790" lon="127.0047840">
    <ele>78.0</ele>
    <time>2026-08-14T12:06:34Z</time>
   </trkpt>
   <trkpt lat="37.4297750" lon="127.0047720">
    <ele>77.9</ele>
    <time>2026-08-14T12:06:35Z</time>
   </trkpt>
   <trkpt lat="37.4297730" lon="127.0047510">
    <ele>77.7</ele>
    <time>2026-08-14T12:06:36Z</time>
   </trkpt>
   <trkpt lat="37.4297680" lon="127.0047320">
    <ele>77.5</ele>
    <time>2026-08-14T12:06:37Z</time>
   </trkpt>
   <trkpt lat="37.4297590" lon="127.0047150">
    <ele>77.3</ele>
    <time>2026-08-14T12:06:38Z</time>
   </trkpt>
   <trkpt lat="37.4297360" lon="127.0046820">
    <ele>76.9</ele>
    <time>2026-08-14T12:06:39Z</time>
   </trkpt>
   <trkpt lat="37.4297260" lon="127.0046680">
    <ele>76.7</ele>
    <time>2026-08-14T12:06:40Z</time>
   </trkpt>
   <trkpt lat="37.4297190" lon="127.0046550">
    <ele>76.6</ele>
    <time>2026-08-14T12:06:41Z</time>
   </trkpt>
   <trkpt lat="37.4297110" lon="127.0046360">
    <ele>76.4</ele>
    <time>2026-08-14T12:06:42Z</time>
   </trkpt>
   <trkpt lat="37.4297050" lon="127.0046200">
    <ele>76.3</ele>
    <time>2026-08-14T12:06:43Z</time>
   </trkpt>
   <trkpt lat="37.4296960" lon="127.0046130">
    <ele>76.2</ele>
    <time>2026-08-14T12:06:44Z</time>
   </trkpt>
   <trkpt lat="37.4296940" lon="127.0046070">
    <ele>76.2</ele>
    <time>2026-08-14T12:06:45Z</time>
   </trkpt>
   <trkpt lat="37.4296860" lon="127.0045920">
    <ele>76.0</ele>
    <time>2026-08-14T12:06:46Z</time>
   </trkpt>
   <trkpt lat="37.4296830" lon="127.0045760">
    <ele>75.9</ele>
    <time>2026-08-14T12:06:47Z</time>
   </trkpt>
   <trkpt lat="37.4296790" lon="127.0045570">
    <ele>75.8</ele>
    <time>2026-08-14T12:06:48Z</time>
   </trkpt>
   <trkpt lat="37.4296780" lon="127.0045390">
    <ele>75.6</ele>
    <time>2026-08-14T12:06:49Z</time>
   </trkpt>
   <trkpt lat="37.4296750" lon="127.0045160">
    <ele>75.4</ele>
    <time>2026-08-14T12:06:50Z</time>
   </trkpt>
   <trkpt lat="37.4296710" lon="127.0044960">
    <ele>75.3</ele>
    <time>2026-08-14T12:06:51Z</time>
   </trkpt>
   <trkpt lat="37.4296630" lon="127.0044810">
    <ele>75.2</ele>
    <time>2026-08-14T12:06:52Z</time>
   </trkpt>
   <trkpt lat="37.4296550" lon="127.0044630">
    <ele>75.0</ele>
    <time>2026-08-14T12:06:53Z</time>
   </trkpt>
   <trkpt lat="37.4296490" lon="127.0044480">
    <ele>74.9</ele>
    <time>2026-08-14T12:06:54Z</time>
   </trkpt>
   <trkpt lat="37.4296410" lon="127.0044320">
    <ele>74.8</ele>
    <time>2026-08-14T12:06:55Z</time>
   </trkpt>
   <trkpt lat="37.4296360" lon="127.0044160">
    <ele>74.6</ele>
    <time>2026-08-14T12:06:56Z</time>
   </trkpt>
   <trkpt lat="37.4296270" lon="127.0044020">
    <ele>74.5</ele>
    <time>2026-08-14T12:06:57Z</time>
   </trkpt>
   <trkpt lat="37.4296190" lon="127.0043910">
    <ele>74.4</ele>
    <time>2026-08-14T12:06:58Z</time>
   </trkpt>
   <trkpt lat="37.4296150" lon="127.0043780">
    <ele>74.3</ele>
    <time>2026-08-14T12:06:59Z</time>
   </trkpt>
   <trkpt lat="37.4296050" lon="127.0043690">
    <ele>74.2</ele>
    <time>2026-08-14T12:07:00Z</time>
   </trkpt>
   <trkpt lat="37.4296010" lon="127.0043530">
    <ele>74.1</ele>
    <time>2026-08-14T12:07:01Z</time>
   </trkpt>
   <trkpt lat="37.4295890" lon="127.0043400">
    <ele>73.9</ele>
    <time>2026-08-14T12:07:02Z</time>
   </trkpt>
   <trkpt lat="37.4295770" lon="127.0043320">
    <ele>73.8</ele>
    <time>2026-08-14T12:07:03Z</time>
   </trkpt>
   <trkpt lat="37.4295710" lon="127.0043250">
    <ele>73.7</ele>
    <time>2026-08-14T12:07:04Z</time>
   </trkpt>
   <trkpt lat="37.4295690" lon="127.0043260">
    <ele>73.7</ele>
    <time>2026-08-14T12:07:05Z</time>
   </trkpt>
   <trkpt lat="37.4295580" lon="127.0043010">
    <ele>73.5</ele>
    <time>2026-08-14T12:07:06Z</time>
   </trkpt>
   <trkpt lat="37.4295610" lon="127.0042840">
    <ele>73.4</ele>
    <time>2026-08-14T12:07:07Z</time>
   </trkpt>
   <trkpt lat="37.4295460" lon="127.0042600">
    <ele>73.1</ele>
    <time>2026-08-14T12:07:08Z</time>
   </trkpt>
   <trkpt lat="37.4295440" lon="127.0042440">
    <ele>73.0</ele>
    <time>2026-08-14T12:07:09Z</time>
   </trkpt>
   <trkpt lat="37.4295360" lon="127.0042350">
    <ele>72.9</ele>
    <time>2026-08-14T12:07:10Z</time>
   </trkpt>
   <trkpt lat="37.4295290" lon="127.0042130">
    <ele>72.7</ele>
    <time>2026-08-14T12:07:11Z</time>
   </trkpt>
   <trkpt lat="37.4295240" lon="127.0041910">
    <ele>72.6</ele>
    <time>2026-08-14T12:07:12Z</time>
   </trkpt>
   <trkpt lat="37.4295200" lon="127.0041690">
    <ele>72.4</ele>
    <time>2026-08-14T12:07:14Z</time>
   </trkpt>
   <trkpt lat="37.4295160" lon="127.0041430">
    <ele>72.2</ele>
    <time>2026-08-14T12:07:15Z</time>
   </trkpt>
   <trkpt lat="37.4295120" lon="127.0041170">
    <ele>72.0</ele>
    <time>2026-08-14T12:07:16Z</time>
   </trkpt>
   <trkpt lat="37.4295040" lon="127.0041040">
    <ele>71.9</ele>
    <time>2026-08-14T12:07:17Z</time>
   </trkpt>
   <trkpt lat="37.4294950" lon="127.0040940">
    <ele>71.8</ele>
    <time>2026-08-14T12:07:18Z</time>
   </trkpt>
   <trkpt lat="37.4294780" lon="127.0040930">
    <ele>71.6</ele>
    <time>2026-08-14T12:07:19Z</time>
   </trkpt>
   <trkpt lat="37.4294730" lon="127.0040740">
    <ele>71.5</ele>
    <time>2026-08-14T12:07:20Z</time>
   </trkpt>
   <trkpt lat="37.4294680" lon="127.0040560">
    <ele>71.3</ele>
    <time>2026-08-14T12:07:21Z</time>
   </trkpt>
   <trkpt lat="37.4294690" lon="127.0040350">
    <ele>71.2</ele>
    <time>2026-08-14T12:07:22Z</time>
   </trkpt>
   <trkpt lat="37.4294620" lon="127.0040190">
    <ele>71.1</ele>
    <time>2026-08-14T12:07:23Z</time>
   </trkpt>
   <trkpt lat="37.4294690" lon="127.0039950">
    <ele>70.9</ele>
    <time>2026-08-14T12:07:24Z</time>
   </trkpt>
   <trkpt lat="37.4294620" lon="127.0039730">
    <ele>70.7</ele>
    <time>2026-08-14T12:07:25Z</time>
   </trkpt>
   <trkpt lat="37.4294460" lon="127.0039610">
    <ele>70.6</ele>
    <time>2026-08-14T12:07:26Z</time>
   </trkpt>
   <trkpt lat="37.4294280" lon="127.0039470">
    <ele>70.4</ele>
    <time>2026-08-14T12:07:27Z</time>
   </trkpt>
   <trkpt lat="37.4294130" lon="127.0039320">
    <ele>70.2</ele>
    <time>2026-08-14T12:07:28Z</time>
   </trkpt>
   <trkpt lat="37.4294010" lon="127.0039180">
    <ele>70.1</ele>
    <time>2026-08-14T12:07:29Z</time>
   </trkpt>
   <trkpt lat="37.4293930" lon="127.0039000">
    <ele>69.9</ele>
    <time>2026-08-14T12:07:30Z</time>
   </trkpt>
   <trkpt lat="37.4293910" lon="127.0038820">
    <ele>69.8</ele>
    <time>2026-08-14T12:07:31Z</time>
   </trkpt>
   <trkpt lat="37.4293780" lon="127.0038710">
    <ele>69.6</ele>
    <time>2026-08-14T12:07:32Z</time>
   </trkpt>
   <trkpt lat="37.4293690" lon="127.0038580">
    <ele>69.5</ele>
    <time>2026-08-14T12:07:33Z</time>
   </trkpt>
   <trkpt lat="37.4293640" lon="127.0038460">
    <ele>69.4</ele>
    <time>2026-08-14T12:07:34Z</time>
   </trkpt>
   <trkpt lat="37.4293510" lon="127.0038380">
    <ele>69.3</ele>
    <time>2026-08-14T12:07:35Z</time>
   </trkpt>
   <trkpt lat="37.4293420" lon="127.0038260">
    <ele>69.1</ele>
    <time>2026-08-14T12:07:36Z</time>
   </trkpt>
   <trkpt lat="37.4293400" lon="127.0038080">
    <ele>69.0</ele>
    <time>2026-08-14T12:07:37Z</time>
   </trkpt>
   <trkpt lat="37.4293490" lon="127.0037870">
    <ele>68.8</ele>
    <time>2026-08-14T12:07:38Z</time>
   </trkpt>
   <trkpt lat="37.4293540" lon="127.0037670">
    <ele>68.7</ele>
    <time>2026-08-14T12:07:39Z</time>
   </trkpt>
   <trkpt lat="37.4293530" lon="127.0037480">
    <ele>68.5</ele>
    <time>2026-08-14T12:07:40Z</time>
   </trkpt>
   <trkpt lat="37.4293430" lon="127.0037300">
    <ele>68.4</ele>
    <time>2026-08-14T12:07:41Z</time>
   </trkpt>
   <trkpt lat="37.4293330" lon="127.0037130">
    <ele>68.2</ele>
    <time>2026-08-14T12:07:42Z</time>
   </trkpt>
   <trkpt lat="37.4293240" lon="127.0036970">
    <ele>68.1</ele>
    <time>2026-08-14T12:07:43Z</time>
   </trkpt>
   <trkpt lat="37.4293120" lon="127.0036830">
    <ele>67.9</ele>
    <time>2026-08-14T12:07:44Z</time>
   </trkpt>
   <trkpt lat="37.4293030" lon="127.0036690">
    <ele>67.8</ele>
    <time>2026-08-14T12:07:45Z</time>
   </trkpt>
   <trkpt lat="37.4292990" lon="127.0036500">
    <ele>67.7</ele>
    <time>2026-08-14T12:07:46Z</time>
   </trkpt>
   <trkpt lat="37.4292920" lon="127.0036320">
    <ele>67.5</ele>
    <time>2026-08-14T12:07:47Z</time>
   </trkpt>
   <trkpt lat="37.4292850" lon="127.0036170">
    <ele>67.4</ele>
    <time>2026-08-14T12:07:48Z</time>
   </trkpt>
   <trkpt lat="37.4292730" lon="127.0036050">
    <ele>67.3</ele>
    <time>2026-08-14T12:07:49Z</time>
   </trkpt>
   <trkpt lat="37.4292640" lon="127.0035880">
    <ele>67.1</ele>
    <time>2026-08-14T12:07:50Z</time>
   </trkpt>
   <trkpt lat="37.4292530" lon="127.0035730">
    <ele>67.0</ele>
    <time>2026-08-14T12:07:51Z</time>
   </trkpt>
   <trkpt lat="37.4292390" lon="127.0035560">
    <ele>66.8</ele>
    <time>2026-08-14T12:07:52Z</time>
   </trkpt>
   <trkpt lat="37.4292270" lon="127.0035410">
    <ele>66.6</ele>
    <time>2026-08-14T12:07:53Z</time>
   </trkpt>
   <trkpt lat="37.4292120" lon="127.0035310">
    <ele>66.5</ele>
    <time>2026-08-14T12:07:54Z</time>
   </trkpt>
   <trkpt lat="37.4292000" lon="127.0035210">
    <ele>66.4</ele>
    <time>2026-08-14T12:07:55Z</time>
   </trkpt>
   <trkpt lat="37.4291910" lon="127.0035120">
    <ele>66.3</ele>
    <time>2026-08-14T12:07:56Z</time>
   </trkpt>
   <trkpt lat="37.4291800" lon="127.0035030">
    <ele>66.2</ele>
    <time>2026-08-14T12:07:57Z</time>
   </trkpt>
   <trkpt lat="37.4291750" lon="127.0034920">
    <ele>66.2</ele>
    <time>2026-08-14T12:07:58Z</time>
   </trkpt>
   <trkpt lat="37.4291570" lon="127.0034940">
    <ele>66.0</ele>
    <time>2026-08-14T12:07:59Z</time>
   </trkpt>
   <trkpt lat="37.4291440" lon="127.0035020">
    <ele>66.0</ele>
    <time>2026-08-14T12:08:00Z</time>
   </trkpt>
   <trkpt lat="37.4291410" lon="127.0034770">
    <ele>65.8</ele>
    <time>2026-08-14T12:08:01Z</time>
   </trkpt>
   <trkpt lat="37.4291450" lon="127.0034570">
    <ele>65.7</ele>
    <time>2026-08-14T12:08:02Z</time>
   </trkpt>
   <trkpt lat="37.4291490" lon="127.0034270">
    <ele>65.6</ele>
    <time>2026-08-14T12:08:03Z</time>
   </trkpt>
   <trkpt lat="37.4291480" lon="127.0034030">
    <ele>65.4</ele>
    <time>2026-08-14T12:08:04Z</time>
   </trkpt>
   <trkpt lat="37.4291400" lon="127.0033870">
    <ele>65.3</ele>
    <time>2026-08-14T12:08:05Z</time>
   </trkpt>
   <trkpt lat="37.4291350" lon="127.0033690">
    <ele>65.2</ele>
    <time>2026-08-14T12:08:06Z</time>
   </trkpt>
   <trkpt lat="37.4291090" lon="127.0033720">
    <ele>65.1</ele>
    <time>2026-08-14T12:08:07Z</time>
   </trkpt>
   <trkpt lat="37.4290980" lon="127.0033620">
    <ele>65.0</ele>
    <time>2026-08-14T12:08:08Z</time>
   </trkpt>
   <trkpt lat="37.4290920" lon="127.0033340">
    <ele>64.9</ele>
    <time>2026-08-14T12:08:09Z</time>
   </trkpt>
   <trkpt lat="37.4290970" lon="127.0033060">
    <ele>64.7</ele>
    <time>2026-08-14T12:08:10Z</time>
   </trkpt>
   <trkpt lat="37.4290980" lon="127.0032850">
    <ele>64.6</ele>
    <time>2026-08-14T12:08:11Z</time>
   </trkpt>
   <trkpt lat="37.4290970" lon="127.0032650">
    <ele>64.5</ele>
    <time>2026-08-14T12:08:12Z</time>
   </trkpt>
   <trkpt lat="37.4290960" lon="127.0032440">
    <ele>64.4</ele>
    <time>2026-08-14T12:08:13Z</time>
   </trkpt>
   <trkpt lat="37.4290900" lon="127.0032250">
    <ele>64.3</ele>
    <time>2026-08-14T12:08:14Z</time>
   </trkpt>
   <trkpt lat="37.4290830" lon="127.0032100">
    <ele>64.3</ele>
    <time>2026-08-14T12:08:15Z</time>
   </trkpt>
   <trkpt lat="37.4290660" lon="127.0031990">
    <ele>64.2</ele>
    <time>2026-08-14T12:08:16Z</time>
   </trkpt>
   <trkpt lat="37.4290530" lon="127.0031840">
    <ele>64.1</ele>
    <time>2026-08-14T12:08:17Z</time>
   </trkpt>
   <trkpt lat="37.4290380" lon="127.0031730">
    <ele>64.0</ele>
    <time>2026-08-14T12:08:18Z</time>
   </trkpt>
   <trkpt lat="37.4290240" lon="127.0031660">
    <ele>63.9</ele>
    <time>2026-08-14T12:08:19Z</time>
   </trkpt>
   <trkpt lat="37.4290110" lon="127.0031570">
    <ele>63.8</ele>
    <time>2026-08-14T12:08:20Z</time>
   </trkpt>
  </trkseg>
 </trk>
</gpx>
