<?xml version="1.0" encoding="UTF-8"?>
<gpx creator="StravaGPX" version="1.1" xmlns="http://www.topografix.com/GPX/1/1" xmlns:xsi="http://www.w3.org/2001/XMLSchema-instance" xsi:schemaLocation="http://www.topografix.com/GPX/1/1 http://www.topografix.com/GPX/1/1/gpx.xsd">
 <metadata>
  <time>2026-08-13T11:54:34Z</time>
 </metadata>
 <trk>
  <name>declivous_test3</name>
  <type>walking</type>
  <trkseg>
   <trkpt lat="37.4112990" lon="126.9865500">
    <ele>64.8</ele>
    <time>2026-08-13T11:54:34Z</time>
   </trkpt>
   <trkpt lat="37.4112990" lon="126.9865500">
    <ele>64.8</ele>
    <time>2026-08-13T11:54:35Z</time>
   </trkpt>
   <trkpt lat="37.4113180" lon="126.9865580">
    <ele>64.9</ele>
    <time>2026-08-13T11:54:36Z</time>
   </trkpt>
   <trkpt lat="37.4113300" lon="126.9865630">
    <ele>64.9</ele>
    <time>2026-08-13T11:54:37Z</time>
   </trkpt>
   <trkpt lat="37.4113470" lon="126.9865680">
    <ele>64.9</ele>
    <time>2026-08-13T11:54:38Z</time>
   </trkpt>
   <trkpt lat="37.4113630" lon="126.9865740">
    <ele>64.9</ele>
    <time>2026-08-13T11:54:39Z</time>
   </trkpt>
   <trkpt lat="37.4113730" lon="126.9865780">
    <ele>64.9</ele>
    <time>2026-08-13T11:54:40Z</time>
   </trkpt>
   <trkpt lat="37.4113970" lon="126.9865900">
    <ele>65.0</ele>
    <time>2026-08-13T11:54:41Z</time>
   </trkpt>
   <trkpt lat="37.4114270" lon="126.9865980">
    <ele>65.0</ele>
    <time>2026-08-13T11:54:42Z</time>
   </trkpt>
   <trkpt lat="37.4114410" lon="126.9865980">
    <ele>65.0</ele>
    <time>2026-08-13T11:54:43Z</time>
   </trkpt>
   <trkpt lat="37.4114500" lon="126.9866030">
    <ele>65.0</ele>
    <time>2026-08-13T11:54:44Z</time>
   </trkpt>
   <trkpt lat="37.4114620" lon="126.9866130">
    <ele>65.0</ele>
    <time>2026-08-13T11:54:45Z</time>
   </trkpt>
   <trkpt lat="37.4114840" lon="126.9866190">
    <ele>65.1</ele>
    <time>2026-08-13T11:54:46Z</time>
   </trkpt>
   <trkpt lat="37.4115050" lon="126.9866280">
    <ele>65.1</ele>
    <time>2026-08-13T11:54:47Z</time>
   </trkpt>
   <trkpt lat="37.4115160" lon="126.9866350">
    <ele>65.1</ele>
    <time>2026-08-13T11:54:48Z</time>
   </trkpt>
   <trkpt lat="37.4115260" lon="126.9866430">
    <ele>65.1</ele>
    <time>2026-08-13T11:54:49Z</time>
   </trkpt>
   <trkpt lat="37.4115300" lon="126.9866540">
    <ele>65.1</ele>
    <time>2026-08-13T11:54:50Z</time>
   </trkpt>
   <trkpt lat="37.4115470" lon="126.9866660">
    <ele>65.2</ele>
    <time>2026-08-13T11:54:51Z</time>
   </trkpt>
   <trkpt lat="37.4115570" lon="126.9866690">
    <ele>65.2</ele>
    <time>2026-08-13T11:54:52Z</time>
   </trkpt>
   <trkpt lat="37.4115740" lon="126.9866670">
    <ele>65.2</ele>
    <time>2026-08-13T11:54:53Z</time>
   </trkpt>
   <trkpt lat="37.4115900" lon="126.9866760">
    <ele>65.2</ele>
    <time>2026-08-13T11:54:54Z</time>
   </trkpt>
   <trkpt lat="37.4116080" lon="126.9866760">
    <ele>65.3</ele>
    <time>2026-08-13T11:54:55Z</time>
   </trkpt>
   <trkpt lat="37.4116170" lon="126.9866880">
    <ele>65.3</ele>
    <time>2026-08-13T11:54:56Z</time>
   </trkpt>
   <trkpt lat="37.4116300" lon="126.9866960">
    <ele>65.3</ele>
    <time>2026-08-13T11:54:57Z</time>
   </trkpt>
   <trkpt lat="37.4116380" lon="126.9867020">
    <ele>65.3</ele>
    <time>2026-08-13T11:54:58Z</time>
   </trkpt>
   <trkpt lat="37.4116510" lon="126.9867000">
    <ele>65.4</ele>
    <time>2026-08-13T11:54:59Z</time>
   </trkpt>
   <trkpt lat="37.4116490" lon="126.9867030">
    <ele>65.4</ele>
    <time>2026-08-13T11:55:00Z</time>
   </trkpt>
   <trkpt lat="37.4116740" lon="126.9867070">
    <ele>65.4</ele>
    <time>2026-08-13T11:55:01Z</time>
   </trkpt>
   <trkpt lat="37.4116820" lon="126.9867150">
    <ele>65.5</ele>
    <time>2026-08-13T11:55:02Z</time>
   </trkpt>
   <trkpt lat="37.4116920" lon="126.9867250">
    <ele>65.5</ele>
    <time>2026-08-13T11:55:03Z</time>
   </trkpt>
   <trkpt lat="37.4117030" lon="126.9867300">
    <ele>65.5</ele>
    <time>2026-08-13T11:55:04Z</time>
   </trkpt>
   <trkpt lat="37.4117220" lon="126.9867400">
    <ele>65.6</ele>
    <time>2026-08-13T11:55:05Z</time>
   </trkpt>
   <trkpt lat="37.4117260" lon="126.9867580">
    <ele>65.6</ele>
    <time>2026-08-13T11:55:06Z</time>
   </trkpt>
   <trkpt lat="37.4117380" lon="126.9867610">
    <ele>65.6</ele>
    <time>2026-08-13T11:55:07Z</time>
   </trkpt>
   <trkpt lat="37.4117500" lon="126.9867600">
    <ele>65.7</ele>
    <time>2026-08-13T11:55:08Z</time>
   </trkpt>
   <trkpt lat="37.4117600" lon="126.9867710">
    <ele>65.7</ele>
    <time>2026-08-13T11:55:09Z</time>
   </trkpt>
   <trkpt lat="37.4117660" lon="126.9867760">
    <ele>65.7</ele>
    <time>2026-08-13T11:55:10Z</time>
   </trkpt>
   <trkpt lat="37.4117800" lon="126.9867910">
    <ele>65.8</ele>
    <time>2026-08-13T11:55:11Z</time>
   </trkpt>
   <trkpt lat="37.4117910" lon="126.9868000">
    <ele>65.8</ele>
    <time>2026-08-13T11:55:12Z</time>
   </trkpt>
   <trkpt lat="37.4118050" lon="126.9868160">
    <ele>65.9</ele>
    <time>2026-08-13T11:55:13Z</time>
   </trkpt>
   <trkpt lat="37.4118180" lon="126.9868250">
    <ele>65.9</ele>
    <time>2026-08-13T11:55:14Z</time>
   </trkpt>
   <trkpt lat="37.4118270" lon="126.9868350">
    <ele>66.0</ele>
    <time>2026-08-13T11:55:15Z</time>
   </trkpt>
   <trkpt lat="37.4118340" lon="126.9868470">
    <ele>66.0</ele>
    <time>2026-08-13T11:55:16Z</time>
   </trkpt>
   <trkpt lat="37.4118490" lon="126.9868530">
    <ele>66.1</ele>
    <time>2026-08-13T11:55:17Z</time>
   </trkpt>
   <trkpt lat="37.4118610" lon="126.9868580">
    <ele>66.1</ele>
    <time>2026-08-13T11:55:18Z</time>
   </trkpt>
   <trkpt lat="37.4118750" lon="126.9868760">
    <ele>66.2</ele>
    <time>2026-08-13T11:55:19Z</time>
   </trkpt>
   <trkpt lat="37.4118850" lon="126.9868840">
    <ele>66.2</ele>
    <time>2026-08-13T11:55:20Z</time>
   </trkpt>
   <trkpt lat="37.4118950" lon="126.9868960">
    <ele>66.2</ele>
    <time>2026-08-13T11:55:21Z</time>
   </trkpt>
   <trkpt lat="37.4119020" lon="126.9869060">
    <ele>66.3</ele>
    <time>2026-08-13T11:55:22Z</time>
   </trkpt>
   <trkpt lat="37.4119150" lon="126.9869150">
    <ele>66.3</ele>
    <time>2026-08-13T11:55:23Z</time>
   </trkpt>
   <trkpt lat="37.4119210" lon="126.9869170">
    <ele>66.3</ele>
    <time>2026-08-13T11:55:24Z</time>
   </trkpt>
   <trkpt lat="37.4119300" lon="126.9869220">
    <ele>66.4</ele>
    <time>2026-08-13T11:55:25Z</time>
   </trkpt>
   <trkpt lat="37.4119360" lon="126.9869260">
    <ele>66.4</ele>
    <time>2026-08-13T11:55:26Z</time>
   </trkpt>
   <trkpt lat="37.4119500" lon="126.9869350">
    <ele>66.5</ele>
    <time>2026-08-13T11:55:27Z</time>
   </trkpt>
   <trkpt lat="37.4119610" lon="126.9869440">
    <ele>66.5</ele>
    <time>2026-08-13T11:55:28Z</time>
   </trkpt>
   <trkpt lat="37.4119660" lon="126.9869510">
    <ele>66.5</ele>
    <time>2026-08-13T11:55:29Z</time>
   </trkpt>
   <trkpt lat="37.4119750" lon="126.9869690">
    <ele>66.6</ele>
    <time>2026-08-13T11:55:30Z</time>
   </trkpt>
   <trkpt lat="37.4119910" lon="126.9869760">
    <ele>66.6</ele>
    <time>2026-08-13T11:55:31Z</time>
   </trkpt>
   <trkpt lat="37.4119960" lon="126.9869770">
    <ele>66.6</ele>
    <time>2026-08-13T11:55:32Z</time>
   </trkpt>
   <trkpt lat="37.4119990" lon="126.9869920">
    <ele>66.7</ele>
    <time>2026-08-13T11:55:33Z</time>
   </trkpt>
   <trkpt lat="37.4120120" lon="126.9870010">
    <ele>66.7</ele>
    <time>2026-08-13T11:55:34Z</time>
   </trkpt>
   <trkpt lat="37.4120210" lon="126.9870130">
    <ele>66.8</ele>
    <time>2026-08-13T11:55:35Z</time>
   </trkpt>
   <trkpt lat="37.4120360" lon="126.9870250">
    <ele>66.8</ele>
    <time>2026-08-13T11:55:36Z</time>
   </trkpt>
   <trkpt lat="37.4120480" lon="126.9870370">
    <ele>66.9</ele>
    <time>2026-08-13T11:55:37Z</time>
   </trkpt>
   <trkpt lat="37.4120570" lon="126.9870440">
    <ele>66.9</ele>
    <time>2026-08-13T11:55:38Z</time>
   </trkpt>
   <trkpt lat="37.4120720" lon="126.9870530">
    <ele>67.0</ele>
    <time>2026-08-13T11:55:39Z</time>
   </trkpt>
   <trkpt lat="37.4120880" lon="126.9870590">
    <ele>67.0</ele>
    <time>2026-08-13T11:55:40Z</time>
   </trkpt>
   <trkpt lat="37.4120970" lon="126.9870670">
    <ele>67.0</ele>
    <time>2026-08-13T11:55:41Z</time>
   </trkpt>
   <trkpt lat="37.4121100" lon="126.9870740">
    <ele>67.1</ele>
    <time>2026-08-13T11:55:42Z</time>
   </trkpt>
   <trkpt lat="37.4121220" lon="126.9870790">
    <ele>67.1</ele>
    <time>2026-08-13T11:55:43Z</time>
   </trkpt>
   <trkpt lat="37.4121440" lon="126.9871010">
    <ele>67.2</ele>
    <time>2026-08-13T11:55:44Z</time>
   </trkpt>
   <trkpt lat="37.4121510" lon="126.9871110">
    <ele>67.2</ele>
    <time>2026-08-13T11:55:45Z</time>
   </trkpt>
   <trkpt lat="37.4121580" lon="126.9871160">
    <ele>67.3</ele>
    <time>2026-08-13T11:55:46Z</time>
   </trkpt>
   <trkpt lat="37.4121630" lon="126.9871180">
    <ele>67.3</ele>
    <time>2026-08-13T11:55:47Z</time>
   </trkpt>
   <trkpt lat="37.4121750" lon="126.9871240">
    <ele>67.3</ele>
    <time>2026-08-13T11:55:48Z</time>
   </trkpt>
   <trkpt lat="37.4121830" lon="126.9871350">
    <ele>67.3</ele>
    <time>2026-08-13T11:55:49Z</time>
   </trkpt>
   <trkpt lat="37.4121910" lon="126.9871500">
    <ele>67.4</ele>
    <time>2026-08-13T11:55:50Z</time>
   </trkpt>
   <trkpt lat="37.4122040" lon="126.9871600">
    <ele>67.4</ele>
    <time>2026-08-13T11:55:51Z</time>
   </trkpt>
   <trkpt lat="37.4122150" lon="126.9871700">
    <ele>67.5</ele>
    <time>2026-08-13T11:55:52Z</time>
   </trkpt>
   <trkpt lat="37.4122360" lon="126.9871830">
    <ele>67.5</ele>
    <time>2026-08-13T11:55:53Z</time>
   </trkpt>
   <trkpt lat="37.4122470" lon="126.9871820">
    <ele>67.6</ele>
    <time>2026-08-13T11:55:54Z</time>
   </trkpt>
   <trkpt lat="37.4122580" lon="126.9871860">
    <ele>67.6</ele>
    <time>2026-08-13T11:55:55Z</time>
   </trkpt>
   <trkpt lat="37.4122690" lon="126.9871880">
    <ele>67.6</ele>
    <time>2026-08-13T11:55:56Z</time>
   </trkpt>
   <trkpt lat="37.4122890" lon="126.9872000">
    <ele>67.7</ele>
    <time>2026-08-13T11:55:57Z</time>
   </trkpt>
   <trkpt lat="37.4122850" lon="126.9872050">
    <ele>67.7</ele>
    <time>2026-08-13T11:55:58Z</time>
   </trkpt>
   <trkpt lat="37.4122950" lon="126.9872080">
    <ele>67.7</ele>
    <time>2026-08-13T11:55:59Z</time>
   </trkpt>
   <trkpt lat="37.4123000" lon="126.9872160">
    <ele>67.7</ele>
    <time>2026-08-13T11:56:00Z</time>
   </trkpt>
   <trkpt lat="37.4123100" lon="126.9872250">
    <ele>67.8</ele>
    <time>2026-08-13T11:56:01Z</time>
   </trkpt>
   <trkpt lat="37.4123180" lon="126.9872250">
    <ele>67.8</ele>
    <time>2026-08-13T11:56:02Z</time>
   </trkpt>
   <trkpt lat="37.4123220" lon="126.9872310">
    <ele>67.8</ele>
    <time>2026-08-13T11:56:03Z</time>
   </trkpt>
   <trkpt lat="37.4123440" lon="126.9872320">
    <ele>67.9</ele>
    <time>2026-08-13T11:56:04Z</time>
   </trkpt>
   <trkpt lat="37.4123470" lon="126.9872380">
    <ele>67.9</ele>
    <time>2026-08-13T11:56:05Z</time>
   </trkpt>
   <trkpt lat="37.4123600" lon="126.9872430">
    <ele>67.9</ele>
    <time>2026-08-13T11:56:06Z</time>
   </trkpt>
   <trkpt lat="37.4123750" lon="126.9872560">
    <ele>68.0</ele>
    <time>2026-08-13T11:56:07Z</time>
   </trkpt>
   <trkpt lat="37.4123830" lon="126.9872670">
    <ele>68.0</ele>
    <time>2026-08-13T11:56:08Z</time>
   </trkpt>
   <trkpt lat="37.4123940" lon="126.9872850">
    <ele>68.1</ele>
    <time>2026-08-13T11:56:09Z</time>
   </trkpt>
   <trkpt lat="37.4124170" lon="126.9872970">
    <ele>68.1</ele>
    <time>2026-08-13T11:56:10Z</time>
   </trkpt>
   <trkpt lat="37.4124280" lon="126.9873180">
    <ele>68.2</ele>
    <time>2026-08-13T11:56:11Z</time>
   </trkpt>
   <trkpt lat="37.4124430" lon="126.9873280">
    <ele>68.2</ele>
    <time>2026-08-13T11:56:12Z</time>
   </trkpt>
   <trkpt lat="37.4124750" lon="126.9873230">
    <ele>68.3</ele>
    <time>2026-08-13T11:56:13Z</time>
   </trkpt>
   <trkpt lat="37.4124900" lon="126.9873260">
    <ele>68.3</ele>
    <time>2026-08-13T11:56:14Z</time>
   </trkpt>
   <trkpt lat="37.4124990" lon="126.9873210">
    <ele>68.4</ele>
    <time>2026-08-13T11:56:15Z</time>
   </trkpt>
   <trkpt lat="37.4125140" lon="126.9873230">
    <ele>68.4</ele>
    <time>2026-08-13T11:56:16Z</time>
   </trkpt>
   <trkpt lat="37.4125300" lon="126.9873290">
    <ele>68.4</ele>
    <time>2026-08-13T11:56:17Z</time>
   </trkpt>
   <trkpt lat="37.4125330" lon="126.9873210">
    <ele>68.5</ele>
    <time>2026-08-13T11:56:18Z</time>
   </trkpt>
   <trkpt lat="37.4125540" lon="126.9873430">
    <ele>68.5</ele>
    <time>2026-08-13T11:56:19Z</time>
   </trkpt>
   <trkpt lat="37.4125640" lon="126.9873550">
    <ele>68.6</ele>
    <time>2026-08-13T11:56:20Z</time>
   </trkpt>
   <trkpt lat="37.4125790" lon="126.9873770">
    <ele>68.6</ele>
    <time>2026-08-13T11:56:21Z</time>
   </trkpt>
   <trkpt lat="37.4125900" lon="126.9873860">
    <ele>68.7</ele>
    <time>2026-08-13T11:56:22Z</time>
   </trkpt>
   <trkpt lat="37.4126080" lon="126.9873830">
    <ele>68.7</ele>
    <time>2026-08-13T11:56:23Z</time>
   </trkpt>
   <trkpt lat="37.4126170" lon="126.9874070">
    <ele>68.8</ele>
    <time>2026-08-13T11:56:24Z</time>
   </trkpt>
   <trkpt lat="37.4126270" lon="126.9874220">
    <ele>68.8</ele>
    <time>2026-08-13T11:56:25Z</time>
   </trkpt>
   <trkpt lat="37.4126470" lon="126.9874220">
    <ele>68.9</ele>
    <time>2026-08-13T11:56:26Z</time>
   </trkpt>
   <trkpt lat="37.4126540" lon="126.9874310">
    <ele>68.9</ele>
    <time>2026-08-13T11:56:27Z</time>
   </trkpt>
   <trkpt lat="37.4126600" lon="126.9874400">
    <ele>68.9</ele>
    <time>2026-08-13T11:56:28Z</time>
   </trkpt>
   <trkpt lat="37.4126630" lon="126.9874430">
    <ele>68.9</ele>
    <time>2026-08-13T11:56:29Z</time>
   </trkpt>
   <trkpt lat="37.4126660" lon="126.9874710">
    <ele>69.0</ele>
    <time>2026-08-13T11:56:30Z</time>
   </trkpt>
   <trkpt lat="37.4126790" lon="126.9874820">
    <ele>69.0</ele>
    <time>2026-08-13T11:56:32Z</time>
   </trkpt>
   <trkpt lat="37.4126890" lon="126.9874970">
    <ele>69.0</ele>
    <time>2026-08-13T11:56:33Z</time>
   </trkpt>
   <trkpt lat="37.4126950" lon="126.9875140">
    <ele>69.1</ele>
    <time>2026-08-13T11:56:34Z</time>
   </trkpt>
   <trkpt lat="37.4127170" lon="126.9875210">
    <ele>69.1</ele>
    <time>2026-08-13T11:56:35Z</time>
   </trkpt>
   <trkpt lat="37.4127300" lon="126.9875280">
    <ele>69.2</ele>
    <time>2026-08-13T11:56:36Z</time>
   </trkpt>
   <trkpt lat="37.4127380" lon="126.9875470">
    <ele>69.2</ele>
    <time>2026-08-13T11:56:37Z</time>
   </trkpt>
   <trkpt lat="37.4127490" lon="126.9875570">
    <ele>69.2</ele>
    <time>2026-08-13T11:56:38Z</time>
   </trkpt>
   <trkpt lat="37.4127550" lon="126.9875630">
    <ele>69.3</ele>
    <time>2026-08-13T11:56:39Z</time>
   </trkpt>
   <trkpt lat="37.4127720" lon="126.9875750">
    <ele>69.3</ele>
    <time>2026-08-13T11:56:40Z</time>
   </trkpt>
   <trkpt lat="37.4127860" lon="126.9875870">
    <ele>69.3</ele>
    <time>2026-08-13T11:56:41Z</time>
   </trkpt>
   <trkpt lat="37.4127940" lon="126.9875950">
    <ele>69.4</ele>
    <time>2026-08-13T11:56:42Z</time>
   </trkpt>
   <trkpt lat="37.4128070" lon="126.9876070">
    <ele>69.4</ele>
    <time>2026-08-13T11:56:43Z</time>
   </trkpt>
   <trkpt lat="37.4128180" lon="126.9876210">
    <ele>69.4</ele>
    <time>2026-08-13T11:56:44Z</time>
   </trkpt>
   <trkpt lat="37.4128280" lon="126.9876340">
    <ele>69.5</ele>
    <time>2026-08-13T11:56:45Z</time>
   </trkpt>
   <trkpt lat="37.4128380" lon="126.9876390">
    <ele>69.5</ele>
    <time>2026-08-13T11:56:46Z</time>
   </trkpt>
   <trkpt lat="37.4128520" lon="126.9876440">
    <ele>69.6</ele>
    <time>2026-08-13T11:56:47Z</time>
   </trkpt>
   <trkpt lat="37.4128710" lon="126.9876580">
    <ele>69.6</ele>
    <time>2026-08-13T11:56:48Z</time>
   </trkpt>
  </trkseg>
 </trk>
</gpx>
