<?xml version="1.0" encoding="UTF-8"?>
<gpx creator="StravaGPX" version="1.1" xmlns="http://www.topografix.com/GPX/1/1" xmlns:xsi="http://www.w3.org/2001/XMLSchema-instance" xsi:schemaLocation="http://www.topografix.com/GPX/1/1 http://www.topografix.com/GPX/1/1/gpx.xsd">
 <metadata>
  <time>2026-08-14T12:09:03Z</time>
 </metadata>
 <trk>
  <name>descending_T2</name>
  <type>walking</type>
  <trkseg>
   <trkpt lat="37.4289850" lon="127.0031260">
    <ele>63.7</ele>
    <time>2026-08-14T12:09:03Z</time>
   </trkpt>
   <trkpt lat="37.4289850" lon="127.0031310">
    <ele>63.7</ele>
    <time>2026-08-14T12:09:04Z</time>
   </trkpt>
   <trkpt lat="37.4289870" lon="127.0031380">
    <ele>63.7</ele>
    <time>2026-08-14T12:09:05Z</time>
   </trkpt>
   <trkpt lat="37.4289920" lon="127.0031440">
    <ele>63.7</ele>
    <time>2026-08-14T12:09:06Z</time>
   </trkpt>
   <trkpt lat="37.4290100" lon="127.0031560">
    <ele>63.8</ele>
    <time>2026-08-14T12:09:07Z</time>
   </trkpt>
   <trkpt lat="37.4290200" lon="127.0031700">
    <ele>63.8</ele>
    <time>2026-08-14T12:09:08Z</time>
   </trkpt>
   <trkpt lat="37.4290310" lon="127.0031830">
    <ele>63.9</ele>
    <time>2026-08-14T12:09:10Z</time>
   </trkpt>
   <trkpt lat="37.4290350" lon="127.0031930">
    <ele>63.9</ele>
    <time>2026-08-14T12:09:11Z</time>
   </trkpt>
   <trkpt lat="37.4290420" lon="127.0032030">
    <ele>64.0</ele>
    <time>2026-08-14T12:09:12Z</time>
   </trkpt>
   <trkpt lat="37.4290560" lon="127.0032130">
    <ele>64.1</ele>
    <time>2026-08-14T12:09:13Z</time>
   </trkpt>
   <trkpt lat="37.4290540" lon="127.0032150">
    <ele>64.1</ele>
    <time>2026-08-14T12:09:14Z</time>
   </trkpt>
   <trkpt lat="37.4290680" lon="127.0032320">
    <ele>64.2</ele>
    <time>2026-08-14T12:09:15Z</time>
   </trkpt>
   <trkpt lat="37.4290830" lon="127.0032470">
    <ele>64.4</ele>
    <time>2026-08-14T12:09:16Z</time>
   </trkpt>
   <trkpt lat="37.4290990" lon="127.0032600">
    <ele>64.5</ele>
    <time>2026-08-14T12:09:17Z</time>
   </trkpt>
   <trkpt lat="37.4291140" lon="127.0032770">
    <ele>64.6</ele>
    <time>2026-08-14T12:09:18Z</time>
   </trkpt>
   <trkpt lat="37.4291270" lon="127.0032930">
    <ele>64.8</ele>
    <time>2026-08-14T12:09:19Z</time>
   </trkpt>
   <trkpt lat="37.4291350" lon="127.0033070">
    <ele>64.8</ele>
    <time>2026-08-14T12:09:20Z</time>
   </trkpt>
   <trkpt lat="37.4291410" lon="127.0033220">
    <ele>64.9</ele>
    <time>2026-08-14T12:09:21Z</time>
   </trkpt>
   <trkpt lat="37.4291390" lon="127.0033370">
    <ele>65.0</ele>
    <time>2026-08-14T12:09:22Z</time>
   </trkpt>
   <trkpt lat="37.4291490" lon="127.0033520">
    <ele>65.1</ele>
    <time>2026-08-14T12:09:23Z</time>
   </trkpt>
   <trkpt lat="37.4291580" lon="127.0033690">
    <ele>65.3</ele>
    <time>2026-08-14T12:09:24Z</time>
   </trkpt>
   <trkpt lat="37.4291700" lon="127.0033820">
    <ele>65.4</ele>
    <time>2026-08-14T12:09:25Z</time>
   </trkpt>
   <trkpt lat="37.4291780" lon="127.0034060">
    <ele>65.5</ele>
    <time>2026-08-14T12:09:26Z</time>
   </trkpt>
   <trkpt lat="37.4291740" lon="127.0034280">
    <ele>65.6</ele>
    <time>2026-08-14T12:09:27Z</time>
   </trkpt>
   <trkpt lat="37.4291830" lon="127.0034430">
    <ele>65.8</ele>
    <time>2026-08-14T12:09:28Z</time>
   </trkpt>
   <trkpt lat="37.4291930" lon="127.0034570">
    <ele>65.9</ele>
    <time>2026-08-14T12:09:29Z</time>
   </trkpt>
   <trkpt lat="37.4291940" lon="127.0034780">
    <ele>66.0</ele>
    <time>2026-08-14T12:09:30Z</time>
   </trkpt>
   <trkpt lat="37.4292040" lon="127.0034910">
    <ele>66.1</ele>
    <time>2026-08-14T12:09:31Z</time>
   </trkpt>
   <trkpt lat="37.4292080" lon="127.0035150">
    <ele>66.3</ele>
    <time>2026-08-14T12:09:32Z</time>
   </trkpt>
   <trkpt lat="37.4292020" lon="127.0035360">
    <ele>66.4</ele>
    <time>2026-08-14T12:09:33Z</time>
   </trkpt>
   <trkpt lat="37.4292030" lon="127.0035470">
    <ele>66.5</ele>
    <time>2026-08-14T12:09:34Z</time>
   </trkpt>
   <trkpt lat="37.4292100" lon="127.0035590">
    <ele>66.6</ele>
    <time>2026-08-14T12:09:35Z</time>
   </trkpt>
   <trkpt lat="37.4292120" lon="127.0035670">
    <ele>66.6</ele>
    <time>2026-08-14T12:09:36Z</time>
   </trkpt>
   <trkpt lat="37.4292220" lon="127.0035800">
    <ele>66.8</ele>
    <time>2026-08-14T12:09:37Z</time>
   </trkpt>
   <trkpt lat="37.4292320" lon="127.0035890">
    <ele>66.9</ele>
    <time>2026-08-14T12:09:38Z</time>
   </trkpt>
   <trkpt lat="37.4292390" lon="127.0035970">
    <ele>67.0</ele>
    <time>2026-08-14T12:09:39Z</time>
   </trkpt>
   <trkpt lat="37.4292490" lon="127.0036120">
    <ele>67.1</ele>
    <time>2026-08-14T12:09:40Z</time>
   </trkpt>
   <trkpt lat="37.4292530" lon="127.0036250">
    <ele>67.2</ele>
    <time>2026-08-14T12:09:41Z</time>
   </trkpt>
   <trkpt lat="37.4292360" lon="127.0036560">
    <ele>67.5</ele>
    <time>2026-08-14T12:09:42Z</time>
   </trkpt>
   <trkpt lat="37.4292380" lon="127.0036680">
    <ele>67.6</ele>
    <time>2026-08-14T12:09:43Z</time>
   </trkpt>
   <trkpt lat="37.4292560" lon="127.0036790">
    <ele>67.7</ele>
    <time>2026-08-14T12:09:44Z</time>
   </trkpt>
   <trkpt lat="37.4292770" lon="127.0036870">
    <ele>67.9</ele>
    <time>2026-08-14T12:09:45Z</time>
   </trkpt>
   <trkpt lat="37.4292850" lon="127.0037040">
    <ele>68.1</ele>
    <time>2026-08-14T12:09:46Z</time>
   </trkpt>
   <trkpt lat="37.4292930" lon="127.0037160">
    <ele>68.2</ele>
    <time>2026-08-14T12:09:47Z</time>
   </trkpt>
   <trkpt lat="37.4293000" lon="127.0037280">
    <ele>68.3</ele>
    <time>2026-08-14T12:09:48Z</time>
   </trkpt>
   <trkpt lat="37.4293100" lon="127.0037380">
    <ele>68.4</ele>
    <time>2026-08-14T12:09:49Z</time>
   </trkpt>
   <trkpt lat="37.4293200" lon="127.0037500">
    <ele>68.6</ele>
    <time>2026-08-14T12:09:50Z</time>
   </trkpt>
   <trkpt lat="37.4293300" lon="127.0037620">
    <ele>68.7</ele>
    <time>2026-08-14T12:09:51Z</time>
   </trkpt>
   <trkpt lat="37.4293460" lon="127.0037760">
    <ele>68.9</ele>
    <time>2026-08-14T12:09:52Z</time>
   </trkpt>
   <trkpt lat="37.4293620" lon="127.0038010">
    <ele>69.1</ele>
    <time>2026-08-14T12:09:53Z</time>
   </trkpt>
   <trkpt lat="37.4293620" lon="127.0038070">
    <ele>69.2</ele>
    <time>2026-08-14T12:09:54Z</time>
   </trkpt>
   <trkpt lat="37.4293730" lon="127.0038240">
    <ele>69.3</ele>
    <time>2026-08-14T12:09:55Z</time>
   </trkpt>
   <trkpt lat="37.4293830" lon="127.0038430">
    <ele>69.5</ele>
    <time>2026-08-14T12:09:56Z</time>
   </trkpt>
   <trkpt lat="37.4293870" lon="127.0038410">
    <ele>69.6</ele>
    <time>2026-08-14T12:09:57Z</time>
   </trkpt>
   <trkpt lat="37.4293920" lon="127.0038590">
    <ele>69.7</ele>
    <time>2026-08-14T12:09:58Z</time>
   </trkpt>
   <trkpt lat="37.4293930" lon="127.0038610">
    <ele>69.7</ele>
    <time>2026-08-14T12:09:59Z</time>
   </trkpt>
   <trkpt lat="37.4293960" lon="127.0038760">
    <ele>69.8</ele>
    <time>2026-08-14T12:10:00Z</time>
   </trkpt>
   <trkpt lat="37.4293900" lon="127.0039060">
    <ele>70.1</ele>
    <time>2026-08-14T12:10:01Z</time>
   </trkpt>
   <trkpt lat="37.4294030" lon="127.0039050">
    <ele>70.2</ele>
    <time>2026-08-14T12:10:02Z</time>
   </trkpt>
   <trkpt lat="37.4294110" lon="127.0039140">
    <ele>70.2</ele>
    <time>2026-08-14T12:10:03Z</time>
   </trkpt>
   <trkpt lat="37.4294070" lon="127.0039270">
    <ele>70.3</ele>
    <time>2026-08-14T12:10:04Z</time>
   </trkpt>
   <trkpt lat="37.4294120" lon="127.0039370">
    <ele>70.4</ele>
    <time>2026-08-14T12:10:05Z</time>
   </trkpt>
   <trkpt lat="37.4294290" lon="127.0039380">
    <ele>70.5</ele>
    <time>2026-08-14T12:10:06Z</time>
   </trkpt>
   <trkpt lat="37.4294250" lon="127.0039240">
    <ele>70.6</ele>
    <time>2026-08-14T12:10:07Z</time>
   </trkpt>
   <trkpt lat="37.4294440" lon="127.0039360">
    <ele>70.7</ele>
    <time>2026-08-14T12:10:08Z</time>
   </trkpt>
   <trkpt lat="37.4294470" lon="127.0039630">
    <ele>70.9</ele>
    <time>2026-08-14T12:10:09Z</time>
   </trkpt>
   <trkpt lat="37.4294450" lon="127.0039960">
    <ele>71.0</ele>
    <time>2026-08-14T12:10:10Z</time>
   </trkpt>
   <trkpt lat="37.4294510" lon="127.0040120">
    <ele>71.1</ele>
    <time>2026-08-14T12:10:11Z</time>
   </trkpt>
   <trkpt lat="37.4294700" lon="127.0040310">
    <ele>71.3</ele>
    <time>2026-08-14T12:10:12Z</time>
   </trkpt>
   <trkpt lat="37.4294780" lon="127.0040430">
    <ele>71.4</ele>
    <time>2026-08-14T12:10:13Z</time>
   </trkpt>
   <trkpt lat="37.4294860" lon="127.0040540">
    <ele>71.5</ele>
    <time>2026-08-14T12:10:14Z</time>
   </trkpt>
   <trkpt lat="37.4294880" lon="127.0040750">
    <ele>71.6</ele>
    <time>2026-08-14T12:10:15Z</time>
   </trkpt>
   <trkpt lat="37.4294950" lon="127.0040820">
    <ele>71.6</ele>
    <time>2026-08-14T12:10:16Z</time>
   </trkpt>
   <trkpt lat="37.4295020" lon="127.0040930">
    <ele>71.7</ele>
    <time>2026-08-14T12:10:17Z</time>
   </trkpt>
   <trkpt lat="37.4295080" lon="127.0040970">
    <ele>71.7</ele>
    <time>2026-08-14T12:10:18Z</time>
   </trkpt>
   <trkpt lat="37.4295210" lon="127.0041080">
    <ele>71.9</ele>
    <time>2026-08-14T12:10:19Z</time>
   </trkpt>
   <trkpt lat="37.4295390" lon="127.0041270">
    <ele>72.0</ele>
    <time>2026-08-14T12:10:20Z</time>
   </trkpt>
   <trkpt lat="37.4295370" lon="127.0041460">
    <ele>72.1</ele>
    <time>2026-08-14T12:10:21Z</time>
   </trkpt>
   <trkpt lat="37.4295500" lon="127.0041610">
    <ele>72.3</ele>
    <time>2026-08-14T12:10:22Z</time>
   </trkpt>
   <trkpt lat="37.4295650" lon="127.0041630">
    <ele>72.4</ele>
    <time>2026-08-14T12:10:23Z</time>
   </trkpt>
   <trkpt lat="37.4295780" lon="127.0041730">
    <ele>72.5</ele>
    <time>2026-08-14T12:10:24Z</time>
   </trkpt>
   <trkpt lat="37.4295970" lon="127.0041700">
    <ele>72.6</ele>
    <time>2026-08-14T12:10:25Z</time>
   </trkpt>
   <trkpt lat="37.4296010" lon="127.0041840">
    <ele>72.7</ele>
    <time>2026-08-14T12:10:26Z</time>
   </trkpt>
   <trkpt lat="37.4295990" lon="127.0042030">
    <ele>72.8</ele>
    <time>2026-08-14T12:10:27Z</time>
   </trkpt>
   <trkpt lat="37.4295840" lon="127.0042260">
    <ele>73.0</ele>
    <time>2026-08-14T12:10:28Z</time>
   </trkpt>
   <trkpt lat="37.4295820" lon="127.0042500">
    <ele>73.1</ele>
    <time>2026-08-14T12:10:29Z</time>
   </trkpt>
   <trkpt lat="37.4295700" lon="127.0042650">
    <ele>73.2</ele>
    <time>2026-08-14T12:10:30Z</time>
   </trkpt>
   <trkpt lat="37.4295650" lon="127.0042790">
    <ele>73.3</ele>
    <time>2026-08-14T12:10:31Z</time>
   </trkpt>
   <trkpt lat="37.4295580" lon="127.0042950">
    <ele>73.4</ele>
    <time>2026-08-14T12:10:32Z</time>
   </trkpt>
   <trkpt lat="37.4295630" lon="127.0042990">
    <ele>73.5</ele>
    <time>2026-08-14T12:10:33Z</time>
   </trkpt>
   <trkpt lat="37.4295680" lon="127.0043260">
    <ele>73.6</ele>
    <time>2026-08-14T12:10:34Z</time>
   </trkpt>
   <trkpt lat="37.4295760" lon="127.0043400">
    <ele>73.7</ele>
    <time>2026-08-14T12:10:35Z</time>
   </trkpt>
   <trkpt lat="37.4295870" lon="127.0043500">
    <ele>73.8</ele>
    <time>2026-08-14T12:10:36Z</time>
   </trkpt>
   <trkpt lat="37.4295960" lon="127.0043650">
    <ele>74.0</ele>
    <time>2026-08-14T12:10:37Z</time>
   </trkpt>
   <trkpt lat="37.4296090" lon="127.0043820">
    <ele>74.1</ele>
    <time>2026-08-14T12:10:38Z</time>
   </trkpt>
   <trkpt lat="37.4296150" lon="127.0043960">
    <ele>74.2</ele>
    <time>2026-08-14T12:10:39Z</time>
   </trkpt>
   <trkpt lat="37.4296300" lon="127.0044080">
    <ele>74.4</ele>
    <time>2026-08-14T12:10:40Z</time>
   </trkpt>
   <trkpt lat="37.4296400" lon="127.0044230">
    <ele>74.5</ele>
    <time>2026-08-14T12:10:41Z</time>
   </trkpt>
   <trkpt lat="37.4296540" lon="127.0044370">
    <ele>74.7</ele>
    <time>2026-08-14T12:10:42Z</time>
   </trkpt>
   <trkpt lat="37.4296730" lon="127.0044460">
    <ele>74.9</ele>
    <time>2026-08-14T12:10:43Z</time>
   </trkpt>
   <trkpt lat="37.4296780" lon="127.0044540">
    <ele>75.0</ele>
    <time>2026-08-14T12:10:44Z</time>
   </trkpt>
   <trkpt lat="37.4296850" lon="127.0044700">
    <ele>75.1</ele>
    <time>2026-08-14T12:10:45Z</time>
   </trkpt>
   <trkpt lat="37.4296950" lon="127.0044780">
    <ele>75.2</ele>
    <time>2026-08-14T12:10:46Z</time>
   </trkpt>
   <trkpt lat="37.4297010" lon="127.0044900">
    <ele>75.3</ele>
    <time>2026-08-14T12:10:47Z</time>
   </trkpt>
   <trkpt lat="37.4297100" lon="127.0044920">
    <ele>75.4</ele>
    <time>2026-08-14T12:10:48Z</time>
   </trkpt>
   <trkpt lat="37.4297180" lon="127.0045020">
    <ele>75.5</ele>
    <time>2026-08-14T12:10:49Z</time>
   </trkpt>
   <trkpt lat="37.4297210" lon="127.0045250">
    <ele>75.7</ele>
    <time>2026-08-14T12:10:50Z</time>
   </trkpt>
   <trkpt lat="37.4297340" lon="127.0045380">
    <ele>75.8</ele>
    <time>2026-08-14T12:10:51Z</time>
   </trkpt>
   <trkpt lat="37.4297360" lon="127.0045580">
    <ele>76.0</ele>
    <time>2026-08-14T12:10:52Z</time>
   </trkpt>
   <trkpt lat="37.4297380" lon="127.0045720">
    <ele>76.1</ele>
    <time>2026-08-14T12:10:53Z</time>
   </trkpt>
   <trkpt lat="37.4297420" lon="127.0045900">
    <ele>76.2</ele>
    <time>2026-08-14T12:10:54Z</time>
   </trkpt>
   <trkpt lat="37.4297540" lon="127.0046070">
    <ele>76.4</ele>
    <time>2026-08-14T12:10:55Z</time>
   </trkpt>
   <trkpt lat="37.4297480" lon="127.0046270">
    <ele>76.5</ele>
    <time>2026-08-14T12:10:56Z</time>
   </trkpt>
   <trkpt lat="37.4297470" lon="127.0046390">
    <ele>76.6</ele>
    <time>2026-08-14T12:10:57Z</time>
   </trkpt>
   <trkpt lat="37.4297540" lon="127.0046480">
    <ele>76.7</ele>
    <time>2026-08-14T12:10:58Z</time>
   </trkpt>
   <trkpt lat="37.4297590" lon="127.0046550">
    <ele>76.8</ele>
    <time>2026-08-14T12:10:59Z</time>
   </trkpt>
   <trkpt lat="37.4297620" lon="127.0046660">
    <ele>76.9</ele>
    <time>2026-08-14T12:11:00Z</time>
   </trkpt>
   <trkpt lat="37.4297700" lon="127.0046770">
    <ele>77.0</ele>
    <time>2026-08-14T12:11:01Z</time>
   </trkpt>
   <trkpt lat="37.4297720" lon="127.0046900">
    <ele>77.1</ele>
    <time>2026-08-14T12:11:02Z</time>
   </trkpt>
   <trkpt lat="37.4297790" lon="127.0047000">
    <ele>77.3</ele>
    <time>2026-08-14T12:11:03Z</time>
   </trkpt>
   <trkpt lat="37.4297830" lon="127.0047030">
    <ele>77.3</ele>
    <time>2026-08-14T12:11:04Z</time>
   </trkpt>
   <trkpt lat="37.4297960" lon="127.0047210">
    <ele>77.6</ele>
    <time>2026-08-14T12:11:05Z</time>
   </trkpt>
   <trkpt lat="37.4298130" lon="127.0047390">
    <ele>77.8</ele>
    <time>2026-08-14T12:11:06Z</time>
   </trkpt>
   <trkpt lat="37.4298260" lon="127.0047510">
    <ele>78.0</ele>
    <time>2026-08-14T12:11:07Z</time>
   </trkpt>
   <trkpt lat="37.4298350" lon="127.0047730">
    <ele>78.3</ele>
    <time>2026-08-14T12:11:08Z</time>
   </trkpt>
   <trkpt lat="37.4298340" lon="127.0047960">
    <ele>78.5</ele>
    <time>2026-08-14T12:11:09Z</time>
   </trkpt>
   <trkpt lat="37.4298330" lon="127.0048190">
    <ele>78.7</ele>
    <time>2026-08-14T12:11:10Z</time>
   </trkpt>
   <trkpt lat="37.4298390" lon="127.0048370">
    <ele>78.9</ele>
    <time>2026-08-14T12:11:11Z</time>
   </trkpt>
   <trkpt lat="37.4298460" lon="127.0048440">
    <ele>79.0</ele>
    <time>2026-08-14T12:11:12Z</time>
   </trkpt>
   <trkpt lat="37.4298520" lon="127.0048490">
    <ele>79.1</ele>
    <time>2026-08-14T12:11:13Z</time>
   </trkpt>
   <trkpt lat="37.4298490" lon="127.0048630">
    <ele>79.2</ele>
    <time>2026-08-14T12:11:14Z</time>
   </trkpt>
   <trkpt lat="37.4298640" lon="127.0048850">
    <ele>79.5</ele>
    <time>2026-08-14T12:11:15Z</time>
   </trkpt>
   <trkpt lat="37.4298720" lon="127.0049010">
    <ele>79.7</ele>
    <time>2026-08-14T12:11:16Z</time>
   </trkpt>
   <trkpt lat="37.4298770" lon="127.0049150">
    <ele>79.8</ele>
    <time>2026-08-14T12:11:17Z</time>
   </trkpt>
   <trkpt lat="37.4298800" lon="127.0049280">
    <ele>80.0</ele>
    <time>2026-08-14T12:11:18Z</time>
   </trkpt>
   <trkpt lat="37.4298800" lon="127.0049280">
    <ele>80.0</ele>
    <time>2026-08-14T12:11:19Z</time>
   </trkpt>
  </trkseg>
 </trk>
</gpx>
