<?xml version="1.0" encoding="UTF-8"?>
<gpx creator="StravaGPX" version="1.1" xmlns="http://www.topografix.com/GPX/1/1" xmlns:xsi="http://www.w3.org/2001/XMLSchema-instance" xsi:schemaLocation="http://www.topografix.com/GPX/1/1 http://www.topografix.com/GPX/1/1/gpx.xsd">
 <metadata>
  <time>2026-08-14T12:12:35Z</time>
 </metadata>
 <trk>
  <name>descending_downhill_T2</name>
  <type>walking</type>
  <trkseg>
   <trkpt lat="37.4299100" lon="127.0050590">
    <ele>81.3</ele>
    <time>2026-08-14T12:12:35Z</time>
   </trkpt>
   <trkpt lat="37.4299100" lon="127.0050590">
    <ele>81.3</ele>
    <time>2026-08-14T12:12:36Z</time>
   </trkpt>
   <trkpt lat="37.4299020" lon="127.0050270">
    <ele>81.0</ele>
    <time>2026-08-14T12:12:37Z</time>
   </trkpt>
   <trkpt lat="37.4299030" lon="127.0050270">
    <ele>81.0</ele>
    <time>2026-08-14T12:12:38Z</time>
   </trkpt>
   <trkpt lat="37.4298970" lon="127.0050030">
    <ele>80.8</ele>
    <time>2026-08-14T12:12:39Z</time>
   </trkpt>
   <trkpt lat="37.4298870" lon="127.0049770">
    <ele>80.5</ele>
    <time>2026-08-14T12:12:40Z</time>
   </trkpt>
   <trkpt lat="37.4298760" lon="127.0049640">
    <ele>80.4</ele>
    <time>2026-08-14T12:12:41Z</time>
   </trkpt>
   <trkpt lat="37.4298670" lon="127.0049620">
    <ele>80.3</ele>
    <time>2026-08-14T12:12:42Z</time>
   </trkpt>
   <trkpt lat="37.4298600" lon="127.0049530">
    <ele>80.2</ele>
    <time>2026-08-14T12:12:43Z</time>
   </trkpt>
   <trkpt lat="37.4298530" lon="127.0049400">
    <ele>80.0</ele>
    <time>2026-08-14T12:12:44Z</time>
   </trkpt>
   <trkpt lat="37.4298400" lon="127.0049150">
    <ele>79.8</ele>
    <time>2026-08-14T12:12:45Z</time>
   </trkpt>
   <trkpt lat="37.4298310" lon="127.0049010">
    <ele>79.6</ele>
    <time>2026-08-14T12:12:46Z</time>
   </trkpt>
   <trkpt lat="37.4298320" lon="127.0049330">
    <ele>79.4</ele>
    <time>2026-08-14T12:12:47Z</time>
   </trkpt>
   <trkpt lat="37.4298320" lon="127.0048990">
    <ele>79.1</ele>
    <time>2026-08-14T12:12:48Z</time>
   </trkpt>
   <trkpt lat="37.4298120" lon="127.0048840">
    <ele>78.9</ele>
    <time>2026-08-14T12:12:49Z</time>
   </trkpt>
   <trkpt lat="37.4298010" lon="127.0048680">
    <ele>78.7</ele>
    <time>2026-08-14T12:12:50Z</time>
   </trkpt>
   <trkpt lat="37.4297950" lon="127.0048620">
    <ele>78.6</ele>
    <time>2026-08-14T12:12:51Z</time>
   </trkpt>
   <trkpt lat="37.4297950" lon="127.0048380">
    <ele>78.4</ele>
    <time>2026-08-14T12:12:52Z</time>
   </trkpt>
   <trkpt lat="37.4297880" lon="127.0048200">
    <ele>78.2</ele>
    <time>2026-08-14T12:12:53Z</time>
   </trkpt>
   <trkpt lat="37.4297860" lon="127.0047990">
    <ele>78.1</ele>
    <time>2026-08-14T12:12:54Z</time>
   </trkpt>
   <trkpt lat="37.4297870" lon="127.0047720">
    <ele>77.8</ele>
    <time>2026-08-14T12:12:55Z</time>
   </trkpt>
   <trkpt lat="37.4297870" lon="127.0047490">
    <ele>77.7</ele>
    <time>2026-08-14T12:12:56Z</time>
   </trkpt>
   <trkpt lat="37.4297700" lon="127.0047150">
    <ele>77.3</ele>
    <time>2026-08-14T12:12:57Z</time>
   </trkpt>
   <trkpt lat="37.4297590" lon="127.0047090">
    <ele>77.2</ele>
    <time>2026-08-14T12:12:58Z</time>
   </trkpt>
   <trkpt lat="37.4297450" lon="127.0046890">
    <ele>77.0</ele>
    <time>2026-08-14T12:12:59Z</time>
   </trkpt>
   <trkpt lat="37.4297340" lon="127.0046760">
    <ele>76.8</ele>
    <time>2026-08-14T12:13:00Z</time>
   </trkpt>
   <trkpt lat="37.4297330" lon="127.0046640">
    <ele>76.7</ele>
    <time>2026-08-14T12:13:01Z</time>
   </trkpt>
   <trkpt lat="37.4297250" lon="127.0046540">
    <ele>76.6</ele>
    <time>2026-08-14T12:13:02Z</time>
   </trkpt>
   <trkpt lat="37.4297120" lon="127.0046370">
    <ele>76.5</ele>
    <time>2026-08-14T12:13:03Z</time>
   </trkpt>
   <trkpt lat="37.4297150" lon="127.0046360">
    <ele>76.4</ele>
    <time>2026-08-14T12:13:04Z</time>
   </trkpt>
   <trkpt lat="37.4296990" lon="127.0046130">
    <ele>76.2</ele>
    <time>2026-08-14T12:13:05Z</time>
   </trkpt>
   <trkpt lat="37.4296930" lon="127.0046030">
    <ele>76.1</ele>
    <time>2026-08-14T12:13:06Z</time>
   </trkpt>
   <trkpt lat="37.4296870" lon="127.0045940">
    <ele>76.0</ele>
    <time>2026-08-14T12:13:07Z</time>
   </trkpt>
   <trkpt lat="37.4296830" lon="127.0045820">
    <ele>75.9</ele>
    <time>2026-08-14T12:13:08Z</time>
   </trkpt>
   <trkpt lat="37.4296790" lon="127.0045540">
    <ele>75.7</ele>
    <time>2026-08-14T12:13:09Z</time>
   </trkpt>
   <trkpt lat="37.4296760" lon="127.0045320">
    <ele>75.5</ele>
    <time>2026-08-14T12:13:10Z</time>
   </trkpt>
   <trkpt lat="37.4296790" lon="127.0045190">
    <ele>75.4</ele>
    <time>2026-08-14T12:13:11Z</time>
   </trkpt>
   <trkpt lat="37.4296750" lon="127.0044910">
    <ele>75.2</ele>
    <time>2026-08-14T12:13:12Z</time>
   </trkpt>
   <trkpt lat="37.4296690" lon="127.0044700">
    <ele>75.0</ele>
    <time>2026-08-14T12:13:13Z</time>
   </trkpt>
   <trkpt lat="37.4296620" lon="127.0044570">
    <ele>74.9</ele>
    <time>2026-08-14T12:13:14Z</time>
   </trkpt>
   <trkpt lat="37.4296550" lon="127.0044400">
    <ele>74.8</ele>
    <time>2026-08-14T12:13:15Z</time>
   </trkpt>
   <trkpt lat="37.4296500" lon="127.0044190">
    <ele>74.6</ele>
    <time>2026-08-14T12:13:16Z</time>
   </trkpt>
   <trkpt lat="37.4296420" lon="127.0044010">
    <ele>74.5</ele>
    <time>2026-08-14T12:13:17Z</time>
   </trkpt>
   <trkpt lat="37.4296330" lon="127.0043890">
    <ele>74.4</ele>
    <time>2026-08-14T12:13:18Z</time>
   </trkpt>
   <trkpt lat="37.4296240" lon="127.0043770">
    <ele>74.2</ele>
    <time>2026-08-14T12:13:19Z</time>
   </trkpt>
   <trkpt lat="37.4296140" lon="127.0043650">
    <ele>74.1</ele>
    <time>2026-08-14T12:13:20Z</time>
   </trkpt>
   <trkpt lat="37.4295900" lon="127.0043620">
    <ele>73.9</ele>
    <time>2026-08-14T12:13:21Z</time>
   </trkpt>
   <trkpt lat="37.4295760" lon="127.0043530">
    <ele>73.8</ele>
    <time>2026-08-14T12:13:22Z</time>
   </trkpt>
   <trkpt lat="37.4295680" lon="127.0043350">
    <ele>73.6</ele>
    <time>2026-08-14T12:13:23Z</time>
   </trkpt>
   <trkpt lat="37.4295620" lon="127.0043140">
    <ele>73.5</ele>
    <time>2026-08-14T12:13:24Z</time>
   </trkpt>
   <trkpt lat="37.4295570" lon="127.0042950">
    <ele>73.3</ele>
    <time>2026-08-14T12:13:25Z</time>
   </trkpt>
   <trkpt lat="37.4295490" lon="127.0042810">
    <ele>73.2</ele>
    <time>2026-08-14T12:13:27Z</time>
   </trkpt>
   <trkpt lat="37.4295410" lon="127.0042650">
    <ele>73.0</ele>
    <time>2026-08-14T12:13:28Z</time>
   </trkpt>
   <trkpt lat="37.4295310" lon="127.0042540">
    <ele>72.9</ele>
    <time>2026-08-14T12:13:29Z</time>
   </trkpt>
   <trkpt lat="37.4295210" lon="127.0042440">
    <ele>72.8</ele>
    <time>2026-08-14T12:13:30Z</time>
   </trkpt>
   <trkpt lat="37.4295110" lon="127.0042360">
    <ele>72.7</ele>
    <time>2026-08-14T12:13:31Z</time>
   </trkpt>
   <trkpt lat="37.4295070" lon="127.0042180">
    <ele>72.6</ele>
    <time>2026-08-14T12:13:32Z</time>
   </trkpt>
   <trkpt lat="37.4295040" lon="127.0042000">
    <ele>72.4</ele>
    <time>2026-08-14T12:13:33Z</time>
   </trkpt>
   <trkpt lat="37.4295030" lon="127.0041770">
    <ele>72.3</ele>
    <time>2026-08-14T12:13:34Z</time>
   </trkpt>
   <trkpt lat="37.4295000" lon="127.0041530">
    <ele>72.1</ele>
    <time>2026-08-14T12:13:35Z</time>
   </trkpt>
   <trkpt lat="37.4295010" lon="127.0041290">
    <ele>71.9</ele>
    <time>2026-08-14T12:13:36Z</time>
   </trkpt>
   <trkpt lat="37.4295020" lon="127.0041070">
    <ele>71.7</ele>
    <time>2026-08-14T12:13:37Z</time>
   </trkpt>
   <trkpt lat="37.4294990" lon="127.0040880">
    <ele>71.6</ele>
    <time>2026-08-14T12:13:38Z</time>
   </trkpt>
   <trkpt lat="37.4294950" lon="127.0040700">
    <ele>71.5</ele>
    <time>2026-08-14T12:13:39Z</time>
   </trkpt>
   <trkpt lat="37.4294890" lon="127.0040550">
    <ele>71.4</ele>
    <time>2026-08-14T12:13:40Z</time>
   </trkpt>
   <trkpt lat="37.4294810" lon="127.0040450">
    <ele>71.3</ele>
    <time>2026-08-14T12:13:41Z</time>
   </trkpt>
   <trkpt lat="37.4294770" lon="127.0040280">
    <ele>71.1</ele>
    <time>2026-08-14T12:13:42Z</time>
   </trkpt>
   <trkpt lat="37.4294720" lon="127.0040090">
    <ele>71.0</ele>
    <time>2026-08-14T12:13:43Z</time>
   </trkpt>
   <trkpt lat="37.4294650" lon="127.0039940">
    <ele>70.9</ele>
    <time>2026-08-14T12:13:44Z</time>
   </trkpt>
   <trkpt lat="37.4294590" lon="127.0039770">
    <ele>70.8</ele>
    <time>2026-08-14T12:13:45Z</time>
   </trkpt>
   <trkpt lat="37.4294470" lon="127.0039630">
    <ele>70.6</ele>
    <time>2026-08-14T12:13:46Z</time>
   </trkpt>
   <trkpt lat="37.4294360" lon="127.0039480">
    <ele>70.5</ele>
    <time>2026-08-14T12:13:47Z</time>
   </trkpt>
   <trkpt lat="37.4294250" lon="127.0039330">
    <ele>70.3</ele>
    <time>2026-08-14T12:13:48Z</time>
   </trkpt>
   <trkpt lat="37.4294110" lon="127.0039160">
    <ele>70.2</ele>
    <time>2026-08-14T12:13:49Z</time>
   </trkpt>
   <trkpt lat="37.4293950" lon="127.0039070">
    <ele>70.0</ele>
    <time>2026-08-14T12:13:50Z</time>
   </trkpt>
   <trkpt lat="37.4293780" lon="127.0038980">
    <ele>69.9</ele>
    <time>2026-08-14T12:13:51Z</time>
   </trkpt>
   <trkpt lat="37.4293750" lon="127.0038780">
    <ele>69.7</ele>
    <time>2026-08-14T12:13:52Z</time>
   </trkpt>
   <trkpt lat="37.4293590" lon="127.0038730">
    <ele>69.6</ele>
    <time>2026-08-14T12:13:53Z</time>
   </trkpt>
   <trkpt lat="37.4293560" lon="127.0038580">
    <ele>69.5</ele>
    <time>2026-08-14T12:13:54Z</time>
   </trkpt>
   <trkpt lat="37.4293520" lon="127.0038450">
    <ele>69.4</ele>
    <time>2026-08-14T12:13:55Z</time>
   </trkpt>
   <trkpt lat="37.4293460" lon="127.0038360">
    <ele>69.3</ele>
    <time>2026-08-14T12:13:56Z</time>
   </trkpt>
   <trkpt lat="37.4293470" lon="127.0038230">
    <ele>69.2</ele>
    <time>2026-08-14T12:13:57Z</time>
   </trkpt>
   <trkpt lat="37.4293530" lon="127.0038100">
    <ele>69.1</ele>
    <time>2026-08-14T12:13:58Z</time>
   </trkpt>
   <trkpt lat="37.4293550" lon="127.0037890">
    <ele>69.0</ele>
    <time>2026-08-14T12:13:59Z</time>
   </trkpt>
   <trkpt lat="37.4293690" lon="127.0037740">
    <ele>68.8</ele>
    <time>2026-08-14T12:14:00Z</time>
   </trkpt>
   <trkpt lat="37.4293550" lon="127.0037810">
    <ele>68.7</ele>
    <time>2026-08-14T12:14:01Z</time>
   </trkpt>
   <trkpt lat="37.4293350" lon="127.0037490">
    <ele>68.4</ele>
    <time>2026-08-14T12:14:02Z</time>
   </trkpt>
   <trkpt lat="37.4293270" lon="127.0037040">
    <ele>68.1</ele>
    <time>2026-08-14T12:14:03Z</time>
   </trkpt>
   <trkpt lat="37.4293270" lon="127.0036820">
    <ele>67.9</ele>
    <time>2026-08-14T12:14:04Z</time>
   </trkpt>
   <trkpt lat="37.4293220" lon="127.0036770">
    <ele>67.9</ele>
    <time>2026-08-14T12:14:05Z</time>
   </trkpt>
   <trkpt lat="37.4293120" lon="127.0036730">
    <ele>67.8</ele>
    <time>2026-08-14T12:14:06Z</time>
   </trkpt>
   <trkpt lat="37.4293090" lon="127.0036450">
    <ele>67.6</ele>
    <time>2026-08-14T12:14:07Z</time>
   </trkpt>
   <trkpt lat="37.4292990" lon="127.0036230">
    <ele>67.5</ele>
    <time>2026-08-14T12:14:08Z</time>
   </trkpt>
   <trkpt lat="37.4293000" lon="127.0036130">
    <ele>67.4</ele>
    <time>2026-08-14T12:14:09Z</time>
   </trkpt>
   <trkpt lat="37.4292870" lon="127.0035910">
    <ele>67.2</ele>
    <time>2026-08-14T12:14:10Z</time>
   </trkpt>
   <trkpt lat="37.4292710" lon="127.0035830">
    <ele>67.1</ele>
    <time>2026-08-14T12:14:11Z</time>
   </trkpt>
   <trkpt lat="37.4292440" lon="127.0035700">
    <ele>66.9</ele>
    <time>2026-08-14T12:14:12Z</time>
   </trkpt>
   <trkpt lat="37.4292260" lon="127.0035780">
    <ele>66.7</ele>
    <time>2026-08-14T12:14:13Z</time>
   </trkpt>
   <trkpt lat="37.4292020" lon="127.0035690">
    <ele>66.5</ele>
    <time>2026-08-14T12:14:14Z</time>
   </trkpt>
   <trkpt lat="37.4291960" lon="127.0035560">
    <ele>66.4</ele>
    <time>2026-08-14T12:14:15Z</time>
   </trkpt>
   <trkpt lat="37.4291780" lon="127.0035520">
    <ele>66.3</ele>
    <time>2026-08-14T12:14:16Z</time>
   </trkpt>
   <trkpt lat="37.4291660" lon="127.0035370">
    <ele>66.2</ele>
    <time>2026-08-14T12:14:17Z</time>
   </trkpt>
   <trkpt lat="37.4291520" lon="127.0035060">
    <ele>66.0</ele>
    <time>2026-08-14T12:14:18Z</time>
   </trkpt>
   <trkpt lat="37.4291550" lon="127.0034970">
    <ele>65.9</ele>
    <time>2026-08-14T12:14:19Z</time>
   </trkpt>
   <trkpt lat="37.4291350" lon="127.0034910">
    <ele>65.8</ele>
    <time>2026-08-14T12:14:20Z</time>
   </trkpt>
   <trkpt lat="37.4291380" lon="127.0034680">
    <ele>65.7</ele>
    <time>2026-08-14T12:14:21Z</time>
   </trkpt>
   <trkpt lat="37.4291340" lon="127.0034510">
    <ele>65.6</ele>
    <time>2026-08-14T12:14:22Z</time>
   </trkpt>
   <trkpt lat="37.4291370" lon="127.0034310">
    <ele>65.5</ele>
    <time>2026-08-14T12:14:23Z</time>
   </trkpt>
   <trkpt lat="37.4291390" lon="127.0034080">
    <ele>65.3</ele>
    <time>2026-08-14T12:14:24Z</time>
   </trkpt>
   <trkpt lat="37.4291390" lon="127.0033890">
    <ele>65.2</ele>
    <time>2026-08-14T12:14:25Z</time>
   </trkpt>
   <trkpt lat="37.4291340" lon="127.0033720">
    <ele>65.1</ele>
    <time>2026-08-14T12:14:26Z</time>
   </trkpt>
   <trkpt lat="37.4291220" lon="127.0033670">
    <ele>65.1</ele>
    <time>2026-08-14T12:14:27Z</time>
   </trkpt>
   <trkpt lat="37.4291090" lon="127.0033630">
    <ele>65.0</ele>
    <time>2026-08-14T12:14:28Z</time>
   </trkpt>
   <trkpt lat="37.4291050" lon="127.0033420">
    <ele>64.9</ele>
    <time>2026-08-14T12:14:29Z</time>
   </trkpt>
   <trkpt lat="37.4291020" lon="127.0033170">
    <ele>64.7</ele>
    <time>2026-08-14T12:14:30Z</time>
   </trkpt>
   <trkpt lat="37.4291050" lon="127.0033020">
    <ele>64.7</ele>
    <time>2026-08-14T12:14:31Z</time>
   </trkpt>
   <trkpt lat="37.4290990" lon="127.0032770">
    <ele>64.5</ele>
    <time>2026-08-14T12:14:32Z</time>
   </trkpt>
   <trkpt lat="37.4290950" lon="127.0032660">
    <ele>64.5</ele>
    <time>2026-08-14T12:14:33Z</time>
   </trkpt>
   <trkpt lat="37.4290920" lon="127.0032450">
    <ele>64.4</ele>
    <time>2026-08-14T12:14:34Z</time>
   </trkpt>
   <trkpt lat="37.4290910" lon="127.0032190">
    <ele>64.2</ele>
    <time>2026-08-14T12:14:35Z</time>
   </trkpt>
   <trkpt lat="37.4290850" lon="127.0032010">
    <ele>64.2</ele>
    <time>2026-08-14T12:14:36Z</time>
   </trkpt>
   <trkpt lat="37.4290700" lon="127.0031920">
    <ele>64.1</ele>
    <time>2026-08-14T12:14:37Z</time>
   </trkpt>
  </trkseg>
 </trk>
</gpx>
