<?xml version="1.0" encoding="UTF-8"?>
<gpx creator="StravaGPX" version="1.1" xmlns="http://www.topografix.com/GPX/1/1" xmlns:xsi="http://www.w3.org/2001/XMLSchema-instance" xsi:schemaLocation="http://www.topografix.com/GPX/1/1 http://www.topografix.com/GPX/1/1/gpx.xsd">
 <metadata>
  <time>2026-08-18T03:59:07Z</time>
 </metadata>
 <trk>
  <name>홍민기_가파른내리막길_6</name>
  <type>walking</type>
  <trkseg>
   <trkpt lat="36.3305530" lon="127.4092100">
    <ele>65.5</ele>
    <time>2026-08-18T03:59:07Z</time>
   </trkpt>
   <trkpt lat="36.3305500" lon="127.4092130">
    <ele>65.5</ele>
    <time>2026-08-18T03:59:08Z</time>
   </trkpt>
   <trkpt lat="36.3305450" lon="127.4092130">
    <ele>65.5</ele>
    <time>2026-08-18T03:59:09Z</time>
   </trkpt>
   <trkpt lat="36.3305390" lon="127.4092090">
    <ele>65.5</ele>
    <time>2026-08-18T03:59:11Z</time>
   </trkpt>
   <trkpt lat="36.3305330" lon="127.4092030">
    <ele>65.6</ele>
    <time>2026-08-18T03:59:12Z</time>
   </trkpt>
   <trkpt lat="36.3305270" lon="127.4091980">
    <ele>65.6</ele>
    <time>2026-08-18T03:59:13Z</time>
   </trkpt>
   <trkpt lat="36.3305210" lon="127.4091900">
    <ele>65.6</ele>
    <time>2026-08-18T03:59:14Z</time>
   </trkpt>
   <trkpt lat="36.3305160" lon="127.4091890">
    <ele>65.6</ele>
    <time>2026-08-18T03:59:15Z</time>
   </trkpt>
   <trkpt lat="36.3305130" lon="127.4091900">
    <ele>65.6</ele>
    <time>2026-08-18T03:59:16Z</time>
   </trkpt>
   <trkpt lat="36.3305050" lon="127.4091830">
    <ele>65.6</ele>
    <time>2026-08-18T03:59:17Z</time>
   </trkpt>
   <trkpt lat="36.3305050" lon="127.4091740">
    <ele>65.6</ele>
    <time>2026-08-18T03:59:18Z</time>
   </trkpt>
   <trkpt lat="36.3304980" lon="127.4091710">
    <ele>65.7</ele>
    <time>2026-08-18T03:59:19Z</time>
   </trkpt>
   <trkpt lat="36.3304920" lon="127.4091660">
    <ele>65.7</ele>
    <time>2026-08-18T03:59:20Z</time>
   </trkpt>
   <trkpt lat="36.3304850" lon="127.4091540">
    <ele>65.7</ele>
    <time>2026-08-18T03:59:21Z</time>
   </trkpt>
   <trkpt lat="36.3304790" lon="127.4091500">
    <ele>65.7</ele>
    <time>2026-08-18T03:59:22Z</time>
   </trkpt>
   <trkpt lat="36.3304690" lon="127.4091460">
    <ele>65.7</ele>
    <time>2026-08-18T03:59:23Z</time>
   </trkpt>
   <trkpt lat="36.3304640" lon="127.4091360">
    <ele>65.7</ele>
    <time>2026-08-18T03:59:24Z</time>
   </trkpt>
   <trkpt lat="36.3304490" lon="127.4091140">
    <ele>65.8</ele>
    <time>2026-08-18T03:59:25Z</time>
   </trkpt>
   <trkpt lat="36.3304420" lon="127.4091090">
    <ele>65.8</ele>
    <time>2026-08-18T03:59:26Z</time>
   </trkpt>
   <trkpt lat="36.3304290" lon="127.4091040">
    <ele>65.8</ele>
    <time>2026-08-18T03:59:27Z</time>
   </trkpt>
   <trkpt lat="36.3304210" lon="127.4090920">
    <ele>65.8</ele>
    <time>2026-08-18T03:59:28Z</time>
   </trkpt>
   <trkpt lat="36.3304180" lon="127.4090870">
    <ele>65.8</ele>
    <time>2026-08-18T03:59:29Z</time>
   </trkpt>
   <trkpt lat="36.3304150" lon="127.4090770">
    <ele>65.8</ele>
    <time>2026-08-18T03:59:30Z</time>
   </trkpt>
   <trkpt lat="36.3304110" lon="127.4090670">
    <ele>65.8</ele>
    <time>2026-08-18T03:59:31Z</time>
   </trkpt>
   <trkpt lat="36.3304100" lon="127.4090570">
    <ele>65.8</ele>
    <time>2026-08-18T03:59:32Z</time>
   </trkpt>
   <trkpt lat="36.3304070" lon="127.4090470">
    <ele>65.9</ele>
    <time>2026-08-18T03:59:33Z</time>
   </trkpt>
   <trkpt lat="36.3304020" lon="127.4090410">
    <ele>65.9</ele>
    <time>2026-08-18T03:59:34Z</time>
   </trkpt>
   <trkpt lat="36.3303970" lon="127.4090270">
    <ele>65.9</ele>
    <time>2026-08-18T03:59:35Z</time>
   </trkpt>
   <trkpt lat="36.3303910" lon="127.4090220">
    <ele>65.9</ele>
    <time>2026-08-18T03:59:36Z</time>
   </trkpt>
   <trkpt lat="36.3303830" lon="127.4090190">
    <ele>65.9</ele>
    <time>2026-08-18T03:59:37Z</time>
   </trkpt>
   <trkpt lat="36.3303770" lon="127.4090150">
    <ele>65.9</ele>
    <time>2026-08-18T03:59:38Z</time>
   </trkpt>
   <trkpt lat="36.3303680" lon="127.4090080">
    <ele>65.9</ele>
    <time>2026-08-18T03:59:39Z</time>
   </trkpt>
   <trkpt lat="36.3303620" lon="127.4090040">
    <ele>65.9</ele>
    <time>2026-08-18T03:59:40Z</time>
   </trkpt>
   <trkpt lat="36.3303580" lon="127.4089960">
    <ele>65.9</ele>
    <time>2026-08-18T03:59:41Z</time>
   </trkpt>
   <trkpt lat="36.3303500" lon="127.4089890">
    <ele>65.9</ele>
    <time>2026-08-18T03:59:42Z</time>
   </trkpt>
   <trkpt lat="36.3303400" lon="127.4089790">
    <ele>65.9</ele>
    <time>2026-08-18T03:59:43Z</time>
   </trkpt>
   <trkpt lat="36.3303320" lon="127.4089730">
    <ele>65.9</ele>
    <time>2026-08-18T03:59:44Z</time>
   </trkpt>
   <trkpt lat="36.3303290" lon="127.4089640">
    <ele>65.9</ele>
    <time>2026-08-18T03:59:45Z</time>
   </trkpt>
   <trkpt lat="36.3303260" lon="127.4089600">
    <ele>65.9</ele>
    <time>2026-08-18T03:59:46Z</time>
   </trkpt>
   <trkpt lat="36.3303200" lon="127.4089540">
    <ele>65.9</ele>
    <time>2026-08-18T03:59:47Z</time>
   </trkpt>
   <trkpt lat="36.3303110" lon="127.4089550">
    <ele>65.9</ele>
    <time>2026-08-18T03:59:48Z</time>
   </trkpt>
   <trkpt lat="36.3303080" lon="127.4089470">
    <ele>65.9</ele>
    <time>2026-08-18T03:59:49Z</time>
   </trkpt>
   <trkpt lat="36.3303090" lon="127.4089340">
    <ele>65.9</ele>
    <time>2026-08-18T03:59:50Z</time>
   </trkpt>
   <trkpt lat="36.3303100" lon="127.4089290">
    <ele>65.9</ele>
    <time>2026-08-18T03:59:51Z</time>
   </trkpt>
   <trkpt lat="36.3302940" lon="127.4089120">
    <ele>65.9</ele>
    <time>2026-08-18T03:59:52Z</time>
   </trkpt>
   <trkpt lat="36.3302880" lon="127.4088990">
    <ele>65.9</ele>
    <time>2026-08-18T03:59:53Z</time>
   </trkpt>
   <trkpt lat="36.3302850" lon="127.4088950">
    <ele>65.9</ele>
    <time>2026-08-18T03:59:54Z</time>
   </trkpt>
   <trkpt lat="36.3302750" lon="127.4088670">
    <ele>65.9</ele>
    <time>2026-08-18T03:59:55Z</time>
   </trkpt>
   <trkpt lat="36.3302760" lon="127.4088710">
    <ele>65.9</ele>
    <time>2026-08-18T03:59:56Z</time>
   </trkpt>
   <trkpt lat="36.3302770" lon="127.4088620">
    <ele>65.9</ele>
    <time>2026-08-18T03:59:57Z</time>
   </trkpt>
   <trkpt lat="36.3302710" lon="127.4088540">
    <ele>65.8</ele>
    <time>2026-08-18T03:59:58Z</time>
   </trkpt>
   <trkpt lat="36.3302670" lon="127.4088470">
    <ele>65.8</ele>
    <time>2026-08-18T03:59:59Z</time>
   </trkpt>
   <trkpt lat="36.3302560" lon="127.4088390">
    <ele>65.8</ele>
    <time>2026-08-18T04:00:00Z</time>
   </trkpt>
   <trkpt lat="36.3302520" lon="127.4088340">
    <ele>65.8</ele>
    <time>2026-08-18T04:00:01Z</time>
   </trkpt>
   <trkpt lat="36.3302440" lon="127.4088260">
    <ele>65.8</ele>
    <time>2026-08-18T04:00:02Z</time>
   </trkpt>
   <trkpt lat="36.3302410" lon="127.4088150">
    <ele>65.8</ele>
    <time>2026-08-18T04:00:03Z</time>
   </trkpt>
   <trkpt lat="36.3302400" lon="127.4088110">
    <ele>65.8</ele>
    <time>2026-08-18T04:00:04Z</time>
   </trkpt>
   <trkpt lat="36.3302360" lon="127.4088000">
    <ele>65.8</ele>
    <time>2026-08-18T04:00:05Z</time>
   </trkpt>
   <trkpt lat="36.3302340" lon="127.4087910">
    <ele>65.7</ele>
    <time>2026-08-18T04:00:06Z</time>
   </trkpt>
   <trkpt lat="36.3302300" lon="127.4087780">
    <ele>65.7</ele>
    <time>2026-08-18T04:00:07Z</time>
   </trkpt>
   <trkpt lat="36.3302250" lon="127.4087650">
    <ele>65.7</ele>
    <time>2026-08-18T04:00:08Z</time>
   </trkpt>
   <trkpt lat="36.3302210" lon="127.4087530">
    <ele>65.7</ele>
    <time>2026-08-18T04:00:09Z</time>
   </trkpt>
   <trkpt lat="36.3302140" lon="127.4087350">
    <ele>65.6</ele>
    <time>2026-08-18T04:00:10Z</time>
   </trkpt>
   <trkpt lat="36.3301980" lon="127.4087270">
    <ele>65.6</ele>
    <time>2026-08-18T04:00:11Z</time>
   </trkpt>
   <trkpt lat="36.3301820" lon="127.4087180">
    <ele>65.5</ele>
    <time>2026-08-18T04:00:12Z</time>
   </trkpt>
   <trkpt lat="36.3301870" lon="127.4087090">
    <ele>65.5</ele>
    <time>2026-08-18T04:00:13Z</time>
   </trkpt>
   <trkpt lat="36.3301810" lon="127.4086970">
    <ele>65.5</ele>
    <time>2026-08-18T04:00:14Z</time>
   </trkpt>
   <trkpt lat="36.3301710" lon="127.4086900">
    <ele>65.5</ele>
    <time>2026-08-18T04:00:15Z</time>
   </trkpt>
   <trkpt lat="36.3301540" lon="127.4086950">
    <ele>65.4</ele>
    <time>2026-08-18T04:00:16Z</time>
   </trkpt>
   <trkpt lat="36.3301450" lon="127.4086860">
    <ele>65.4</ele>
    <time>2026-08-18T04:00:17Z</time>
   </trkpt>
   <trkpt lat="36.3301440" lon="127.4086770">
    <ele>65.4</ele>
    <time>2026-08-18T04:00:18Z</time>
   </trkpt>
   <trkpt lat="36.3301390" lon="127.4086720">
    <ele>65.3</ele>
    <time>2026-08-18T04:00:19Z</time>
   </trkpt>
   <trkpt lat="36.3301300" lon="127.4086650">
    <ele>65.3</ele>
    <time>2026-08-18T04:00:20Z</time>
   </trkpt>
   <trkpt lat="36.3301300" lon="127.4086650">
    <ele>65.3</ele>
    <time>2026-08-18T04:00:21Z</time>
   </trkpt>
   <trkpt lat="36.3301290" lon="127.4086580">
    <ele>65.3</ele>
    <time>2026-08-18T04:00:22Z</time>
   </trkpt>
   <trkpt lat="36.3301220" lon="127.4086470">
    <ele>65.3</ele>
    <time>2026-08-18T04:00:23Z</time>
   </trkpt>
   <trkpt lat="36.3301190" lon="127.4086390">
    <ele>65.2</ele>
    <time>2026-08-18T04:00:24Z</time>
   </trkpt>
   <trkpt lat="36.3301170" lon="127.4086290">
    <ele>65.2</ele>
    <time>2026-08-18T04:00:25Z</time>
   </trkpt>
   <trkpt lat="36.3301130" lon="127.4086180">
    <ele>65.2</ele>
    <time>2026-08-18T04:00:26Z</time>
   </trkpt>
   <trkpt lat="36.3301140" lon="127.4086080">
    <ele>65.2</ele>
    <time>2026-08-18T04:00:27Z</time>
   </trkpt>
   <trkpt lat="36.3301000" lon="127.4086000">
    <ele>65.1</ele>
    <time>2026-08-18T04:00:28Z</time>
   </trkpt>
   <trkpt lat="36.3300970" lon="127.4085890">
    <ele>65.1</ele>
    <time>2026-08-18T04:00:29Z</time>
   </trkpt>
   <trkpt lat="36.3300930" lon="127.4085780">
    <ele>65.1</ele>
    <time>2026-08-18T04:00:30Z</time>
   </trkpt>
   <trkpt lat="36.3300890" lon="127.4085700">
    <ele>65.0</ele>
    <time>2026-08-18T04:00:31Z</time>
   </trkpt>
   <trkpt lat="36.3300840" lon="127.4085650">
    <ele>65.0</ele>
    <time>2026-08-18T04:00:32Z</time>
   </trkpt>
   <trkpt lat="36.3300780" lon="127.4085590">
    <ele>65.0</ele>
    <time>2026-08-18T04:00:33Z</time>
   </trkpt>
   <trkpt lat="36.3300750" lon="127.4085520">
    <ele>65.0</ele>
    <time>2026-08-18T04:00:34Z</time>
   </trkpt>
   <trkpt lat="36.3300720" lon="127.4085430">
    <ele>64.9</ele>
    <time>2026-08-18T04:00:35Z</time>
   </trkpt>
   <trkpt lat="36.3300640" lon="127.4085370">
    <ele>64.9</ele>
    <time>2026-08-18T04:00:36Z</time>
   </trkpt>
   <trkpt lat="36.3300530" lon="127.4085260">
    <ele>64.9</ele>
    <time>2026-08-18T04:00:37Z</time>
   </trkpt>
   <trkpt lat="36.3300460" lon="127.4085150">
    <ele>64.9</ele>
    <time>2026-08-18T04:00:38Z</time>
   </trkpt>
   <trkpt lat="36.3300520" lon="127.4085040">
    <ele>64.9</ele>
    <time>2026-08-18T04:00:39Z</time>
   </trkpt>
   <trkpt lat="36.3300460" lon="127.4084920">
    <ele>64.9</ele>
    <time>2026-08-18T04:00:40Z</time>
   </trkpt>
   <trkpt lat="36.3300400" lon="127.4084850">
    <ele>64.9</ele>
    <time>2026-08-18T04:00:41Z</time>
   </trkpt>
   <trkpt lat="36.3300340" lon="127.4084820">
    <ele>64.8</ele>
    <time>2026-08-18T04:00:42Z</time>
   </trkpt>
   <trkpt lat="36.3300270" lon="127.4084740">
    <ele>64.8</ele>
    <time>2026-08-18T04:00:43Z</time>
   </trkpt>
   <trkpt lat="36.3300210" lon="127.4084640">
    <ele>64.8</ele>
    <time>2026-08-18T04:00:44Z</time>
   </trkpt>
   <trkpt lat="36.3300180" lon="127.4084520">
    <ele>64.8</ele>
    <time>2026-08-18T04:00:45Z</time>
   </trkpt>
   <trkpt lat="36.3300040" lon="127.4084330">
    <ele>64.8</ele>
    <time>2026-08-18T04:00:46Z</time>
   </trkpt>
   <trkpt lat="36.3299990" lon="127.4084320">
    <ele>64.8</ele>
    <time>2026-08-18T04:00:47Z</time>
   </trkpt>
   <trkpt lat="36.3299910" lon="127.4084250">
    <ele>64.8</ele>
    <time>2026-08-18T04:00:48Z</time>
   </trkpt>
   <trkpt lat="36.3299820" lon="127.4084180">
    <ele>64.8</ele>
    <time>2026-08-18T04:00:49Z</time>
   </trkpt>
   <trkpt lat="36.3299750" lon="127.4084140">
    <ele>64.8</ele>
    <time>2026-08-18T04:00:50Z</time>
   </trkpt>
   <trkpt lat="36.3299660" lon="127.4084070">
    <ele>64.7</ele>
    <time>2026-08-18T04:00:51Z</time>
   </trkpt>
   <trkpt lat="36.3299570" lon="127.4084030">
    <ele>64.7</ele>
    <time>2026-08-18T04:00:52Z</time>
   </trkpt>
   <trkpt lat="36.3299490" lon="127.4083920">
    <ele>64.7</ele>
    <time>2026-08-18T04:00:53Z</time>
   </trkpt>
   <trkpt lat="36.3299440" lon="127.4083830">
    <ele>64.7</ele>
    <time>2026-08-18T04:00:54Z</time>
   </trkpt>
   <trkpt lat="36.3299400" lon="127.4083740">
    <ele>64.7</ele>
    <time>2026-08-18T04:00:55Z</time>
   </trkpt>
   <trkpt lat="36.3299380" lon="127.4083630">
    <ele>64.7</ele>
    <time>2026-08-18T04:00:56Z</time>
   </trkpt>
   <trkpt lat="36.3299340" lon="127.4083600">
    <ele>64.7</ele>
    <time>2026-08-18T04:00:57Z</time>
   </trkpt>
   <trkpt lat="36.3299270" lon="127.4083530">
    <ele>64.7</ele>
    <time>2026-08-18T04:00:58Z</time>
   </trkpt>
   <trkpt lat="36.3299170" lon="127.4083440">
    <ele>64.6</ele>
    <time>2026-08-18T04:00:59Z</time>
   </trkpt>
   <trkpt lat="36.3299100" lon="127.4083400">
    <ele>64.6</ele>
    <time>2026-08-18T04:01:00Z</time>
   </trkpt>
   <trkpt lat="36.3299040" lon="127.4083310">
    <ele>64.6</ele>
    <time>2026-08-18T04:01:01Z</time>
   </trkpt>
   <trkpt lat="36.3298950" lon="127.4083220">
    <ele>64.6</ele>
    <time>2026-08-18T04:01:02Z</time>
   </trkpt>
   <trkpt lat="36.3298920" lon="127.4083190">
    <ele>64.6</ele>
    <time>2026-08-18T04:01:03Z</time>
   </trkpt>
   <trkpt lat="36.3298860" lon="127.4083120">
    <ele>64.6</ele>
    <time>2026-08-18T04:01:04Z</time>
   </trkpt>
   <trkpt lat="36.3298830" lon="127.4082940">
    <ele>64.5</ele>
    <time>2026-08-18T04:01:05Z</time>
   </trkpt>
   <trkpt lat="36.3298790" lon="127.4082920">
    <ele>64.5</ele>
    <time>2026-08-18T04:01:06Z</time>
   </trkpt>
   <trkpt lat="36.3298680" lon="127.4082800">
    <ele>64.5</ele>
    <time>2026-08-18T04:01:07Z</time>
   </trkpt>
   <trkpt lat="36.3298590" lon="127.4082710">
    <ele>64.5</ele>
    <time>2026-08-18T04:01:08Z</time>
   </trkpt>
   <trkpt lat="36.3298530" lon="127.4082690">
    <ele>64.5</ele>
    <time>2026-08-18T04:01:09Z</time>
   </trkpt>
   <trkpt lat="36.3298490" lon="127.4082620">
    <ele>64.5</ele>
    <time>2026-08-18T04:01:10Z</time>
   </trkpt>
   <trkpt lat="36.3298450" lon="127.4082520">
    <ele>64.4</ele>
    <time>2026-08-18T04:01:11Z</time>
   </trkpt>
   <trkpt lat="36.3298400" lon="127.4082470">
    <ele>64.4</ele>
    <time>2026-08-18T04:01:12Z</time>
   </trkpt>
   <trkpt lat="36.3298370" lon="127.4082380">
    <ele>64.4</ele>
    <time>2026-08-18T04:01:13Z</time>
   </trkpt>
   <trkpt lat="36.3298320" lon="127.4082290">
    <ele>64.4</ele>
    <time>2026-08-18T04:01:14Z</time>
   </trkpt>
   <trkpt lat="36.3298240" lon="127.4082190">
    <ele>64.4</ele>
    <time>2026-08-18T04:01:15Z</time>
   </trkpt>
   <trkpt lat="36.3298190" lon="127.4082070">
    <ele>64.4</ele>
    <time>2026-08-18T04:01:16Z</time>
   </trkpt>
   <trkpt lat="36.3298140" lon="127.4082050">
    <ele>64.3</ele>
    <time>2026-08-18T04:01:18Z</time>
   </trkpt>
   <trkpt lat="36.3298070" lon="127.4082010">
    <ele>64.3</ele>
    <time>2026-08-18T04:01:19Z</time>
   </trkpt>
   <trkpt lat="36.3297950" lon="127.4081900">
    <ele>64.3</ele>
    <time>2026-08-18T04:01:20Z</time>
   </trkpt>
   <trkpt lat="36.3297890" lon="127.4081880">
    <ele>64.3</ele>
    <time>2026-08-18T04:01:21Z</time>
   </trkpt>
   <trkpt lat="36.3297780" lon="127.4081780">
    <ele>64.3</ele>
    <time>2026-08-18T04:01:22Z</time>
   </trkpt>
   <trkpt lat="36.3297660" lon="127.4081650">
    <ele>64.2</ele>
    <time>2026-08-18T04:01:23Z</time>
   </trkpt>
   <trkpt lat="36.3297650" lon="127.4081580">
    <ele>64.2</ele>
    <time>2026-08-18T04:01:24Z</time>
   </trkpt>
   <trkpt lat="36.3297580" lon="127.4081540">
    <ele>64.2</ele>
    <time>2026-08-18T04:01:25Z</time>
   </trkpt>
   <trkpt lat="36.3297470" lon="127.4081460">
    <ele>64.2</ele>
    <time>2026-08-18T04:01:26Z</time>
   </trkpt>
   <trkpt lat="36.3297490" lon="127.4081480">
    <ele>64.2</ele>
    <time>2026-08-18T04:01:27Z</time>
   </trkpt>
   <trkpt lat="36.3297450" lon="127.4081410">
    <ele>64.2</ele>
    <time>2026-08-18T04:01:28Z</time>
   </trkpt>
   <trkpt lat="36.3297400" lon="127.4081320">
    <ele>64.1</ele>
    <time>2026-08-18T04:01:29Z</time>
   </trkpt>
   <trkpt lat="36.3297460" lon="127.4081350">
    <ele>64.1</ele>
    <time>2026-08-18T04:01:30Z</time>
   </trkpt>
   <trkpt lat="36.3297400" lon="127.4081260">
    <ele>64.1</ele>
    <time>2026-08-18T04:01:31Z</time>
   </trkpt>
   <trkpt lat="36.3297330" lon="127.4081170">
    <ele>64.1</ele>
    <time>2026-08-18T04:01:32Z</time>
   </trkpt>
   <trkpt lat="36.3297290" lon="127.4081010">
    <ele>64.1</ele>
    <time>2026-08-18T04:01:33Z</time>
   </trkpt>
   <trkpt lat="36.3297200" lon="127.4080910">
    <ele>64.1</ele>
    <time>2026-08-18T04:01:34Z</time>
   </trkpt>
   <trkpt lat="36.3297170" lon="127.4080880">
    <ele>64.0</ele>
    <time>2026-08-18T04:01:35Z</time>
   </trkpt>
   <trkpt lat="36.3297110" lon="127.4080810">
    <ele>64.0</ele>
    <time>2026-08-18T04:01:36Z</time>
   </trkpt>
   <trkpt lat="36.3297070" lon="127.4080790">
    <ele>64.0</ele>
    <time>2026-08-18T04:01:37Z</time>
   </trkpt>
   <trkpt lat="36.3297000" lon="127.4080700">
    <ele>64.0</ele>
    <time>2026-08-18T04:01:38Z</time>
   </trkpt>
   <trkpt lat="36.3296920" lon="127.4080600">
    <ele>64.0</ele>
    <time>2026-08-18T04:01:39Z</time>
   </trkpt>
   <trkpt lat="36.3296880" lon="127.4080550">
    <ele>64.0</ele>
    <time>2026-08-18T04:01:40Z</time>
   </trkpt>
   <trkpt lat="36.3296870" lon="127.4080500">
    <ele>64.0</ele>
    <time>2026-08-18T04:01:41Z</time>
   </trkpt>
   <trkpt lat="36.3296770" lon="127.4080390">
    <ele>63.9</ele>
    <time>2026-08-18T04:01:42Z</time>
   </trkpt>
   <trkpt lat="36.3296730" lon="127.4080300">
    <ele>63.9</ele>
    <time>2026-08-18T04:01:43Z</time>
   </trkpt>
   <trkpt lat="36.3296700" lon="127.4080180">
    <ele>63.9</ele>
    <time>2026-08-18T04:01:44Z</time>
   </trkpt>
   <trkpt lat="36.3296660" lon="127.4080070">
    <ele>63.9</ele>
    <time>2026-08-18T04:01:45Z</time>
   </trkpt>
   <trkpt lat="36.3296590" lon="127.4079870">
    <ele>63.9</ele>
    <time>2026-08-18T04:01:46Z</time>
   </trkpt>
   <trkpt lat="36.3296540" lon="127.4079710">
    <ele>63.8</ele>
    <time>2026-08-18T04:01:47Z</time>
   </trkpt>
   <trkpt lat="36.3296420" lon="127.4079420">
    <ele>63.8</ele>
    <time>2026-08-18T04:01:48Z</time>
   </trkpt>
   <trkpt lat="36.3296440" lon="127.4079520">
    <ele>63.8</ele>
    <time>2026-08-18T04:01:49Z</time>
   </trkpt>
   <trkpt lat="36.3296440" lon="127.4079450">
    <ele>63.8</ele>
    <time>2026-08-18T04:01:50Z</time>
   </trkpt>
   <trkpt lat="36.3296390" lon="127.4079380">
    <ele>63.8</ele>
    <time>2026-08-18T04:01:51Z</time>
   </trkpt>
   <trkpt lat="36.3296310" lon="127.4079300">
    <ele>63.8</ele>
    <time>2026-08-18T04:01:52Z</time>
   </trkpt>
   <trkpt lat="36.3296230" lon="127.4079250">
    <ele>63.7</ele>
    <time>2026-08-18T04:01:53Z</time>
   </trkpt>
   <trkpt lat="36.3296170" lon="127.4079170">
    <ele>63.7</ele>
    <time>2026-08-18T04:01:54Z</time>
   </trkpt>
   <trkpt lat="36.3296150" lon="127.4079130">
    <ele>63.7</ele>
    <time>2026-08-18T04:01:55Z</time>
   </trkpt>
   <trkpt lat="36.3296120" lon="127.4079080">
    <ele>63.7</ele>
    <time>2026-08-18T04:01:56Z</time>
   </trkpt>
   <trkpt lat="36.3296070" lon="127.4078950">
    <ele>63.7</ele>
    <time>2026-08-18T04:01:57Z</time>
   </trkpt>
   <trkpt lat="36.3296020" lon="127.4078860">
    <ele>63.7</ele>
    <time>2026-08-18T04:01:58Z</time>
   </trkpt>
   <trkpt lat="36.3295920" lon="127.4078760">
    <ele>63.7</ele>
    <time>2026-08-18T04:01:59Z</time>
   </trkpt>
   <trkpt lat="36.3295890" lon="127.4078660">
    <ele>63.7</ele>
    <time>2026-08-18T04:02:00Z</time>
   </trkpt>
   <trkpt lat="36.3295790" lon="127.4078470">
    <ele>63.7</ele>
    <time>2026-08-18T04:02:01Z</time>
   </trkpt>
   <trkpt lat="36.3295730" lon="127.4078330">
    <ele>63.6</ele>
    <time>2026-08-18T04:02:02Z</time>
   </trkpt>
   <trkpt lat="36.3295740" lon="127.4078210">
    <ele>63.6</ele>
    <time>2026-08-18T04:02:03Z</time>
   </trkpt>
   <trkpt lat="36.3295740" lon="127.4078230">
    <ele>63.6</ele>
    <time>2026-08-18T04:02:04Z</time>
   </trkpt>
   <trkpt lat="36.3295750" lon="127.4078110">
    <ele>63.6</ele>
    <time>2026-08-18T04:02:05Z</time>
   </trkpt>
   <trkpt lat="36.3295760" lon="127.4077950">
    <ele>63.6</ele>
    <time>2026-08-18T04:02:06Z</time>
   </trkpt>
   <trkpt lat="36.3295750" lon="127.4077850">
    <ele>63.6</ele>
    <time>2026-08-18T04:02:07Z</time>
   </trkpt>
   <trkpt lat="36.3295710" lon="127.4077760">
    <ele>63.6</ele>
    <time>2026-08-18T04:02:08Z</time>
   </trkpt>
   <trkpt lat="36.3295650" lon="127.4077650">
    <ele>63.6</ele>
    <time>2026-08-18T04:02:09Z</time>
   </trkpt>
   <trkpt lat="36.3295650" lon="127.4077540">
    <ele>63.5</ele>
    <time>2026-08-18T04:02:10Z</time>
   </trkpt>
   <trkpt lat="36.3295670" lon="127.4077420">
    <ele>63.5</ele>
    <time>2026-08-18T04:02:11Z</time>
   </trkpt>
   <trkpt lat="36.3295610" lon="127.4077280">
    <ele>63.5</ele>
    <time>2026-08-18T04:02:12Z</time>
   </trkpt>
   <trkpt lat="36.3295580" lon="127.4077150">
    <ele>63.5</ele>
    <time>2026-08-18T04:02:13Z</time>
   </trkpt>
   <trkpt lat="36.3295520" lon="127.4077040">
    <ele>63.5</ele>
    <time>2026-08-18T04:02:14Z</time>
   </trkpt>
   <trkpt lat="36.3295410" lon="127.4076970">
    <ele>63.4</ele>
    <time>2026-08-18T04:02:15Z</time>
   </trkpt>
   <trkpt lat="36.3295360" lon="127.4076870">
    <ele>63.4</ele>
    <time>2026-08-18T04:02:16Z</time>
   </trkpt>
   <trkpt lat="36.3295320" lon="127.4076790">
    <ele>63.4</ele>
    <time>2026-08-18T04:02:17Z</time>
   </trkpt>
   <trkpt lat="36.3295310" lon="127.4076770">
    <ele>63.4</ele>
    <time>2026-08-18T04:02:18Z</time>
   </trkpt>
   <trkpt lat="36.3295280" lon="127.4076630">
    <ele>63.4</ele>
    <time>2026-08-18T04:02:19Z</time>
   </trkpt>
   <trkpt lat="36.3295180" lon="127.4076490">
    <ele>63.4</ele>
    <time>2026-08-18T04:02:20Z</time>
   </trkpt>
   <trkpt lat="36.3295120" lon="127.4076390">
    <ele>63.4</ele>
    <time>2026-08-18T04:02:21Z</time>
   </trkpt>
   <trkpt lat="36.3295080" lon="127.4076290">
    <ele>63.3</ele>
    <time>2026-08-18T04:02:22Z</time>
   </trkpt>
   <trkpt lat="36.3295060" lon="127.4076160">
    <ele>63.3</ele>
    <time>2026-08-18T04:02:23Z</time>
   </trkpt>
   <trkpt lat="36.3295050" lon="127.4076060">
    <ele>63.3</ele>
    <time>2026-08-18T04:02:24Z</time>
   </trkpt>
   <trkpt lat="36.3295020" lon="127.4075930">
    <ele>63.3</ele>
    <time>2026-08-18T04:02:25Z</time>
   </trkpt>
   <trkpt lat="36.3294970" lon="127.4075820">
    <ele>63.3</ele>
    <time>2026-08-18T04:02:26Z</time>
   </trkpt>
   <trkpt lat="36.3294890" lon="127.4075690">
    <ele>63.2</ele>
    <time>2026-08-18T04:02:27Z</time>
   </trkpt>
   <trkpt lat="36.3294800" lon="127.4075570">
    <ele>63.2</ele>
    <time>2026-08-18T04:02:28Z</time>
   </trkpt>
   <trkpt lat="36.3294790" lon="127.4075540">
    <ele>63.2</ele>
    <time>2026-08-18T04:02:29Z</time>
   </trkpt>
   <trkpt lat="36.3294710" lon="127.4075420">
    <ele>63.2</ele>
    <time>2026-08-18T04:02:30Z</time>
   </trkpt>
   <trkpt lat="36.3294660" lon="127.4075340">
    <ele>63.2</ele>
    <time>2026-08-18T04:02:31Z</time>
   </trkpt>
   <trkpt lat="36.3294620" lon="127.4075240">
    <ele>63.2</ele>
    <time>2026-08-18T04:02:32Z</time>
   </trkpt>
   <trkpt lat="36.3294620" lon="127.4075310">
    <ele>63.2</ele>
    <time>2026-08-18T04:02:33Z</time>
   </trkpt>
   <trkpt lat="36.3294690" lon="127.4075520">
    <ele>63.1</ele>
    <time>2026-08-18T04:02:34Z</time>
   </trkpt>
   <trkpt lat="36.3294670" lon="127.4075500">
    <ele>63.1</ele>
    <time>2026-08-18T04:02:35Z</time>
   </trkpt>
   <trkpt lat="36.3294720" lon="127.4075430">
    <ele>63.1</ele>
    <time>2026-08-18T04:02:36Z</time>
   </trkpt>
   <trkpt lat="36.3294920" lon="127.4075410">
    <ele>63.1</ele>
    <time>2026-08-18T04:02:37Z</time>
   </trkpt>
   <trkpt lat="36.3294910" lon="127.4075360">
    <ele>63.1</ele>
    <time>2026-08-18T04:02:38Z</time>
   </trkpt>
   <trkpt lat="36.3294930" lon="127.4075350">
    <ele>63.1</ele>
    <time>2026-08-18T04:02:39Z</time>
   </trkpt>
   <trkpt lat="36.3294780" lon="127.4075270">
    <ele>62.9</ele>
    <time>2026-08-18T04:02:40Z</time>
   </trkpt>
   <trkpt lat="36.3294560" lon="127.4075040">
    <ele>62.5</ele>
    <time>2026-08-18T04:02:41Z</time>
   </trkpt>
   <trkpt lat="36.3294500" lon="127.4074910">
    <ele>62.4</ele>
    <time>2026-08-18T04:02:42Z</time>
   </trkpt>
   <trkpt lat="36.3294460" lon="127.4074680">
    <ele>62.2</ele>
    <time>2026-08-18T04:02:43Z</time>
   </trkpt>
   <trkpt lat="36.3294460" lon="127.4074450">
    <ele>62.0</ele>
    <time>2026-08-18T04:02:44Z</time>
   </trkpt>
   <trkpt lat="36.3294380" lon="127.4074480">
    <ele>61.9</ele>
    <time>2026-08-18T04:02:45Z</time>
   </trkpt>
   <trkpt lat="36.3294480" lon="127.4074610">
    <ele>61.7</ele>
    <time>2026-08-18T04:02:46Z</time>
   </trkpt>
   <trkpt lat="36.3294510" lon="127.4074500">
    <ele>61.6</ele>
    <time>2026-08-18T04:02:47Z</time>
   </trkpt>
   <trkpt lat="36.3294370" lon="127.4074290">
    <ele>61.3</ele>
    <time>2026-08-18T04:02:48Z</time>
   </trkpt>
   <trkpt lat="36.3294350" lon="127.4074230">
    <ele>61.3</ele>
    <time>2026-08-18T04:02:49Z</time>
   </trkpt>
   <trkpt lat="36.3294370" lon="127.4073990">
    <ele>61.0</ele>
    <time>2026-08-18T04:02:50Z</time>
   </trkpt>
   <trkpt lat="36.3294200" lon="127.4073920">
    <ele>60.8</ele>
    <time>2026-08-18T04:02:51Z</time>
   </trkpt>
   <trkpt lat="36.3294070" lon="127.4073650">
    <ele>60.5</ele>
    <time>2026-08-18T04:02:52Z</time>
   </trkpt>
   <trkpt lat="36.3294000" lon="127.4073480">
    <ele>60.4</ele>
    <time>2026-08-18T04:02:53Z</time>
   </trkpt>
   <trkpt lat="36.3294070" lon="127.4073330">
    <ele>60.2</ele>
    <time>2026-08-18T04:02:54Z</time>
   </trkpt>
   <trkpt lat="36.3294000" lon="127.4073300">
    <ele>60.1</ele>
    <time>2026-08-18T04:02:55Z</time>
   </trkpt>
   <trkpt lat="36.3293910" lon="127.4073100">
    <ele>59.9</ele>
    <time>2026-08-18T04:02:56Z</time>
   </trkpt>
   <trkpt lat="36.3293830" lon="127.4072910">
    <ele>59.7</ele>
    <time>2026-08-18T04:02:57Z</time>
   </trkpt>
   <trkpt lat="36.3293810" lon="127.4072820">
    <ele>59.6</ele>
    <time>2026-08-18T04:02:58Z</time>
   </trkpt>
   <trkpt lat="36.3293730" lon="127.4072660">
    <ele>59.4</ele>
    <time>2026-08-18T04:02:59Z</time>
   </trkpt>
   <trkpt lat="36.3293660" lon="127.4072600">
    <ele>59.3</ele>
    <time>2026-08-18T04:03:00Z</time>
   </trkpt>
   <trkpt lat="36.3293650" lon="127.4072500">
    <ele>59.2</ele>
    <time>2026-08-18T04:03:01Z</time>
   </trkpt>
   <trkpt lat="36.3293600" lon="127.4072370">
    <ele>59.1</ele>
    <time>2026-08-18T04:03:02Z</time>
   </trkpt>
   <trkpt lat="36.3293740" lon="127.4072150">
    <ele>58.8</ele>
    <time>2026-08-18T04:03:03Z</time>
   </trkpt>
   <trkpt lat="36.3293680" lon="127.4071980">
    <ele>58.7</ele>
    <time>2026-08-18T04:03:04Z</time>
   </trkpt>
   <trkpt lat="36.3293660" lon="127.4071920">
    <ele>58.6</ele>
    <time>2026-08-18T04:03:05Z</time>
   </trkpt>
   <trkpt lat="36.3293660" lon="127.4071880">
    <ele>58.6</ele>
    <time>2026-08-18T04:03:06Z</time>
   </trkpt>
   <trkpt lat="36.3293640" lon="127.4071860">
    <ele>58.5</ele>
    <time>2026-08-18T04:03:07Z</time>
   </trkpt>
   <trkpt lat="36.3293610" lon="127.4071670">
    <ele>58.4</ele>
    <time>2026-08-18T04:03:08Z</time>
   </trkpt>
   <trkpt lat="36.3293550" lon="127.4071620">
    <ele>58.3</ele>
    <time>2026-08-18T04:03:09Z</time>
   </trkpt>
   <trkpt lat="36.3293530" lon="127.4071450">
    <ele>58.1</ele>
    <time>2026-08-18T04:03:10Z</time>
   </trkpt>
   <trkpt lat="36.3293570" lon="127.4071460">
    <ele>58.1</ele>
    <time>2026-08-18T04:03:11Z</time>
   </trkpt>
   <trkpt lat="36.3293580" lon="127.4071370">
    <ele>58.0</ele>
    <time>2026-08-18T04:03:12Z</time>
   </trkpt>
   <trkpt lat="36.3293570" lon="127.4071270">
    <ele>57.9</ele>
    <time>2026-08-18T04:03:13Z</time>
   </trkpt>
   <trkpt lat="36.3293550" lon="127.4071130">
    <ele>57.8</ele>
    <time>2026-08-18T04:03:14Z</time>
   </trkpt>
   <trkpt lat="36.3293530" lon="127.4071010">
    <ele>57.6</ele>
    <time>2026-08-18T04:03:15Z</time>
   </trkpt>
   <trkpt lat="36.3293480" lon="127.4070760">
    <ele>57.4</ele>
    <time>2026-08-18T04:03:16Z</time>
   </trkpt>
   <trkpt lat="36.3293460" lon="127.4070210">
    <ele>56.9</ele>
    <time>2026-08-18T04:03:17Z</time>
   </trkpt>
   <trkpt lat="36.3293420" lon="127.4070380">
    <ele>56.7</ele>
    <time>2026-08-18T04:03:18Z</time>
   </trkpt>
   <trkpt lat="36.3293450" lon="127.4070380">
    <ele>56.7</ele>
    <time>2026-08-18T04:03:19Z</time>
   </trkpt>
   <trkpt lat="36.3293420" lon="127.4070340">
    <ele>56.6</ele>
    <time>2026-08-18T04:03:20Z</time>
   </trkpt>
   <trkpt lat="36.3293410" lon="127.4070200">
    <ele>56.5</ele>
    <time>2026-08-18T04:03:21Z</time>
   </trkpt>
   <trkpt lat="36.3293270" lon="127.4069880">
    <ele>56.2</ele>
    <time>2026-08-18T04:03:22Z</time>
   </trkpt>
   <trkpt lat="36.3293290" lon="127.4069780">
    <ele>56.1</ele>
    <time>2026-08-18T04:03:24Z</time>
   </trkpt>
   <trkpt lat="36.3293300" lon="127.4069690">
    <ele>56.0</ele>
    <time>2026-08-18T04:03:25Z</time>
   </trkpt>
   <trkpt lat="36.3293290" lon="127.4069660">
    <ele>55.9</ele>
    <time>2026-08-18T04:03:26Z</time>
   </trkpt>
   <trkpt lat="36.3293290" lon="127.4069570">
    <ele>55.9</ele>
    <time>2026-08-18T04:03:27Z</time>
   </trkpt>
   <trkpt lat="36.3293290" lon="127.4069480">
    <ele>55.8</ele>
    <time>2026-08-18T04:03:28Z</time>
   </trkpt>
   <trkpt lat="36.3293310" lon="127.4069400">
    <ele>55.7</ele>
    <time>2026-08-18T04:03:29Z</time>
   </trkpt>
   <trkpt lat="36.3293270" lon="127.4069320">
    <ele>55.6</ele>
    <time>2026-08-18T04:03:30Z</time>
   </trkpt>
   <trkpt lat="36.3293240" lon="127.4069250">
    <ele>55.5</ele>
    <time>2026-08-18T04:03:31Z</time>
   </trkpt>
   <trkpt lat="36.3293230" lon="127.4069090">
    <ele>55.4</ele>
    <time>2026-08-18T04:03:32Z</time>
   </trkpt>
   <trkpt lat="36.3293210" lon="127.4068950">
    <ele>55.3</ele>
    <time>2026-08-18T04:03:33Z</time>
   </trkpt>
   <trkpt lat="36.3293210" lon="127.4068920">
    <ele>55.2</ele>
    <time>2026-08-18T04:03:34Z</time>
   </trkpt>
   <trkpt lat="36.3293170" lon="127.4068800">
    <ele>55.1</ele>
    <time>2026-08-18T04:03:35Z</time>
   </trkpt>
   <trkpt lat="36.3293130" lon="127.4068630">
    <ele>54.9</ele>
    <time>2026-08-18T04:03:36Z</time>
   </trkpt>
   <trkpt lat="36.3293090" lon="127.4068420">
    <ele>54.7</ele>
    <time>2026-08-18T04:03:37Z</time>
   </trkpt>
   <trkpt lat="36.3293100" lon="127.4068400">
    <ele>54.7</ele>
    <time>2026-08-18T04:03:38Z</time>
   </trkpt>
   <trkpt lat="36.3293050" lon="127.4068300">
    <ele>54.6</ele>
    <time>2026-08-18T04:03:39Z</time>
   </trkpt>
   <trkpt lat="36.3293020" lon="127.4068170">
    <ele>54.5</ele>
    <time>2026-08-18T04:03:40Z</time>
   </trkpt>
   <trkpt lat="36.3293020" lon="127.4068160">
    <ele>54.5</ele>
    <time>2026-08-18T04:03:41Z</time>
   </trkpt>
   <trkpt lat="36.3292990" lon="127.4068090">
    <ele>54.4</ele>
    <time>2026-08-18T04:03:42Z</time>
   </trkpt>
   <trkpt lat="36.3292950" lon="127.4068000">
    <ele>54.3</ele>
    <time>2026-08-18T04:03:43Z</time>
   </trkpt>
   <trkpt lat="36.3292900" lon="127.4067900">
    <ele>54.2</ele>
    <time>2026-08-18T04:03:44Z</time>
   </trkpt>
   <trkpt lat="36.3292840" lon="127.4067770">
    <ele>54.0</ele>
    <time>2026-08-18T04:03:45Z</time>
   </trkpt>
   <trkpt lat="36.3292820" lon="127.4067620">
    <ele>53.9</ele>
    <time>2026-08-18T04:03:46Z</time>
   </trkpt>
   <trkpt lat="36.3292820" lon="127.4067480">
    <ele>53.8</ele>
    <time>2026-08-18T04:03:47Z</time>
   </trkpt>
   <trkpt lat="36.3292800" lon="127.4067310">
    <ele>53.6</ele>
    <time>2026-08-18T04:03:48Z</time>
   </trkpt>
   <trkpt lat="36.3292770" lon="127.4067120">
    <ele>53.4</ele>
    <time>2026-08-18T04:03:49Z</time>
   </trkpt>
   <trkpt lat="36.3292770" lon="127.4067010">
    <ele>53.3</ele>
    <time>2026-08-18T04:03:50Z</time>
   </trkpt>
   <trkpt lat="36.3292750" lon="127.4066900">
    <ele>53.2</ele>
    <time>2026-08-18T04:03:51Z</time>
   </trkpt>
   <trkpt lat="36.3292690" lon="127.4066760">
    <ele>53.1</ele>
    <time>2026-08-18T04:03:52Z</time>
   </trkpt>
   <trkpt lat="36.3292590" lon="127.4066500">
    <ele>53.0</ele>
    <time>2026-08-18T04:03:53Z</time>
   </trkpt>
   <trkpt lat="36.3292640" lon="127.4066480">
    <ele>53.0</ele>
    <time>2026-08-18T04:03:54Z</time>
   </trkpt>
   <trkpt lat="36.3292640" lon="127.4066370">
    <ele>53.0</ele>
    <time>2026-08-18T04:03:55Z</time>
   </trkpt>
   <trkpt lat="36.3292620" lon="127.4066290">
    <ele>53.0</ele>
    <time>2026-08-18T04:03:56Z</time>
   </trkpt>
   <trkpt lat="36.3292590" lon="127.4066220">
    <ele>52.9</ele>
    <time>2026-08-18T04:03:57Z</time>
   </trkpt>
   <trkpt lat="36.3292590" lon="127.4066110">
    <ele>52.9</ele>
    <time>2026-08-18T04:03:58Z</time>
   </trkpt>
   <trkpt lat="36.3292610" lon="127.4066020">
    <ele>52.9</ele>
    <time>2026-08-18T04:03:59Z</time>
   </trkpt>
   <trkpt lat="36.3292550" lon="127.4065820">
    <ele>52.9</ele>
    <time>2026-08-18T04:04:00Z</time>
   </trkpt>
   <trkpt lat="36.3292500" lon="127.4065690">
    <ele>52.8</ele>
    <time>2026-08-18T04:04:01Z</time>
   </trkpt>
   <trkpt lat="36.3292480" lon="127.4065600">
    <ele>52.8</ele>
    <time>2026-08-18T04:04:02Z</time>
   </trkpt>
   <trkpt lat="36.3292450" lon="127.4065300">
    <ele>52.8</ele>
    <time>2026-08-18T04:04:03Z</time>
   </trkpt>
   <trkpt lat="36.3292310" lon="127.4064780">
    <ele>52.7</ele>
    <time>2026-08-18T04:04:04Z</time>
   </trkpt>
   <trkpt lat="36.3292600" lon="127.4065000">
    <ele>52.6</ele>
    <time>2026-08-18T04:04:05Z</time>
   </trkpt>
   <trkpt lat="36.3292680" lon="127.4064880">
    <ele>52.6</ele>
    <time>2026-08-18T04:04:06Z</time>
   </trkpt>
   <trkpt lat="36.3292590" lon="127.4064930">
    <ele>52.5</ele>
    <time>2026-08-18T04:04:07Z</time>
   </trkpt>
   <trkpt lat="36.3292580" lon="127.4064780">
    <ele>52.5</ele>
    <time>2026-08-18T04:04:08Z</time>
   </trkpt>
   <trkpt lat="36.3292530" lon="127.4064600">
    <ele>52.5</ele>
    <time>2026-08-18T04:04:09Z</time>
   </trkpt>
   <trkpt lat="36.3292480" lon="127.4064540">
    <ele>52.5</ele>
    <time>2026-08-18T04:04:10Z</time>
   </trkpt>
   <trkpt lat="36.3292460" lon="127.4064460">
    <ele>52.4</ele>
    <time>2026-08-18T04:04:11Z</time>
   </trkpt>
   <trkpt lat="36.3292430" lon="127.4064410">
    <ele>52.4</ele>
    <time>2026-08-18T04:04:12Z</time>
   </trkpt>
   <trkpt lat="36.3292410" lon="127.4064240">
    <ele>52.4</ele>
    <time>2026-08-18T04:04:13Z</time>
   </trkpt>
  </trkseg>
 </trk>
</gpx>
