<?xml version="1.0" encoding="UTF-8"?>
<gpx creator="StravaGPX" version="1.1" xmlns="http://www.topografix.com/GPX/1/1" xmlns:xsi="http://www.w3.org/2001/XMLSchema-instance" xsi:schemaLocation="http://www.topografix.com/GPX/1/1 http://www.topografix.com/GPX/1/1/gpx.xsd">
 <metadata>
  <time>2026-08-18T04:30:25Z</time>
 </metadata>
 <trk>
  <name>홍민기_가파른오르막길_8</name>
  <type>walking</type>
  <trkseg>
   <trkpt lat="36.3292250" lon="127.4063400">
    <ele>52.2</ele>
    <time>2026-08-18T04:30:25Z</time>
   </trkpt>
   <trkpt lat="36.3292250" lon="127.4063400">
    <ele>52.2</ele>
    <time>2026-08-18T04:30:26Z</time>
   </trkpt>
   <trkpt lat="36.3292290" lon="127.4063380">
    <ele>52.2</ele>
    <time>2026-08-18T04:30:27Z</time>
   </trkpt>
   <trkpt lat="36.3292270" lon="127.4063380">
    <ele>52.2</ele>
    <time>2026-08-18T04:30:28Z</time>
   </trkpt>
   <trkpt lat="36.3292280" lon="127.4063410">
    <ele>52.2</ele>
    <time>2026-08-18T04:30:29Z</time>
   </trkpt>
   <trkpt lat="36.3292340" lon="127.4063460">
    <ele>52.2</ele>
    <time>2026-08-18T04:30:30Z</time>
   </trkpt>
   <trkpt lat="36.3292290" lon="127.4063600">
    <ele>52.3</ele>
    <time>2026-08-18T04:30:31Z</time>
   </trkpt>
   <trkpt lat="36.3292280" lon="127.4063680">
    <ele>52.3</ele>
    <time>2026-08-18T04:30:32Z</time>
   </trkpt>
   <trkpt lat="36.3292200" lon="127.4063700">
    <ele>52.3</ele>
    <time>2026-08-18T04:30:33Z</time>
   </trkpt>
   <trkpt lat="36.3292220" lon="127.4063840">
    <ele>52.3</ele>
    <time>2026-08-18T04:30:34Z</time>
   </trkpt>
   <trkpt lat="36.3292310" lon="127.4063970">
    <ele>52.4</ele>
    <time>2026-08-18T04:30:35Z</time>
   </trkpt>
   <trkpt lat="36.3292380" lon="127.4064010">
    <ele>52.4</ele>
    <time>2026-08-18T04:30:36Z</time>
   </trkpt>
   <trkpt lat="36.3292360" lon="127.4064150">
    <ele>52.4</ele>
    <time>2026-08-18T04:30:37Z</time>
   </trkpt>
   <trkpt lat="36.3292350" lon="127.4064230">
    <ele>52.4</ele>
    <time>2026-08-18T04:30:38Z</time>
   </trkpt>
   <trkpt lat="36.3292350" lon="127.4064340">
    <ele>52.4</ele>
    <time>2026-08-18T04:30:39Z</time>
   </trkpt>
   <trkpt lat="36.3292310" lon="127.4064440">
    <ele>52.5</ele>
    <time>2026-08-18T04:30:40Z</time>
   </trkpt>
   <trkpt lat="36.3292290" lon="127.4064540">
    <ele>52.5</ele>
    <time>2026-08-18T04:30:41Z</time>
   </trkpt>
   <trkpt lat="36.3292310" lon="127.4064650">
    <ele>52.5</ele>
    <time>2026-08-18T04:30:42Z</time>
   </trkpt>
   <trkpt lat="36.3292320" lon="127.4064790">
    <ele>52.5</ele>
    <time>2026-08-18T04:30:43Z</time>
   </trkpt>
   <trkpt lat="36.3292310" lon="127.4064910">
    <ele>52.6</ele>
    <time>2026-08-18T04:30:44Z</time>
   </trkpt>
   <trkpt lat="36.3292310" lon="127.4065060">
    <ele>52.6</ele>
    <time>2026-08-18T04:30:45Z</time>
   </trkpt>
   <trkpt lat="36.3292310" lon="127.4065160">
    <ele>52.6</ele>
    <time>2026-08-18T04:30:46Z</time>
   </trkpt>
   <trkpt lat="36.3292280" lon="127.4065270">
    <ele>52.6</ele>
    <time>2026-08-18T04:30:47Z</time>
   </trkpt>
   <trkpt lat="36.3292110" lon="127.4065210">
    <ele>52.7</ele>
    <time>2026-08-18T04:30:48Z</time>
   </trkpt>
   <trkpt lat="36.3292190" lon="127.4065330">
    <ele>52.7</ele>
    <time>2026-08-18T04:30:49Z</time>
   </trkpt>
   <trkpt lat="36.3292240" lon="127.4065560">
    <ele>52.7</ele>
    <time>2026-08-18T04:30:50Z</time>
   </trkpt>
   <trkpt lat="36.3292280" lon="127.4065860">
    <ele>52.8</ele>
    <time>2026-08-18T04:30:51Z</time>
   </trkpt>
   <trkpt lat="36.3292310" lon="127.4066110">
    <ele>52.9</ele>
    <time>2026-08-18T04:30:52Z</time>
   </trkpt>
   <trkpt lat="36.3292300" lon="127.4066320">
    <ele>52.9</ele>
    <time>2026-08-18T04:30:53Z</time>
   </trkpt>
   <trkpt lat="36.3292370" lon="127.4066270">
    <ele>52.9</ele>
    <time>2026-08-18T04:30:54Z</time>
   </trkpt>
   <trkpt lat="36.3292470" lon="127.4066470">
    <ele>53.0</ele>
    <time>2026-08-18T04:30:55Z</time>
   </trkpt>
   <trkpt lat="36.3292500" lon="127.4066640">
    <ele>53.0</ele>
    <time>2026-08-18T04:30:56Z</time>
   </trkpt>
   <trkpt lat="36.3292530" lon="127.4066650">
    <ele>53.0</ele>
    <time>2026-08-18T04:30:57Z</time>
   </trkpt>
   <trkpt lat="36.3292510" lon="127.4066600">
    <ele>53.0</ele>
    <time>2026-08-18T04:30:58Z</time>
   </trkpt>
   <trkpt lat="36.3292590" lon="127.4066820">
    <ele>53.1</ele>
    <time>2026-08-18T04:30:59Z</time>
   </trkpt>
   <trkpt lat="36.3292610" lon="127.4066980">
    <ele>53.2</ele>
    <time>2026-08-18T04:31:00Z</time>
   </trkpt>
   <trkpt lat="36.3292630" lon="127.4067300">
    <ele>53.5</ele>
    <time>2026-08-18T04:31:01Z</time>
   </trkpt>
   <trkpt lat="36.3292610" lon="127.4067360">
    <ele>53.5</ele>
    <time>2026-08-18T04:31:02Z</time>
   </trkpt>
   <trkpt lat="36.3292630" lon="127.4067370">
    <ele>53.5</ele>
    <time>2026-08-18T04:31:03Z</time>
   </trkpt>
   <trkpt lat="36.3292600" lon="127.4067320">
    <ele>53.6</ele>
    <time>2026-08-18T04:31:04Z</time>
   </trkpt>
   <trkpt lat="36.3292630" lon="127.4067440">
    <ele>53.7</ele>
    <time>2026-08-18T04:31:05Z</time>
   </trkpt>
   <trkpt lat="36.3292620" lon="127.4067530">
    <ele>53.8</ele>
    <time>2026-08-18T04:31:06Z</time>
   </trkpt>
   <trkpt lat="36.3292460" lon="127.4067560">
    <ele>54.0</ele>
    <time>2026-08-18T04:31:07Z</time>
   </trkpt>
   <trkpt lat="36.3292520" lon="127.4067670">
    <ele>54.1</ele>
    <time>2026-08-18T04:31:08Z</time>
   </trkpt>
   <trkpt lat="36.3292470" lon="127.4067710">
    <ele>54.2</ele>
    <time>2026-08-18T04:31:09Z</time>
   </trkpt>
   <trkpt lat="36.3292480" lon="127.4067930">
    <ele>54.4</ele>
    <time>2026-08-18T04:31:10Z</time>
   </trkpt>
   <trkpt lat="36.3292390" lon="127.4068150">
    <ele>54.6</ele>
    <time>2026-08-18T04:31:11Z</time>
   </trkpt>
   <trkpt lat="36.3292370" lon="127.4068260">
    <ele>54.7</ele>
    <time>2026-08-18T04:31:12Z</time>
   </trkpt>
   <trkpt lat="36.3292290" lon="127.4068410">
    <ele>54.9</ele>
    <time>2026-08-18T04:31:13Z</time>
   </trkpt>
   <trkpt lat="36.3292290" lon="127.4068490">
    <ele>55.0</ele>
    <time>2026-08-18T04:31:14Z</time>
   </trkpt>
   <trkpt lat="36.3292310" lon="127.4068570">
    <ele>55.1</ele>
    <time>2026-08-18T04:31:15Z</time>
   </trkpt>
   <trkpt lat="36.3292300" lon="127.4068660">
    <ele>55.1</ele>
    <time>2026-08-18T04:31:16Z</time>
   </trkpt>
   <trkpt lat="36.3292220" lon="127.4068650">
    <ele>55.2</ele>
    <time>2026-08-18T04:31:17Z</time>
   </trkpt>
   <trkpt lat="36.3292200" lon="127.4068790">
    <ele>55.4</ele>
    <time>2026-08-18T04:31:18Z</time>
   </trkpt>
   <trkpt lat="36.3292190" lon="127.4068770">
    <ele>55.4</ele>
    <time>2026-08-18T04:31:19Z</time>
   </trkpt>
   <trkpt lat="36.3292310" lon="127.4068870">
    <ele>55.6</ele>
    <time>2026-08-18T04:31:20Z</time>
   </trkpt>
   <trkpt lat="36.3292380" lon="127.4068920">
    <ele>55.7</ele>
    <time>2026-08-18T04:31:21Z</time>
   </trkpt>
   <trkpt lat="36.3292440" lon="127.4069190">
    <ele>55.9</ele>
    <time>2026-08-18T04:31:22Z</time>
   </trkpt>
   <trkpt lat="36.3292450" lon="127.4069290">
    <ele>56.0</ele>
    <time>2026-08-18T04:31:23Z</time>
   </trkpt>
   <trkpt lat="36.3292390" lon="127.4069340">
    <ele>56.1</ele>
    <time>2026-08-18T04:31:24Z</time>
   </trkpt>
   <trkpt lat="36.3292430" lon="127.4069390">
    <ele>56.2</ele>
    <time>2026-08-18T04:31:25Z</time>
   </trkpt>
   <trkpt lat="36.3292560" lon="127.4069560">
    <ele>56.4</ele>
    <time>2026-08-18T04:31:26Z</time>
   </trkpt>
   <trkpt lat="36.3292540" lon="127.4069580">
    <ele>56.4</ele>
    <time>2026-08-18T04:31:27Z</time>
   </trkpt>
   <trkpt lat="36.3292580" lon="127.4069860">
    <ele>56.7</ele>
    <time>2026-08-18T04:31:28Z</time>
   </trkpt>
   <trkpt lat="36.3292620" lon="127.4070050">
    <ele>56.8</ele>
    <time>2026-08-18T04:31:29Z</time>
   </trkpt>
   <trkpt lat="36.3292630" lon="127.4070220">
    <ele>57.0</ele>
    <time>2026-08-18T04:31:30Z</time>
   </trkpt>
   <trkpt lat="36.3292620" lon="127.4070300">
    <ele>57.1</ele>
    <time>2026-08-18T04:31:31Z</time>
   </trkpt>
   <trkpt lat="36.3292630" lon="127.4070430">
    <ele>57.2</ele>
    <time>2026-08-18T04:31:32Z</time>
   </trkpt>
   <trkpt lat="36.3292610" lon="127.4070520">
    <ele>57.3</ele>
    <time>2026-08-18T04:31:33Z</time>
   </trkpt>
   <trkpt lat="36.3292700" lon="127.4070640">
    <ele>57.4</ele>
    <time>2026-08-18T04:31:34Z</time>
   </trkpt>
   <trkpt lat="36.3292790" lon="127.4070730">
    <ele>57.6</ele>
    <time>2026-08-18T04:31:35Z</time>
   </trkpt>
   <trkpt lat="36.3292780" lon="127.4070870">
    <ele>57.7</ele>
    <time>2026-08-18T04:31:36Z</time>
   </trkpt>
   <trkpt lat="36.3292810" lon="127.4070970">
    <ele>57.8</ele>
    <time>2026-08-18T04:31:37Z</time>
   </trkpt>
   <trkpt lat="36.3292830" lon="127.4071120">
    <ele>57.9</ele>
    <time>2026-08-18T04:31:38Z</time>
   </trkpt>
   <trkpt lat="36.3292860" lon="127.4071220">
    <ele>58.0</ele>
    <time>2026-08-18T04:31:39Z</time>
   </trkpt>
   <trkpt lat="36.3292840" lon="127.4071360">
    <ele>58.2</ele>
    <time>2026-08-18T04:31:40Z</time>
   </trkpt>
   <trkpt lat="36.3292910" lon="127.4071570">
    <ele>58.4</ele>
    <time>2026-08-18T04:31:41Z</time>
   </trkpt>
   <trkpt lat="36.3292880" lon="127.4071630">
    <ele>58.5</ele>
    <time>2026-08-18T04:31:42Z</time>
   </trkpt>
   <trkpt lat="36.3292850" lon="127.4071750">
    <ele>58.6</ele>
    <time>2026-08-18T04:31:43Z</time>
   </trkpt>
   <trkpt lat="36.3292820" lon="127.4071800">
    <ele>58.6</ele>
    <time>2026-08-18T04:31:44Z</time>
   </trkpt>
   <trkpt lat="36.3292940" lon="127.4071910">
    <ele>58.8</ele>
    <time>2026-08-18T04:31:45Z</time>
   </trkpt>
   <trkpt lat="36.3292940" lon="127.4072000">
    <ele>58.9</ele>
    <time>2026-08-18T04:31:46Z</time>
   </trkpt>
   <trkpt lat="36.3292920" lon="127.4072160">
    <ele>59.0</ele>
    <time>2026-08-18T04:31:47Z</time>
   </trkpt>
   <trkpt lat="36.3292930" lon="127.4072250">
    <ele>59.1</ele>
    <time>2026-08-18T04:31:48Z</time>
   </trkpt>
   <trkpt lat="36.3293010" lon="127.4072370">
    <ele>59.3</ele>
    <time>2026-08-18T04:31:49Z</time>
   </trkpt>
   <trkpt lat="36.3293080" lon="127.4072500">
    <ele>59.4</ele>
    <time>2026-08-18T04:31:50Z</time>
   </trkpt>
   <trkpt lat="36.3293090" lon="127.4072580">
    <ele>59.5</ele>
    <time>2026-08-18T04:31:51Z</time>
   </trkpt>
   <trkpt lat="36.3293150" lon="127.4072700">
    <ele>59.6</ele>
    <time>2026-08-18T04:31:52Z</time>
   </trkpt>
   <trkpt lat="36.3293240" lon="127.4072780">
    <ele>59.7</ele>
    <time>2026-08-18T04:31:53Z</time>
   </trkpt>
   <trkpt lat="36.3293350" lon="127.4072830">
    <ele>59.9</ele>
    <time>2026-08-18T04:31:54Z</time>
   </trkpt>
   <trkpt lat="36.3293430" lon="127.4072950">
    <ele>60.0</ele>
    <time>2026-08-18T04:31:55Z</time>
   </trkpt>
   <trkpt lat="36.3293480" lon="127.4073070">
    <ele>60.1</ele>
    <time>2026-08-18T04:31:56Z</time>
   </trkpt>
   <trkpt lat="36.3293540" lon="127.4073170">
    <ele>60.3</ele>
    <time>2026-08-18T04:31:57Z</time>
   </trkpt>
   <trkpt lat="36.3293570" lon="127.4073250">
    <ele>60.3</ele>
    <time>2026-08-18T04:31:58Z</time>
   </trkpt>
   <trkpt lat="36.3293600" lon="127.4073350">
    <ele>60.4</ele>
    <time>2026-08-18T04:31:59Z</time>
   </trkpt>
   <trkpt lat="36.3293690" lon="127.4073480">
    <ele>60.6</ele>
    <time>2026-08-18T04:32:00Z</time>
   </trkpt>
   <trkpt lat="36.3293780" lon="127.4073540">
    <ele>60.7</ele>
    <time>2026-08-18T04:32:01Z</time>
   </trkpt>
   <trkpt lat="36.3293800" lon="127.4073650">
    <ele>60.8</ele>
    <time>2026-08-18T04:32:02Z</time>
   </trkpt>
   <trkpt lat="36.3293850" lon="127.4073780">
    <ele>61.0</ele>
    <time>2026-08-18T04:32:03Z</time>
   </trkpt>
   <trkpt lat="36.3293840" lon="127.4073840">
    <ele>61.0</ele>
    <time>2026-08-18T04:32:04Z</time>
   </trkpt>
   <trkpt lat="36.3293820" lon="127.4073970">
    <ele>61.1</ele>
    <time>2026-08-18T04:32:05Z</time>
   </trkpt>
   <trkpt lat="36.3293870" lon="127.4074130">
    <ele>61.3</ele>
    <time>2026-08-18T04:32:06Z</time>
   </trkpt>
   <trkpt lat="36.3293990" lon="127.4074260">
    <ele>61.5</ele>
    <time>2026-08-18T04:32:07Z</time>
   </trkpt>
   <trkpt lat="36.3293980" lon="127.4074340">
    <ele>61.6</ele>
    <time>2026-08-18T04:32:08Z</time>
   </trkpt>
   <trkpt lat="36.3294060" lon="127.4074420">
    <ele>61.7</ele>
    <time>2026-08-18T04:32:09Z</time>
   </trkpt>
   <trkpt lat="36.3294170" lon="127.4074490">
    <ele>61.8</ele>
    <time>2026-08-18T04:32:10Z</time>
   </trkpt>
   <trkpt lat="36.3294200" lon="127.4074550">
    <ele>61.9</ele>
    <time>2026-08-18T04:32:11Z</time>
   </trkpt>
   <trkpt lat="36.3294260" lon="127.4074700">
    <ele>62.0</ele>
    <time>2026-08-18T04:32:12Z</time>
   </trkpt>
   <trkpt lat="36.3294350" lon="127.4074810">
    <ele>62.2</ele>
    <time>2026-08-18T04:32:13Z</time>
   </trkpt>
   <trkpt lat="36.3294400" lon="127.4074930">
    <ele>62.3</ele>
    <time>2026-08-18T04:32:14Z</time>
   </trkpt>
   <trkpt lat="36.3294440" lon="127.4075030">
    <ele>62.4</ele>
    <time>2026-08-18T04:32:15Z</time>
   </trkpt>
   <trkpt lat="36.3294500" lon="127.4075090">
    <ele>62.5</ele>
    <time>2026-08-18T04:32:16Z</time>
   </trkpt>
   <trkpt lat="36.3294570" lon="127.4075180">
    <ele>62.6</ele>
    <time>2026-08-18T04:32:17Z</time>
   </trkpt>
   <trkpt lat="36.3294610" lon="127.4075290">
    <ele>62.7</ele>
    <time>2026-08-18T04:32:18Z</time>
   </trkpt>
   <trkpt lat="36.3294660" lon="127.4075370">
    <ele>62.8</ele>
    <time>2026-08-18T04:32:19Z</time>
   </trkpt>
   <trkpt lat="36.3294680" lon="127.4075480">
    <ele>62.9</ele>
    <time>2026-08-18T04:32:20Z</time>
   </trkpt>
   <trkpt lat="36.3294730" lon="127.4075570">
    <ele>63.0</ele>
    <time>2026-08-18T04:32:21Z</time>
   </trkpt>
   <trkpt lat="36.3294760" lon="127.4075690">
    <ele>63.1</ele>
    <time>2026-08-18T04:32:22Z</time>
   </trkpt>
   <trkpt lat="36.3294780" lon="127.4075800">
    <ele>63.1</ele>
    <time>2026-08-18T04:32:23Z</time>
   </trkpt>
   <trkpt lat="36.3294840" lon="127.4075930">
    <ele>63.1</ele>
    <time>2026-08-18T04:32:24Z</time>
   </trkpt>
   <trkpt lat="36.3294840" lon="127.4076050">
    <ele>63.1</ele>
    <time>2026-08-18T04:32:25Z</time>
   </trkpt>
   <trkpt lat="36.3294840" lon="127.4076160">
    <ele>63.1</ele>
    <time>2026-08-18T04:32:26Z</time>
   </trkpt>
   <trkpt lat="36.3294880" lon="127.4076290">
    <ele>63.2</ele>
    <time>2026-08-18T04:32:27Z</time>
   </trkpt>
   <trkpt lat="36.3294910" lon="127.4076400">
    <ele>63.2</ele>
    <time>2026-08-18T04:32:28Z</time>
   </trkpt>
   <trkpt lat="36.3294930" lon="127.4076490">
    <ele>63.2</ele>
    <time>2026-08-18T04:32:29Z</time>
   </trkpt>
   <trkpt lat="36.3294950" lon="127.4076600">
    <ele>63.2</ele>
    <time>2026-08-18T04:32:30Z</time>
   </trkpt>
   <trkpt lat="36.3295010" lon="127.4076720">
    <ele>63.2</ele>
    <time>2026-08-18T04:32:31Z</time>
   </trkpt>
   <trkpt lat="36.3295060" lon="127.4076850">
    <ele>63.3</ele>
    <time>2026-08-18T04:32:32Z</time>
   </trkpt>
   <trkpt lat="36.3295100" lon="127.4076990">
    <ele>63.3</ele>
    <time>2026-08-18T04:32:33Z</time>
   </trkpt>
   <trkpt lat="36.3295150" lon="127.4077120">
    <ele>63.3</ele>
    <time>2026-08-18T04:32:34Z</time>
   </trkpt>
   <trkpt lat="36.3295200" lon="127.4077220">
    <ele>63.3</ele>
    <time>2026-08-18T04:32:35Z</time>
   </trkpt>
   <trkpt lat="36.3295290" lon="127.4077280">
    <ele>63.3</ele>
    <time>2026-08-18T04:32:36Z</time>
   </trkpt>
   <trkpt lat="36.3295340" lon="127.4077400">
    <ele>63.4</ele>
    <time>2026-08-18T04:32:37Z</time>
   </trkpt>
   <trkpt lat="36.3295400" lon="127.4077510">
    <ele>63.4</ele>
    <time>2026-08-18T04:32:38Z</time>
   </trkpt>
   <trkpt lat="36.3295430" lon="127.4077590">
    <ele>63.4</ele>
    <time>2026-08-18T04:32:39Z</time>
   </trkpt>
   <trkpt lat="36.3295510" lon="127.4077680">
    <ele>63.4</ele>
    <time>2026-08-18T04:32:40Z</time>
   </trkpt>
   <trkpt lat="36.3295590" lon="127.4077790">
    <ele>63.4</ele>
    <time>2026-08-18T04:32:41Z</time>
   </trkpt>
   <trkpt lat="36.3295630" lon="127.4077890">
    <ele>63.5</ele>
    <time>2026-08-18T04:32:42Z</time>
   </trkpt>
   <trkpt lat="36.3295740" lon="127.4078010">
    <ele>63.5</ele>
    <time>2026-08-18T04:32:43Z</time>
   </trkpt>
   <trkpt lat="36.3295820" lon="127.4078110">
    <ele>63.5</ele>
    <time>2026-08-18T04:32:44Z</time>
   </trkpt>
   <trkpt lat="36.3295840" lon="127.4078200">
    <ele>63.5</ele>
    <time>2026-08-18T04:32:45Z</time>
   </trkpt>
   <trkpt lat="36.3295890" lon="127.4078270">
    <ele>63.5</ele>
    <time>2026-08-18T04:32:46Z</time>
   </trkpt>
   <trkpt lat="36.3295940" lon="127.4078380">
    <ele>63.5</ele>
    <time>2026-08-18T04:32:47Z</time>
   </trkpt>
   <trkpt lat="36.3296000" lon="127.4078500">
    <ele>63.6</ele>
    <time>2026-08-18T04:32:48Z</time>
   </trkpt>
   <trkpt lat="36.3296010" lon="127.4078550">
    <ele>63.6</ele>
    <time>2026-08-18T04:32:49Z</time>
   </trkpt>
   <trkpt lat="36.3296040" lon="127.4078640">
    <ele>63.6</ele>
    <time>2026-08-18T04:32:50Z</time>
   </trkpt>
   <trkpt lat="36.3296070" lon="127.4078740">
    <ele>63.6</ele>
    <time>2026-08-18T04:32:51Z</time>
   </trkpt>
   <trkpt lat="36.3296120" lon="127.4078940">
    <ele>63.6</ele>
    <time>2026-08-18T04:32:52Z</time>
   </trkpt>
   <trkpt lat="36.3296150" lon="127.4079010">
    <ele>63.6</ele>
    <time>2026-08-18T04:32:53Z</time>
   </trkpt>
   <trkpt lat="36.3296180" lon="127.4079090">
    <ele>63.6</ele>
    <time>2026-08-18T04:32:54Z</time>
   </trkpt>
   <trkpt lat="36.3296220" lon="127.4079170">
    <ele>63.6</ele>
    <time>2026-08-18T04:32:55Z</time>
   </trkpt>
   <trkpt lat="36.3296290" lon="127.4079260">
    <ele>63.7</ele>
    <time>2026-08-18T04:32:56Z</time>
   </trkpt>
   <trkpt lat="36.3296340" lon="127.4079360">
    <ele>63.7</ele>
    <time>2026-08-18T04:32:57Z</time>
   </trkpt>
   <trkpt lat="36.3296390" lon="127.4079490">
    <ele>63.7</ele>
    <time>2026-08-18T04:32:58Z</time>
   </trkpt>
   <trkpt lat="36.3296440" lon="127.4079610">
    <ele>63.7</ele>
    <time>2026-08-18T04:32:59Z</time>
   </trkpt>
   <trkpt lat="36.3296450" lon="127.4079670">
    <ele>63.7</ele>
    <time>2026-08-18T04:33:00Z</time>
   </trkpt>
   <trkpt lat="36.3296540" lon="127.4079810">
    <ele>63.7</ele>
    <time>2026-08-18T04:33:01Z</time>
   </trkpt>
   <trkpt lat="36.3296560" lon="127.4079890">
    <ele>63.7</ele>
    <time>2026-08-18T04:33:02Z</time>
   </trkpt>
   <trkpt lat="36.3296590" lon="127.4080040">
    <ele>63.8</ele>
    <time>2026-08-18T04:33:03Z</time>
   </trkpt>
   <trkpt lat="36.3296620" lon="127.4080120">
    <ele>63.8</ele>
    <time>2026-08-18T04:33:04Z</time>
   </trkpt>
   <trkpt lat="36.3296650" lon="127.4080210">
    <ele>63.8</ele>
    <time>2026-08-18T04:33:05Z</time>
   </trkpt>
   <trkpt lat="36.3296710" lon="127.4080310">
    <ele>63.8</ele>
    <time>2026-08-18T04:33:06Z</time>
   </trkpt>
   <trkpt lat="36.3296780" lon="127.4080500">
    <ele>63.8</ele>
    <time>2026-08-18T04:33:07Z</time>
   </trkpt>
   <trkpt lat="36.3296830" lon="127.4080520">
    <ele>63.8</ele>
    <time>2026-08-18T04:33:08Z</time>
   </trkpt>
   <trkpt lat="36.3296890" lon="127.4080630">
    <ele>63.8</ele>
    <time>2026-08-18T04:33:09Z</time>
   </trkpt>
   <trkpt lat="36.3296940" lon="127.4080750">
    <ele>63.9</ele>
    <time>2026-08-18T04:33:10Z</time>
   </trkpt>
   <trkpt lat="36.3297020" lon="127.4080790">
    <ele>63.9</ele>
    <time>2026-08-18T04:33:11Z</time>
   </trkpt>
   <trkpt lat="36.3297020" lon="127.4080850">
    <ele>63.9</ele>
    <time>2026-08-18T04:33:12Z</time>
   </trkpt>
   <trkpt lat="36.3297110" lon="127.4080990">
    <ele>63.9</ele>
    <time>2026-08-18T04:33:13Z</time>
   </trkpt>
   <trkpt lat="36.3297140" lon="127.4081060">
    <ele>63.9</ele>
    <time>2026-08-18T04:33:14Z</time>
   </trkpt>
   <trkpt lat="36.3297200" lon="127.4081110">
    <ele>63.9</ele>
    <time>2026-08-18T04:33:15Z</time>
   </trkpt>
   <trkpt lat="36.3297260" lon="127.4081230">
    <ele>64.0</ele>
    <time>2026-08-18T04:33:16Z</time>
   </trkpt>
   <trkpt lat="36.3297290" lon="127.4081310">
    <ele>64.0</ele>
    <time>2026-08-18T04:33:17Z</time>
   </trkpt>
   <trkpt lat="36.3297340" lon="127.4081410">
    <ele>64.0</ele>
    <time>2026-08-18T04:33:18Z</time>
   </trkpt>
   <trkpt lat="36.3297320" lon="127.4081470">
    <ele>64.0</ele>
    <time>2026-08-18T04:33:19Z</time>
   </trkpt>
   <trkpt lat="36.3297360" lon="127.4081580">
    <ele>64.0</ele>
    <time>2026-08-18T04:33:20Z</time>
   </trkpt>
   <trkpt lat="36.3297440" lon="127.4081650">
    <ele>64.0</ele>
    <time>2026-08-18T04:33:21Z</time>
   </trkpt>
   <trkpt lat="36.3297530" lon="127.4081680">
    <ele>64.1</ele>
    <time>2026-08-18T04:33:22Z</time>
   </trkpt>
   <trkpt lat="36.3297640" lon="127.4081770">
    <ele>64.1</ele>
    <time>2026-08-18T04:33:23Z</time>
   </trkpt>
   <trkpt lat="36.3297720" lon="127.4081830">
    <ele>64.1</ele>
    <time>2026-08-18T04:33:24Z</time>
   </trkpt>
   <trkpt lat="36.3297760" lon="127.4081920">
    <ele>64.1</ele>
    <time>2026-08-18T04:33:25Z</time>
   </trkpt>
   <trkpt lat="36.3297810" lon="127.4082010">
    <ele>64.1</ele>
    <time>2026-08-18T04:33:26Z</time>
   </trkpt>
   <trkpt lat="36.3297860" lon="127.4082130">
    <ele>64.2</ele>
    <time>2026-08-18T04:33:27Z</time>
   </trkpt>
   <trkpt lat="36.3298160" lon="127.4082420">
    <ele>64.2</ele>
    <time>2026-08-18T04:33:28Z</time>
   </trkpt>
   <trkpt lat="36.3298120" lon="127.4082340">
    <ele>64.2</ele>
    <time>2026-08-18T04:33:29Z</time>
   </trkpt>
   <trkpt lat="36.3298100" lon="127.4082400">
    <ele>64.3</ele>
    <time>2026-08-18T04:33:30Z</time>
   </trkpt>
   <trkpt lat="36.3298140" lon="127.4082520">
    <ele>64.3</ele>
    <time>2026-08-18T04:33:31Z</time>
   </trkpt>
   <trkpt lat="36.3298250" lon="127.4082640">
    <ele>64.3</ele>
    <time>2026-08-18T04:33:32Z</time>
   </trkpt>
   <trkpt lat="36.3298380" lon="127.4082750">
    <ele>64.3</ele>
    <time>2026-08-18T04:33:33Z</time>
   </trkpt>
   <trkpt lat="36.3298480" lon="127.4082760">
    <ele>64.4</ele>
    <time>2026-08-18T04:33:34Z</time>
   </trkpt>
   <trkpt lat="36.3298510" lon="127.4082780">
    <ele>64.4</ele>
    <time>2026-08-18T04:33:35Z</time>
   </trkpt>
   <trkpt lat="36.3298550" lon="127.4082930">
    <ele>64.4</ele>
    <time>2026-08-18T04:33:36Z</time>
   </trkpt>
   <trkpt lat="36.3298590" lon="127.4082980">
    <ele>64.4</ele>
    <time>2026-08-18T04:33:37Z</time>
   </trkpt>
   <trkpt lat="36.3298700" lon="127.4083070">
    <ele>64.4</ele>
    <time>2026-08-18T04:33:38Z</time>
   </trkpt>
   <trkpt lat="36.3298790" lon="127.4083180">
    <ele>64.5</ele>
    <time>2026-08-18T04:33:39Z</time>
   </trkpt>
   <trkpt lat="36.3298900" lon="127.4083190">
    <ele>64.5</ele>
    <time>2026-08-18T04:33:40Z</time>
   </trkpt>
   <trkpt lat="36.3298950" lon="127.4083160">
    <ele>64.5</ele>
    <time>2026-08-18T04:33:41Z</time>
   </trkpt>
   <trkpt lat="36.3299010" lon="127.4083230">
    <ele>64.5</ele>
    <time>2026-08-18T04:33:42Z</time>
   </trkpt>
   <trkpt lat="36.3299110" lon="127.4083290">
    <ele>64.5</ele>
    <time>2026-08-18T04:33:43Z</time>
   </trkpt>
   <trkpt lat="36.3299190" lon="127.4083360">
    <ele>64.6</ele>
    <time>2026-08-18T04:33:44Z</time>
   </trkpt>
   <trkpt lat="36.3299260" lon="127.4083410">
    <ele>64.6</ele>
    <time>2026-08-18T04:33:45Z</time>
   </trkpt>
   <trkpt lat="36.3299310" lon="127.4083450">
    <ele>64.6</ele>
    <time>2026-08-18T04:33:46Z</time>
   </trkpt>
   <trkpt lat="36.3299400" lon="127.4083500">
    <ele>64.6</ele>
    <time>2026-08-18T04:33:47Z</time>
   </trkpt>
   <trkpt lat="36.3299550" lon="127.4083620">
    <ele>64.6</ele>
    <time>2026-08-18T04:33:48Z</time>
   </trkpt>
   <trkpt lat="36.3299610" lon="127.4083630">
    <ele>64.7</ele>
    <time>2026-08-18T04:33:49Z</time>
   </trkpt>
   <trkpt lat="36.3299660" lon="127.4083650">
    <ele>64.7</ele>
    <time>2026-08-18T04:33:50Z</time>
   </trkpt>
   <trkpt lat="36.3299700" lon="127.4083710">
    <ele>64.7</ele>
    <time>2026-08-18T04:33:51Z</time>
   </trkpt>
   <trkpt lat="36.3299760" lon="127.4083790">
    <ele>64.7</ele>
    <time>2026-08-18T04:33:52Z</time>
   </trkpt>
   <trkpt lat="36.3299800" lon="127.4083870">
    <ele>64.7</ele>
    <time>2026-08-18T04:33:53Z</time>
   </trkpt>
   <trkpt lat="36.3299830" lon="127.4083920">
    <ele>64.7</ele>
    <time>2026-08-18T04:33:54Z</time>
   </trkpt>
   <trkpt lat="36.3299810" lon="127.4084050">
    <ele>64.7</ele>
    <time>2026-08-18T04:33:55Z</time>
   </trkpt>
   <trkpt lat="36.3299860" lon="127.4084100">
    <ele>64.7</ele>
    <time>2026-08-18T04:33:56Z</time>
   </trkpt>
   <trkpt lat="36.3299930" lon="127.4084120">
    <ele>64.7</ele>
    <time>2026-08-18T04:33:57Z</time>
   </trkpt>
   <trkpt lat="36.3299910" lon="127.4084300">
    <ele>64.8</ele>
    <time>2026-08-18T04:33:58Z</time>
   </trkpt>
   <trkpt lat="36.3299990" lon="127.4084550">
    <ele>64.8</ele>
    <time>2026-08-18T04:33:59Z</time>
   </trkpt>
   <trkpt lat="36.3300050" lon="127.4084570">
    <ele>64.8</ele>
    <time>2026-08-18T04:34:00Z</time>
   </trkpt>
   <trkpt lat="36.3300010" lon="127.4084590">
    <ele>64.8</ele>
    <time>2026-08-18T04:34:01Z</time>
   </trkpt>
   <trkpt lat="36.3300070" lon="127.4084670">
    <ele>64.8</ele>
    <time>2026-08-18T04:34:02Z</time>
   </trkpt>
   <trkpt lat="36.3300160" lon="127.4084760">
    <ele>64.8</ele>
    <time>2026-08-18T04:34:03Z</time>
   </trkpt>
   <trkpt lat="36.3300270" lon="127.4084860">
    <ele>64.8</ele>
    <time>2026-08-18T04:34:04Z</time>
   </trkpt>
   <trkpt lat="36.3300310" lon="127.4084960">
    <ele>64.8</ele>
    <time>2026-08-18T04:34:05Z</time>
   </trkpt>
   <trkpt lat="36.3300400" lon="127.4085070">
    <ele>64.9</ele>
    <time>2026-08-18T04:34:06Z</time>
   </trkpt>
   <trkpt lat="36.3300450" lon="127.4085130">
    <ele>64.9</ele>
    <time>2026-08-18T04:34:07Z</time>
   </trkpt>
   <trkpt lat="36.3300490" lon="127.4085190">
    <ele>64.9</ele>
    <time>2026-08-18T04:34:08Z</time>
   </trkpt>
   <trkpt lat="36.3300420" lon="127.4085190">
    <ele>64.9</ele>
    <time>2026-08-18T04:34:09Z</time>
   </trkpt>
   <trkpt lat="36.3300500" lon="127.4085340">
    <ele>64.9</ele>
    <time>2026-08-18T04:34:10Z</time>
   </trkpt>
   <trkpt lat="36.3300590" lon="127.4085590">
    <ele>64.9</ele>
    <time>2026-08-18T04:34:11Z</time>
   </trkpt>
   <trkpt lat="36.3300660" lon="127.4085660">
    <ele>65.0</ele>
    <time>2026-08-18T04:34:12Z</time>
   </trkpt>
   <trkpt lat="36.3300680" lon="127.4085700">
    <ele>65.0</ele>
    <time>2026-08-18T04:34:13Z</time>
   </trkpt>
   <trkpt lat="36.3300740" lon="127.4085790">
    <ele>65.0</ele>
    <time>2026-08-18T04:34:14Z</time>
   </trkpt>
   <trkpt lat="36.3300840" lon="127.4085950">
    <ele>65.1</ele>
    <time>2026-08-18T04:34:15Z</time>
   </trkpt>
   <trkpt lat="36.3300930" lon="127.4086030">
    <ele>65.1</ele>
    <time>2026-08-18T04:34:16Z</time>
   </trkpt>
   <trkpt lat="36.3300970" lon="127.4086110">
    <ele>65.1</ele>
    <time>2026-08-18T04:34:17Z</time>
   </trkpt>
   <trkpt lat="36.3301030" lon="127.4086210">
    <ele>65.1</ele>
    <time>2026-08-18T04:34:18Z</time>
   </trkpt>
   <trkpt lat="36.3301110" lon="127.4086370">
    <ele>65.2</ele>
    <time>2026-08-18T04:34:19Z</time>
   </trkpt>
   <trkpt lat="36.3301180" lon="127.4086350">
    <ele>65.2</ele>
    <time>2026-08-18T04:34:20Z</time>
   </trkpt>
   <trkpt lat="36.3301080" lon="127.4086330">
    <ele>65.2</ele>
    <time>2026-08-18T04:34:21Z</time>
   </trkpt>
   <trkpt lat="36.3301220" lon="127.4086470">
    <ele>65.3</ele>
    <time>2026-08-18T04:34:22Z</time>
   </trkpt>
   <trkpt lat="36.3301270" lon="127.4086580">
    <ele>65.3</ele>
    <time>2026-08-18T04:34:23Z</time>
   </trkpt>
   <trkpt lat="36.3301380" lon="127.4086680">
    <ele>65.4</ele>
    <time>2026-08-18T04:34:24Z</time>
   </trkpt>
   <trkpt lat="36.3301480" lon="127.4086810">
    <ele>65.4</ele>
    <time>2026-08-18T04:34:25Z</time>
   </trkpt>
   <trkpt lat="36.3301520" lon="127.4086900">
    <ele>65.4</ele>
    <time>2026-08-18T04:34:26Z</time>
   </trkpt>
   <trkpt lat="36.3301620" lon="127.4086960">
    <ele>65.5</ele>
    <time>2026-08-18T04:34:27Z</time>
   </trkpt>
   <trkpt lat="36.3301650" lon="127.4087010">
    <ele>65.5</ele>
    <time>2026-08-18T04:34:28Z</time>
   </trkpt>
   <trkpt lat="36.3301720" lon="127.4087120">
    <ele>65.5</ele>
    <time>2026-08-18T04:34:29Z</time>
   </trkpt>
   <trkpt lat="36.3301770" lon="127.4087210">
    <ele>65.5</ele>
    <time>2026-08-18T04:34:30Z</time>
   </trkpt>
   <trkpt lat="36.3301820" lon="127.4087290">
    <ele>65.5</ele>
    <time>2026-08-18T04:34:32Z</time>
   </trkpt>
   <trkpt lat="36.3301910" lon="127.4087440">
    <ele>65.6</ele>
    <time>2026-08-18T04:34:33Z</time>
   </trkpt>
   <trkpt lat="36.3301990" lon="127.4087470">
    <ele>65.6</ele>
    <time>2026-08-18T04:34:34Z</time>
   </trkpt>
   <trkpt lat="36.3302030" lon="127.4087560">
    <ele>65.6</ele>
    <time>2026-08-18T04:34:35Z</time>
   </trkpt>
   <trkpt lat="36.3302130" lon="127.4087670">
    <ele>65.6</ele>
    <time>2026-08-18T04:34:36Z</time>
   </trkpt>
   <trkpt lat="36.3302190" lon="127.4087780">
    <ele>65.7</ele>
    <time>2026-08-18T04:34:37Z</time>
   </trkpt>
   <trkpt lat="36.3302240" lon="127.4087850">
    <ele>65.7</ele>
    <time>2026-08-18T04:34:38Z</time>
   </trkpt>
   <trkpt lat="36.3302330" lon="127.4087910">
    <ele>65.7</ele>
    <time>2026-08-18T04:34:39Z</time>
   </trkpt>
   <trkpt lat="36.3302430" lon="127.4088030">
    <ele>65.7</ele>
    <time>2026-08-18T04:34:40Z</time>
   </trkpt>
   <trkpt lat="36.3302530" lon="127.4088080">
    <ele>65.8</ele>
    <time>2026-08-18T04:34:41Z</time>
   </trkpt>
   <trkpt lat="36.3302590" lon="127.4088120">
    <ele>65.8</ele>
    <time>2026-08-18T04:34:42Z</time>
   </trkpt>
   <trkpt lat="36.3302650" lon="127.4088190">
    <ele>65.8</ele>
    <time>2026-08-18T04:34:43Z</time>
   </trkpt>
   <trkpt lat="36.3302670" lon="127.4088160">
    <ele>65.8</ele>
    <time>2026-08-18T04:34:44Z</time>
   </trkpt>
   <trkpt lat="36.3302740" lon="127.4088250">
    <ele>65.8</ele>
    <time>2026-08-18T04:34:45Z</time>
   </trkpt>
   <trkpt lat="36.3302770" lon="127.4088400">
    <ele>65.8</ele>
    <time>2026-08-18T04:34:46Z</time>
   </trkpt>
   <trkpt lat="36.3302750" lon="127.4088470">
    <ele>65.8</ele>
    <time>2026-08-18T04:34:47Z</time>
   </trkpt>
   <trkpt lat="36.3302750" lon="127.4088540">
    <ele>65.9</ele>
    <time>2026-08-18T04:34:48Z</time>
   </trkpt>
   <trkpt lat="36.3302750" lon="127.4088500">
    <ele>65.9</ele>
    <time>2026-08-18T04:34:49Z</time>
   </trkpt>
   <trkpt lat="36.3302770" lon="127.4088670">
    <ele>65.9</ele>
    <time>2026-08-18T04:34:50Z</time>
   </trkpt>
   <trkpt lat="36.3302820" lon="127.4088790">
    <ele>65.9</ele>
    <time>2026-08-18T04:34:51Z</time>
   </trkpt>
   <trkpt lat="36.3302870" lon="127.4088830">
    <ele>65.9</ele>
    <time>2026-08-18T04:34:52Z</time>
   </trkpt>
   <trkpt lat="36.3302900" lon="127.4088970">
    <ele>65.9</ele>
    <time>2026-08-18T04:34:53Z</time>
   </trkpt>
   <trkpt lat="36.3302940" lon="127.4089070">
    <ele>65.9</ele>
    <time>2026-08-18T04:34:54Z</time>
   </trkpt>
   <trkpt lat="36.3302990" lon="127.4089230">
    <ele>65.9</ele>
    <time>2026-08-18T04:34:55Z</time>
   </trkpt>
   <trkpt lat="36.3303080" lon="127.4089340">
    <ele>65.9</ele>
    <time>2026-08-18T04:34:56Z</time>
   </trkpt>
   <trkpt lat="36.3303140" lon="127.4089480">
    <ele>65.9</ele>
    <time>2026-08-18T04:34:57Z</time>
   </trkpt>
   <trkpt lat="36.3303210" lon="127.4089440">
    <ele>65.9</ele>
    <time>2026-08-18T04:34:58Z</time>
   </trkpt>
   <trkpt lat="36.3303290" lon="127.4089500">
    <ele>65.9</ele>
    <time>2026-08-18T04:34:59Z</time>
   </trkpt>
   <trkpt lat="36.3303420" lon="127.4089610">
    <ele>65.9</ele>
    <time>2026-08-18T04:35:00Z</time>
   </trkpt>
   <trkpt lat="36.3303430" lon="127.4089710">
    <ele>65.9</ele>
    <time>2026-08-18T04:35:01Z</time>
   </trkpt>
   <trkpt lat="36.3303500" lon="127.4089800">
    <ele>65.9</ele>
    <time>2026-08-18T04:35:02Z</time>
   </trkpt>
   <trkpt lat="36.3303550" lon="127.4089940">
    <ele>65.9</ele>
    <time>2026-08-18T04:35:03Z</time>
   </trkpt>
   <trkpt lat="36.3303600" lon="127.4089930">
    <ele>65.9</ele>
    <time>2026-08-18T04:35:04Z</time>
   </trkpt>
   <trkpt lat="36.3303700" lon="127.4090100">
    <ele>65.9</ele>
    <time>2026-08-18T04:35:05Z</time>
   </trkpt>
   <trkpt lat="36.3303850" lon="127.4090230">
    <ele>65.9</ele>
    <time>2026-08-18T04:35:06Z</time>
   </trkpt>
   <trkpt lat="36.3304020" lon="127.4090350">
    <ele>65.9</ele>
    <time>2026-08-18T04:35:07Z</time>
   </trkpt>
   <trkpt lat="36.3304110" lon="127.4090440">
    <ele>65.9</ele>
    <time>2026-08-18T04:35:08Z</time>
   </trkpt>
   <trkpt lat="36.3304110" lon="127.4090490">
    <ele>65.8</ele>
    <time>2026-08-18T04:35:09Z</time>
   </trkpt>
   <trkpt lat="36.3304100" lon="127.4090550">
    <ele>65.8</ele>
    <time>2026-08-18T04:35:10Z</time>
   </trkpt>
   <trkpt lat="36.3304160" lon="127.4090670">
    <ele>65.8</ele>
    <time>2026-08-18T04:35:11Z</time>
   </trkpt>
   <trkpt lat="36.3304240" lon="127.4090790">
    <ele>65.8</ele>
    <time>2026-08-18T04:35:12Z</time>
   </trkpt>
   <trkpt lat="36.3304440" lon="127.4091160">
    <ele>65.8</ele>
    <time>2026-08-18T04:35:13Z</time>
   </trkpt>
   <trkpt lat="36.3304430" lon="127.4091190">
    <ele>65.8</ele>
    <time>2026-08-18T04:35:14Z</time>
   </trkpt>
   <trkpt lat="36.3304510" lon="127.4091290">
    <ele>65.7</ele>
    <time>2026-08-18T04:35:15Z</time>
   </trkpt>
   <trkpt lat="36.3304590" lon="127.4091290">
    <ele>65.7</ele>
    <time>2026-08-18T04:35:16Z</time>
   </trkpt>
   <trkpt lat="36.3304610" lon="127.4091360">
    <ele>65.7</ele>
    <time>2026-08-18T04:35:17Z</time>
   </trkpt>
   <trkpt lat="36.3304640" lon="127.4091420">
    <ele>65.7</ele>
    <time>2026-08-18T04:35:18Z</time>
   </trkpt>
   <trkpt lat="36.3304700" lon="127.4091450">
    <ele>65.7</ele>
    <time>2026-08-18T04:35:19Z</time>
   </trkpt>
   <trkpt lat="36.3304740" lon="127.4091560">
    <ele>65.7</ele>
    <time>2026-08-18T04:35:20Z</time>
   </trkpt>
  </trkseg>
 </trk>
</gpx>
