<?xml version="1.0" encoding="UTF-8"?>
<gpx creator="StravaGPX" version="1.1" xmlns="http://www.topografix.com/GPX/1/1" xmlns:xsi="http://www.w3.org/2001/XMLSchema-instance" xsi:schemaLocation="http://www.topografix.com/GPX/1/1 http://www.topografix.com/GPX/1/1/gpx.xsd">
 <metadata>
  <time>2026-08-18T02:28:19Z</time>
 </metadata>
 <trk>
  <name>홍민기_가파른오르막_3</name>
  <type>walking</type>
  <trkseg>
   <trkpt lat="36.3287830" lon="127.4056320">
    <ele>51.4</ele>
    <time>2026-08-18T02:28:19Z</time>
   </trkpt>
   <trkpt lat="36.3287830" lon="127.4056320">
    <ele>51.4</ele>
    <time>2026-08-18T02:28:20Z</time>
   </trkpt>
   <trkpt lat="36.3287910" lon="127.4056380">
    <ele>51.4</ele>
    <time>2026-08-18T02:28:21Z</time>
   </trkpt>
   <trkpt lat="36.3288020" lon="127.4056430">
    <ele>51.4</ele>
    <time>2026-08-18T02:28:22Z</time>
   </trkpt>
   <trkpt lat="36.3288050" lon="127.4056490">
    <ele>51.4</ele>
    <time>2026-08-18T02:28:23Z</time>
   </trkpt>
   <trkpt lat="36.3288300" lon="127.4056400">
    <ele>51.4</ele>
    <time>2026-08-18T02:28:24Z</time>
   </trkpt>
   <trkpt lat="36.3288400" lon="127.4056700">
    <ele>51.4</ele>
    <time>2026-08-18T02:28:25Z</time>
   </trkpt>
   <trkpt lat="36.3288480" lon="127.4056860">
    <ele>51.4</ele>
    <time>2026-08-18T02:28:26Z</time>
   </trkpt>
   <trkpt lat="36.3288630" lon="127.4056890">
    <ele>51.4</ele>
    <time>2026-08-18T02:28:27Z</time>
   </trkpt>
   <trkpt lat="36.3288700" lon="127.4056940">
    <ele>51.4</ele>
    <time>2026-08-18T02:28:28Z</time>
   </trkpt>
   <trkpt lat="36.3288730" lon="127.4057030">
    <ele>51.4</ele>
    <time>2026-08-18T02:28:29Z</time>
   </trkpt>
   <trkpt lat="36.3288970" lon="127.4057100">
    <ele>51.4</ele>
    <time>2026-08-18T02:28:30Z</time>
   </trkpt>
   <trkpt lat="36.3289160" lon="127.4057120">
    <ele>51.4</ele>
    <time>2026-08-18T02:28:31Z</time>
   </trkpt>
   <trkpt lat="36.3289270" lon="127.4057270">
    <ele>51.4</ele>
    <time>2026-08-18T02:28:32Z</time>
   </trkpt>
   <trkpt lat="36.3289360" lon="127.4057180">
    <ele>51.4</ele>
    <time>2026-08-18T02:28:33Z</time>
   </trkpt>
   <trkpt lat="36.3289440" lon="127.4057180">
    <ele>51.4</ele>
    <time>2026-08-18T02:28:34Z</time>
   </trkpt>
   <trkpt lat="36.3289450" lon="127.4057220">
    <ele>51.4</ele>
    <time>2026-08-18T02:28:35Z</time>
   </trkpt>
   <trkpt lat="36.3289520" lon="127.4057230">
    <ele>51.4</ele>
    <time>2026-08-18T02:28:36Z</time>
   </trkpt>
   <trkpt lat="36.3289580" lon="127.4057330">
    <ele>51.4</ele>
    <time>2026-08-18T02:28:37Z</time>
   </trkpt>
   <trkpt lat="36.3289710" lon="127.4057370">
    <ele>51.4</ele>
    <time>2026-08-18T02:28:38Z</time>
   </trkpt>
   <trkpt lat="36.3289750" lon="127.4057440">
    <ele>51.4</ele>
    <time>2026-08-18T02:28:39Z</time>
   </trkpt>
   <trkpt lat="36.3289730" lon="127.4057460">
    <ele>51.4</ele>
    <time>2026-08-18T02:28:40Z</time>
   </trkpt>
   <trkpt lat="36.3289750" lon="127.4057540">
    <ele>51.4</ele>
    <time>2026-08-18T02:28:41Z</time>
   </trkpt>
   <trkpt lat="36.3289600" lon="127.4057550">
    <ele>51.4</ele>
    <time>2026-08-18T02:28:42Z</time>
   </trkpt>
   <trkpt lat="36.3289690" lon="127.4057830">
    <ele>51.4</ele>
    <time>2026-08-18T02:28:43Z</time>
   </trkpt>
   <trkpt lat="36.3289780" lon="127.4057920">
    <ele>51.4</ele>
    <time>2026-08-18T02:28:44Z</time>
   </trkpt>
   <trkpt lat="36.3289850" lon="127.4058000">
    <ele>51.4</ele>
    <time>2026-08-18T02:28:45Z</time>
   </trkpt>
   <trkpt lat="36.3289920" lon="127.4058120">
    <ele>51.4</ele>
    <time>2026-08-18T02:28:46Z</time>
   </trkpt>
   <trkpt lat="36.3290000" lon="127.4058240">
    <ele>51.5</ele>
    <time>2026-08-18T02:28:47Z</time>
   </trkpt>
   <trkpt lat="36.3290060" lon="127.4058310">
    <ele>51.5</ele>
    <time>2026-08-18T02:28:48Z</time>
   </trkpt>
   <trkpt lat="36.3290090" lon="127.4058390">
    <ele>51.5</ele>
    <time>2026-08-18T02:28:49Z</time>
   </trkpt>
   <trkpt lat="36.3290190" lon="127.4058550">
    <ele>51.5</ele>
    <time>2026-08-18T02:28:50Z</time>
   </trkpt>
   <trkpt lat="36.3290230" lon="127.4058650">
    <ele>51.5</ele>
    <time>2026-08-18T02:28:51Z</time>
   </trkpt>
   <trkpt lat="36.3290340" lon="127.4058710">
    <ele>51.5</ele>
    <time>2026-08-18T02:28:52Z</time>
   </trkpt>
   <trkpt lat="36.3290410" lon="127.4058820">
    <ele>51.5</ele>
    <time>2026-08-18T02:28:53Z</time>
   </trkpt>
   <trkpt lat="36.3290420" lon="127.4058880">
    <ele>51.5</ele>
    <time>2026-08-18T02:28:54Z</time>
   </trkpt>
   <trkpt lat="36.3290450" lon="127.4058900">
    <ele>51.5</ele>
    <time>2026-08-18T02:28:55Z</time>
   </trkpt>
   <trkpt lat="36.3290520" lon="127.4059040">
    <ele>51.5</ele>
    <time>2026-08-18T02:28:56Z</time>
   </trkpt>
   <trkpt lat="36.3290550" lon="127.4059130">
    <ele>51.5</ele>
    <time>2026-08-18T02:28:57Z</time>
   </trkpt>
   <trkpt lat="36.3290570" lon="127.4059160">
    <ele>51.5</ele>
    <time>2026-08-18T02:28:58Z</time>
   </trkpt>
   <trkpt lat="36.3290650" lon="127.4059240">
    <ele>51.5</ele>
    <time>2026-08-18T02:28:59Z</time>
   </trkpt>
   <trkpt lat="36.3290690" lon="127.4059400">
    <ele>51.5</ele>
    <time>2026-08-18T02:29:00Z</time>
   </trkpt>
   <trkpt lat="36.3290720" lon="127.4059580">
    <ele>51.5</ele>
    <time>2026-08-18T02:29:01Z</time>
   </trkpt>
   <trkpt lat="36.3290790" lon="127.4059710">
    <ele>51.5</ele>
    <time>2026-08-18T02:29:02Z</time>
   </trkpt>
   <trkpt lat="36.3290830" lon="127.4059820">
    <ele>51.6</ele>
    <time>2026-08-18T02:29:03Z</time>
   </trkpt>
   <trkpt lat="36.3290840" lon="127.4059930">
    <ele>51.6</ele>
    <time>2026-08-18T02:29:04Z</time>
   </trkpt>
   <trkpt lat="36.3290870" lon="127.4060050">
    <ele>51.6</ele>
    <time>2026-08-18T02:29:05Z</time>
   </trkpt>
   <trkpt lat="36.3290910" lon="127.4060220">
    <ele>51.6</ele>
    <time>2026-08-18T02:29:06Z</time>
   </trkpt>
   <trkpt lat="36.3290990" lon="127.4060330">
    <ele>51.6</ele>
    <time>2026-08-18T02:29:07Z</time>
   </trkpt>
   <trkpt lat="36.3291050" lon="127.4060400">
    <ele>51.6</ele>
    <time>2026-08-18T02:29:08Z</time>
   </trkpt>
   <trkpt lat="36.3291090" lon="127.4060440">
    <ele>51.6</ele>
    <time>2026-08-18T02:29:09Z</time>
   </trkpt>
   <trkpt lat="36.3291160" lon="127.4060530">
    <ele>51.6</ele>
    <time>2026-08-18T02:29:10Z</time>
   </trkpt>
   <trkpt lat="36.3291220" lon="127.4060680">
    <ele>51.6</ele>
    <time>2026-08-18T02:29:11Z</time>
   </trkpt>
   <trkpt lat="36.3291230" lon="127.4060800">
    <ele>51.6</ele>
    <time>2026-08-18T02:29:12Z</time>
   </trkpt>
   <trkpt lat="36.3291280" lon="127.4060950">
    <ele>51.7</ele>
    <time>2026-08-18T02:29:13Z</time>
   </trkpt>
   <trkpt lat="36.3291380" lon="127.4061100">
    <ele>51.7</ele>
    <time>2026-08-18T02:29:14Z</time>
   </trkpt>
   <trkpt lat="36.3291440" lon="127.4061240">
    <ele>51.7</ele>
    <time>2026-08-18T02:29:15Z</time>
   </trkpt>
   <trkpt lat="36.3291500" lon="127.4061310">
    <ele>51.7</ele>
    <time>2026-08-18T02:29:16Z</time>
   </trkpt>
   <trkpt lat="36.3291510" lon="127.4061390">
    <ele>51.7</ele>
    <time>2026-08-18T02:29:17Z</time>
   </trkpt>
   <trkpt lat="36.3291550" lon="127.4061460">
    <ele>51.7</ele>
    <time>2026-08-18T02:29:18Z</time>
   </trkpt>
   <trkpt lat="36.3291580" lon="127.4061520">
    <ele>51.7</ele>
    <time>2026-08-18T02:29:19Z</time>
   </trkpt>
   <trkpt lat="36.3291620" lon="127.4061610">
    <ele>51.7</ele>
    <time>2026-08-18T02:29:20Z</time>
   </trkpt>
   <trkpt lat="36.3291630" lon="127.4061690">
    <ele>51.8</ele>
    <time>2026-08-18T02:29:21Z</time>
   </trkpt>
   <trkpt lat="36.3291620" lon="127.4061800">
    <ele>51.8</ele>
    <time>2026-08-18T02:29:22Z</time>
   </trkpt>
   <trkpt lat="36.3291630" lon="127.4061910">
    <ele>51.8</ele>
    <time>2026-08-18T02:29:23Z</time>
   </trkpt>
   <trkpt lat="36.3291670" lon="127.4062100">
    <ele>51.8</ele>
    <time>2026-08-18T02:29:24Z</time>
   </trkpt>
   <trkpt lat="36.3291700" lon="127.4062270">
    <ele>51.9</ele>
    <time>2026-08-18T02:29:25Z</time>
   </trkpt>
   <trkpt lat="36.3291720" lon="127.4062420">
    <ele>51.9</ele>
    <time>2026-08-18T02:29:26Z</time>
   </trkpt>
   <trkpt lat="36.3291750" lon="127.4062550">
    <ele>51.9</ele>
    <time>2026-08-18T02:29:27Z</time>
   </trkpt>
   <trkpt lat="36.3291810" lon="127.4062620">
    <ele>51.9</ele>
    <time>2026-08-18T02:29:28Z</time>
   </trkpt>
   <trkpt lat="36.3291790" lon="127.4062660">
    <ele>52.0</ele>
    <time>2026-08-18T02:29:29Z</time>
   </trkpt>
   <trkpt lat="36.3291780" lon="127.4062790">
    <ele>52.0</ele>
    <time>2026-08-18T02:29:30Z</time>
   </trkpt>
   <trkpt lat="36.3291810" lon="127.4062890">
    <ele>52.0</ele>
    <time>2026-08-18T02:29:31Z</time>
   </trkpt>
   <trkpt lat="36.3291930" lon="127.4063080">
    <ele>52.1</ele>
    <time>2026-08-18T02:29:32Z</time>
   </trkpt>
   <trkpt lat="36.3292030" lon="127.4063170">
    <ele>52.1</ele>
    <time>2026-08-18T02:29:33Z</time>
   </trkpt>
   <trkpt lat="36.3292090" lon="127.4063300">
    <ele>52.1</ele>
    <time>2026-08-18T02:29:34Z</time>
   </trkpt>
   <trkpt lat="36.3292080" lon="127.4063430">
    <ele>52.2</ele>
    <time>2026-08-18T02:29:35Z</time>
   </trkpt>
   <trkpt lat="36.3291970" lon="127.4063460">
    <ele>52.2</ele>
    <time>2026-08-18T02:29:36Z</time>
   </trkpt>
   <trkpt lat="36.3292010" lon="127.4063620">
    <ele>52.2</ele>
    <time>2026-08-18T02:29:37Z</time>
   </trkpt>
   <trkpt lat="36.3292020" lon="127.4063730">
    <ele>52.3</ele>
    <time>2026-08-18T02:29:38Z</time>
   </trkpt>
   <trkpt lat="36.3292010" lon="127.4063890">
    <ele>52.3</ele>
    <time>2026-08-18T02:29:39Z</time>
   </trkpt>
   <trkpt lat="36.3292010" lon="127.4064100">
    <ele>52.4</ele>
    <time>2026-08-18T02:29:40Z</time>
   </trkpt>
   <trkpt lat="36.3291980" lon="127.4064290">
    <ele>52.4</ele>
    <time>2026-08-18T02:29:41Z</time>
   </trkpt>
   <trkpt lat="36.3292000" lon="127.4064380">
    <ele>52.4</ele>
    <time>2026-08-18T02:29:42Z</time>
   </trkpt>
   <trkpt lat="36.3292100" lon="127.4064400">
    <ele>52.5</ele>
    <time>2026-08-18T02:29:43Z</time>
   </trkpt>
   <trkpt lat="36.3292130" lon="127.4064530">
    <ele>52.5</ele>
    <time>2026-08-18T02:29:44Z</time>
   </trkpt>
   <trkpt lat="36.3292120" lon="127.4064710">
    <ele>52.5</ele>
    <time>2026-08-18T02:29:45Z</time>
   </trkpt>
   <trkpt lat="36.3292140" lon="127.4064800">
    <ele>52.5</ele>
    <time>2026-08-18T02:29:46Z</time>
   </trkpt>
   <trkpt lat="36.3292150" lon="127.4064930">
    <ele>52.6</ele>
    <time>2026-08-18T02:29:47Z</time>
   </trkpt>
   <trkpt lat="36.3292190" lon="127.4065020">
    <ele>52.6</ele>
    <time>2026-08-18T02:29:48Z</time>
   </trkpt>
   <trkpt lat="36.3292190" lon="127.4065180">
    <ele>52.6</ele>
    <time>2026-08-18T02:29:49Z</time>
   </trkpt>
   <trkpt lat="36.3292230" lon="127.4065290">
    <ele>52.7</ele>
    <time>2026-08-18T02:29:50Z</time>
   </trkpt>
   <trkpt lat="36.3292250" lon="127.4065450">
    <ele>52.7</ele>
    <time>2026-08-18T02:29:51Z</time>
   </trkpt>
   <trkpt lat="36.3292290" lon="127.4065440">
    <ele>52.7</ele>
    <time>2026-08-18T02:29:52Z</time>
   </trkpt>
   <trkpt lat="36.3292320" lon="127.4065520">
    <ele>52.7</ele>
    <time>2026-08-18T02:29:53Z</time>
   </trkpt>
   <trkpt lat="36.3292350" lon="127.4065570">
    <ele>52.7</ele>
    <time>2026-08-18T02:29:54Z</time>
   </trkpt>
   <trkpt lat="36.3292380" lon="127.4065670">
    <ele>52.8</ele>
    <time>2026-08-18T02:29:55Z</time>
   </trkpt>
   <trkpt lat="36.3292330" lon="127.4065810">
    <ele>52.8</ele>
    <time>2026-08-18T02:29:56Z</time>
   </trkpt>
   <trkpt lat="36.3292310" lon="127.4065970">
    <ele>52.8</ele>
    <time>2026-08-18T02:29:57Z</time>
   </trkpt>
   <trkpt lat="36.3292320" lon="127.4066150">
    <ele>52.9</ele>
    <time>2026-08-18T02:29:58Z</time>
   </trkpt>
   <trkpt lat="36.3292340" lon="127.4066290">
    <ele>52.9</ele>
    <time>2026-08-18T02:29:59Z</time>
   </trkpt>
   <trkpt lat="36.3292450" lon="127.4066600">
    <ele>53.0</ele>
    <time>2026-08-18T02:30:00Z</time>
   </trkpt>
   <trkpt lat="36.3292500" lon="127.4066540">
    <ele>53.0</ele>
    <time>2026-08-18T02:30:01Z</time>
   </trkpt>
   <trkpt lat="36.3292530" lon="127.4066580">
    <ele>53.0</ele>
    <time>2026-08-18T02:30:02Z</time>
   </trkpt>
   <trkpt lat="36.3292550" lon="127.4066660">
    <ele>53.0</ele>
    <time>2026-08-18T02:30:03Z</time>
   </trkpt>
   <trkpt lat="36.3292610" lon="127.4066770">
    <ele>53.1</ele>
    <time>2026-08-18T02:30:04Z</time>
   </trkpt>
   <trkpt lat="36.3292620" lon="127.4066760">
    <ele>53.1</ele>
    <time>2026-08-18T02:30:05Z</time>
   </trkpt>
   <trkpt lat="36.3292650" lon="127.4066900">
    <ele>53.2</ele>
    <time>2026-08-18T02:30:06Z</time>
   </trkpt>
   <trkpt lat="36.3292670" lon="127.4067010">
    <ele>53.3</ele>
    <time>2026-08-18T02:30:07Z</time>
   </trkpt>
   <trkpt lat="36.3292690" lon="127.4067100">
    <ele>53.4</ele>
    <time>2026-08-18T02:30:08Z</time>
   </trkpt>
   <trkpt lat="36.3292680" lon="127.4067180">
    <ele>53.4</ele>
    <time>2026-08-18T02:30:09Z</time>
   </trkpt>
   <trkpt lat="36.3292680" lon="127.4067300">
    <ele>53.6</ele>
    <time>2026-08-18T02:30:10Z</time>
   </trkpt>
   <trkpt lat="36.3292700" lon="127.4067460">
    <ele>53.7</ele>
    <time>2026-08-18T02:30:11Z</time>
   </trkpt>
   <trkpt lat="36.3292670" lon="127.4067450">
    <ele>53.7</ele>
    <time>2026-08-18T02:30:12Z</time>
   </trkpt>
   <trkpt lat="36.3292670" lon="127.4067560">
    <ele>53.8</ele>
    <time>2026-08-18T02:30:14Z</time>
   </trkpt>
   <trkpt lat="36.3292630" lon="127.4067650">
    <ele>53.9</ele>
    <time>2026-08-18T02:30:15Z</time>
   </trkpt>
   <trkpt lat="36.3292650" lon="127.4067750">
    <ele>54.0</ele>
    <time>2026-08-18T02:30:16Z</time>
   </trkpt>
   <trkpt lat="36.3292690" lon="127.4067870">
    <ele>54.2</ele>
    <time>2026-08-18T02:30:17Z</time>
   </trkpt>
   <trkpt lat="36.3292610" lon="127.4067880">
    <ele>54.3</ele>
    <time>2026-08-18T02:30:18Z</time>
   </trkpt>
   <trkpt lat="36.3292630" lon="127.4068030">
    <ele>54.4</ele>
    <time>2026-08-18T02:30:19Z</time>
   </trkpt>
   <trkpt lat="36.3292650" lon="127.4068190">
    <ele>54.5</ele>
    <time>2026-08-18T02:30:20Z</time>
   </trkpt>
   <trkpt lat="36.3292700" lon="127.4068300">
    <ele>54.7</ele>
    <time>2026-08-18T02:30:21Z</time>
   </trkpt>
   <trkpt lat="36.3292780" lon="127.4068430">
    <ele>54.8</ele>
    <time>2026-08-18T02:30:22Z</time>
   </trkpt>
   <trkpt lat="36.3292820" lon="127.4068570">
    <ele>54.9</ele>
    <time>2026-08-18T02:30:23Z</time>
   </trkpt>
   <trkpt lat="36.3292810" lon="127.4068650">
    <ele>55.0</ele>
    <time>2026-08-18T02:30:24Z</time>
   </trkpt>
   <trkpt lat="36.3292860" lon="127.4068800">
    <ele>55.2</ele>
    <time>2026-08-18T02:30:25Z</time>
   </trkpt>
   <trkpt lat="36.3292880" lon="127.4068860">
    <ele>55.2</ele>
    <time>2026-08-18T02:30:26Z</time>
   </trkpt>
   <trkpt lat="36.3292940" lon="127.4068980">
    <ele>55.4</ele>
    <time>2026-08-18T02:30:27Z</time>
   </trkpt>
   <trkpt lat="36.3292960" lon="127.4069090">
    <ele>55.5</ele>
    <time>2026-08-18T02:30:28Z</time>
   </trkpt>
   <trkpt lat="36.3292960" lon="127.4069210">
    <ele>55.6</ele>
    <time>2026-08-18T02:30:29Z</time>
   </trkpt>
   <trkpt lat="36.3292980" lon="127.4069380">
    <ele>55.7</ele>
    <time>2026-08-18T02:30:30Z</time>
   </trkpt>
   <trkpt lat="36.3292990" lon="127.4069460">
    <ele>55.8</ele>
    <time>2026-08-18T02:30:31Z</time>
   </trkpt>
   <trkpt lat="36.3293010" lon="127.4069540">
    <ele>55.9</ele>
    <time>2026-08-18T02:30:32Z</time>
   </trkpt>
   <trkpt lat="36.3293050" lon="127.4069630">
    <ele>56.0</ele>
    <time>2026-08-18T02:30:33Z</time>
   </trkpt>
   <trkpt lat="36.3293070" lon="127.4069740">
    <ele>56.1</ele>
    <time>2026-08-18T02:30:34Z</time>
   </trkpt>
   <trkpt lat="36.3293070" lon="127.4069770">
    <ele>56.1</ele>
    <time>2026-08-18T02:30:35Z</time>
   </trkpt>
   <trkpt lat="36.3293100" lon="127.4069880">
    <ele>56.2</ele>
    <time>2026-08-18T02:30:36Z</time>
   </trkpt>
   <trkpt lat="36.3293010" lon="127.4069870">
    <ele>56.3</ele>
    <time>2026-08-18T02:30:37Z</time>
   </trkpt>
   <trkpt lat="36.3292960" lon="127.4070120">
    <ele>56.5</ele>
    <time>2026-08-18T02:30:38Z</time>
   </trkpt>
   <trkpt lat="36.3293040" lon="127.4070210">
    <ele>56.7</ele>
    <time>2026-08-18T02:30:39Z</time>
   </trkpt>
   <trkpt lat="36.3293070" lon="127.4070350">
    <ele>56.8</ele>
    <time>2026-08-18T02:30:40Z</time>
   </trkpt>
   <trkpt lat="36.3293050" lon="127.4070540">
    <ele>57.0</ele>
    <time>2026-08-18T02:30:41Z</time>
   </trkpt>
   <trkpt lat="36.3293160" lon="127.4070610">
    <ele>57.1</ele>
    <time>2026-08-18T02:30:42Z</time>
   </trkpt>
   <trkpt lat="36.3293260" lon="127.4070730">
    <ele>57.3</ele>
    <time>2026-08-18T02:30:43Z</time>
   </trkpt>
   <trkpt lat="36.3293290" lon="127.4070840">
    <ele>57.4</ele>
    <time>2026-08-18T02:30:44Z</time>
   </trkpt>
   <trkpt lat="36.3293160" lon="127.4070710">
    <ele>57.6</ele>
    <time>2026-08-18T02:30:45Z</time>
   </trkpt>
   <trkpt lat="36.3293080" lon="127.4070710">
    <ele>57.7</ele>
    <time>2026-08-18T02:30:46Z</time>
   </trkpt>
   <trkpt lat="36.3293130" lon="127.4070930">
    <ele>57.9</ele>
    <time>2026-08-18T02:30:47Z</time>
   </trkpt>
   <trkpt lat="36.3292930" lon="127.4071220">
    <ele>58.2</ele>
    <time>2026-08-18T02:30:48Z</time>
   </trkpt>
   <trkpt lat="36.3293090" lon="127.4071210">
    <ele>58.4</ele>
    <time>2026-08-18T02:30:49Z</time>
   </trkpt>
   <trkpt lat="36.3293190" lon="127.4071280">
    <ele>58.5</ele>
    <time>2026-08-18T02:30:50Z</time>
   </trkpt>
   <trkpt lat="36.3293250" lon="127.4071530">
    <ele>58.8</ele>
    <time>2026-08-18T02:30:51Z</time>
   </trkpt>
   <trkpt lat="36.3293290" lon="127.4071600">
    <ele>58.8</ele>
    <time>2026-08-18T02:30:52Z</time>
   </trkpt>
   <trkpt lat="36.3293310" lon="127.4071750">
    <ele>59.0</ele>
    <time>2026-08-18T02:30:53Z</time>
   </trkpt>
   <trkpt lat="36.3293380" lon="127.4071780">
    <ele>59.1</ele>
    <time>2026-08-18T02:30:54Z</time>
   </trkpt>
   <trkpt lat="36.3293410" lon="127.4071830">
    <ele>59.1</ele>
    <time>2026-08-18T02:30:55Z</time>
   </trkpt>
   <trkpt lat="36.3293450" lon="127.4071990">
    <ele>59.3</ele>
    <time>2026-08-18T02:30:56Z</time>
   </trkpt>
   <trkpt lat="36.3293500" lon="127.4072060">
    <ele>59.3</ele>
    <time>2026-08-18T02:30:57Z</time>
   </trkpt>
   <trkpt lat="36.3293530" lon="127.4072190">
    <ele>59.5</ele>
    <time>2026-08-18T02:30:58Z</time>
   </trkpt>
   <trkpt lat="36.3293580" lon="127.4072350">
    <ele>59.6</ele>
    <time>2026-08-18T02:30:59Z</time>
   </trkpt>
   <trkpt lat="36.3293650" lon="127.4072490">
    <ele>59.8</ele>
    <time>2026-08-18T02:31:00Z</time>
   </trkpt>
   <trkpt lat="36.3293680" lon="127.4072550">
    <ele>59.8</ele>
    <time>2026-08-18T02:31:01Z</time>
   </trkpt>
   <trkpt lat="36.3293720" lon="127.4072620">
    <ele>59.9</ele>
    <time>2026-08-18T02:31:02Z</time>
   </trkpt>
   <trkpt lat="36.3293730" lon="127.4072700">
    <ele>60.0</ele>
    <time>2026-08-18T02:31:03Z</time>
   </trkpt>
   <trkpt lat="36.3293820" lon="127.4072870">
    <ele>60.2</ele>
    <time>2026-08-18T02:31:04Z</time>
   </trkpt>
   <trkpt lat="36.3293850" lon="127.4073010">
    <ele>60.3</ele>
    <time>2026-08-18T02:31:05Z</time>
   </trkpt>
   <trkpt lat="36.3293870" lon="127.4073130">
    <ele>60.4</ele>
    <time>2026-08-18T02:31:06Z</time>
   </trkpt>
   <trkpt lat="36.3293920" lon="127.4073210">
    <ele>60.5</ele>
    <time>2026-08-18T02:31:07Z</time>
   </trkpt>
   <trkpt lat="36.3293950" lon="127.4073310">
    <ele>60.6</ele>
    <time>2026-08-18T02:31:08Z</time>
   </trkpt>
   <trkpt lat="36.3293960" lon="127.4073440">
    <ele>60.7</ele>
    <time>2026-08-18T02:31:09Z</time>
   </trkpt>
   <trkpt lat="36.3293970" lon="127.4073520">
    <ele>60.8</ele>
    <time>2026-08-18T02:31:10Z</time>
   </trkpt>
   <trkpt lat="36.3294000" lon="127.4073610">
    <ele>60.9</ele>
    <time>2026-08-18T02:31:11Z</time>
   </trkpt>
   <trkpt lat="36.3294060" lon="127.4073780">
    <ele>61.1</ele>
    <time>2026-08-18T02:31:12Z</time>
   </trkpt>
   <trkpt lat="36.3294040" lon="127.4073760">
    <ele>61.1</ele>
    <time>2026-08-18T02:31:13Z</time>
   </trkpt>
   <trkpt lat="36.3294150" lon="127.4073930">
    <ele>61.3</ele>
    <time>2026-08-18T02:31:14Z</time>
   </trkpt>
   <trkpt lat="36.3294190" lon="127.4074010">
    <ele>61.4</ele>
    <time>2026-08-18T02:31:15Z</time>
   </trkpt>
   <trkpt lat="36.3294270" lon="127.4074220">
    <ele>61.6</ele>
    <time>2026-08-18T02:31:16Z</time>
   </trkpt>
   <trkpt lat="36.3294300" lon="127.4074340">
    <ele>61.7</ele>
    <time>2026-08-18T02:31:17Z</time>
   </trkpt>
   <trkpt lat="36.3294340" lon="127.4074500">
    <ele>61.9</ele>
    <time>2026-08-18T02:31:18Z</time>
   </trkpt>
   <trkpt lat="36.3294380" lon="127.4074600">
    <ele>62.0</ele>
    <time>2026-08-18T02:31:19Z</time>
   </trkpt>
   <trkpt lat="36.3294390" lon="127.4074670">
    <ele>62.0</ele>
    <time>2026-08-18T02:31:20Z</time>
   </trkpt>
   <trkpt lat="36.3294380" lon="127.4074730">
    <ele>62.1</ele>
    <time>2026-08-18T02:31:21Z</time>
   </trkpt>
   <trkpt lat="36.3294370" lon="127.4074730">
    <ele>62.1</ele>
    <time>2026-08-18T02:31:22Z</time>
   </trkpt>
   <trkpt lat="36.3294350" lon="127.4074630">
    <ele>62.2</ele>
    <time>2026-08-18T02:31:23Z</time>
   </trkpt>
   <trkpt lat="36.3294460" lon="127.4074930">
    <ele>62.5</ele>
    <time>2026-08-18T02:31:24Z</time>
   </trkpt>
   <trkpt lat="36.3294600" lon="127.4075140">
    <ele>62.7</ele>
    <time>2026-08-18T02:31:25Z</time>
   </trkpt>
   <trkpt lat="36.3294730" lon="127.4075320">
    <ele>62.9</ele>
    <time>2026-08-18T02:31:26Z</time>
   </trkpt>
   <trkpt lat="36.3294680" lon="127.4075360">
    <ele>63.0</ele>
    <time>2026-08-18T02:31:27Z</time>
   </trkpt>
   <trkpt lat="36.3294730" lon="127.4075430">
    <ele>63.1</ele>
    <time>2026-08-18T02:31:28Z</time>
   </trkpt>
   <trkpt lat="36.3294810" lon="127.4075570">
    <ele>63.1</ele>
    <time>2026-08-18T02:31:29Z</time>
   </trkpt>
   <trkpt lat="36.3294870" lon="127.4075690">
    <ele>63.1</ele>
    <time>2026-08-18T02:31:30Z</time>
   </trkpt>
   <trkpt lat="36.3294970" lon="127.4075880">
    <ele>63.1</ele>
    <time>2026-08-18T02:31:31Z</time>
   </trkpt>
   <trkpt lat="36.3294990" lon="127.4076000">
    <ele>63.2</ele>
    <time>2026-08-18T02:31:32Z</time>
   </trkpt>
   <trkpt lat="36.3295060" lon="127.4076140">
    <ele>63.2</ele>
    <time>2026-08-18T02:31:33Z</time>
   </trkpt>
   <trkpt lat="36.3295060" lon="127.4076300">
    <ele>63.2</ele>
    <time>2026-08-18T02:31:34Z</time>
   </trkpt>
   <trkpt lat="36.3295090" lon="127.4076420">
    <ele>63.2</ele>
    <time>2026-08-18T02:31:35Z</time>
   </trkpt>
   <trkpt lat="36.3295120" lon="127.4076510">
    <ele>63.2</ele>
    <time>2026-08-18T02:31:36Z</time>
   </trkpt>
   <trkpt lat="36.3295160" lon="127.4076590">
    <ele>63.3</ele>
    <time>2026-08-18T02:31:37Z</time>
   </trkpt>
   <trkpt lat="36.3295320" lon="127.4076750">
    <ele>63.3</ele>
    <time>2026-08-18T02:31:38Z</time>
   </trkpt>
   <trkpt lat="36.3295370" lon="127.4076820">
    <ele>63.3</ele>
    <time>2026-08-18T02:31:39Z</time>
   </trkpt>
   <trkpt lat="36.3295430" lon="127.4076920">
    <ele>63.3</ele>
    <time>2026-08-18T02:31:40Z</time>
   </trkpt>
   <trkpt lat="36.3295480" lon="127.4077040">
    <ele>63.3</ele>
    <time>2026-08-18T02:31:41Z</time>
   </trkpt>
   <trkpt lat="36.3295520" lon="127.4077120">
    <ele>63.4</ele>
    <time>2026-08-18T02:31:42Z</time>
   </trkpt>
   <trkpt lat="36.3295570" lon="127.4077290">
    <ele>63.4</ele>
    <time>2026-08-18T02:31:43Z</time>
   </trkpt>
   <trkpt lat="36.3295630" lon="127.4077330">
    <ele>63.4</ele>
    <time>2026-08-18T02:31:44Z</time>
   </trkpt>
   <trkpt lat="36.3295690" lon="127.4077470">
    <ele>63.4</ele>
    <time>2026-08-18T02:31:45Z</time>
   </trkpt>
   <trkpt lat="36.3295730" lon="127.4077530">
    <ele>63.4</ele>
    <time>2026-08-18T02:31:46Z</time>
   </trkpt>
   <trkpt lat="36.3295740" lon="127.4077610">
    <ele>63.4</ele>
    <time>2026-08-18T02:31:47Z</time>
   </trkpt>
   <trkpt lat="36.3295810" lon="127.4077680">
    <ele>63.5</ele>
    <time>2026-08-18T02:31:48Z</time>
   </trkpt>
   <trkpt lat="36.3295870" lon="127.4077780">
    <ele>63.5</ele>
    <time>2026-08-18T02:31:49Z</time>
   </trkpt>
   <trkpt lat="36.3295970" lon="127.4077860">
    <ele>63.5</ele>
    <time>2026-08-18T02:31:50Z</time>
   </trkpt>
   <trkpt lat="36.3296040" lon="127.4078000">
    <ele>63.5</ele>
    <time>2026-08-18T02:31:51Z</time>
   </trkpt>
   <trkpt lat="36.3296130" lon="127.4078140">
    <ele>63.6</ele>
    <time>2026-08-18T02:31:52Z</time>
   </trkpt>
   <trkpt lat="36.3296080" lon="127.4078240">
    <ele>63.6</ele>
    <time>2026-08-18T02:31:53Z</time>
   </trkpt>
   <trkpt lat="36.3296120" lon="127.4078320">
    <ele>63.6</ele>
    <time>2026-08-18T02:31:54Z</time>
   </trkpt>
   <trkpt lat="36.3296190" lon="127.4078460">
    <ele>63.6</ele>
    <time>2026-08-18T02:31:55Z</time>
   </trkpt>
   <trkpt lat="36.3296210" lon="127.4078590">
    <ele>63.6</ele>
    <time>2026-08-18T02:31:56Z</time>
   </trkpt>
   <trkpt lat="36.3296280" lon="127.4078700">
    <ele>63.6</ele>
    <time>2026-08-18T02:31:57Z</time>
   </trkpt>
   <trkpt lat="36.3296350" lon="127.4078860">
    <ele>63.6</ele>
    <time>2026-08-18T02:31:58Z</time>
   </trkpt>
   <trkpt lat="36.3296420" lon="127.4078990">
    <ele>63.7</ele>
    <time>2026-08-18T02:31:59Z</time>
   </trkpt>
   <trkpt lat="36.3296470" lon="127.4079120">
    <ele>63.7</ele>
    <time>2026-08-18T02:32:00Z</time>
   </trkpt>
   <trkpt lat="36.3296520" lon="127.4079240">
    <ele>63.7</ele>
    <time>2026-08-18T02:32:01Z</time>
   </trkpt>
   <trkpt lat="36.3296570" lon="127.4079310">
    <ele>63.7</ele>
    <time>2026-08-18T02:32:02Z</time>
   </trkpt>
   <trkpt lat="36.3296590" lon="127.4079410">
    <ele>63.7</ele>
    <time>2026-08-18T02:32:03Z</time>
   </trkpt>
   <trkpt lat="36.3296640" lon="127.4079560">
    <ele>63.7</ele>
    <time>2026-08-18T02:32:05Z</time>
   </trkpt>
   <trkpt lat="36.3296740" lon="127.4079690">
    <ele>63.7</ele>
    <time>2026-08-18T02:32:06Z</time>
   </trkpt>
   <trkpt lat="36.3296700" lon="127.4079790">
    <ele>63.8</ele>
    <time>2026-08-18T02:32:07Z</time>
   </trkpt>
   <trkpt lat="36.3296780" lon="127.4079900">
    <ele>63.8</ele>
    <time>2026-08-18T02:32:08Z</time>
   </trkpt>
   <trkpt lat="36.3296830" lon="127.4080060">
    <ele>63.8</ele>
    <time>2026-08-18T02:32:09Z</time>
   </trkpt>
   <trkpt lat="36.3296850" lon="127.4080230">
    <ele>63.8</ele>
    <time>2026-08-18T02:32:10Z</time>
   </trkpt>
   <trkpt lat="36.3296840" lon="127.4080280">
    <ele>63.8</ele>
    <time>2026-08-18T02:32:11Z</time>
   </trkpt>
   <trkpt lat="36.3296860" lon="127.4080350">
    <ele>63.8</ele>
    <time>2026-08-18T02:32:12Z</time>
   </trkpt>
   <trkpt lat="36.3297000" lon="127.4080650">
    <ele>63.9</ele>
    <time>2026-08-18T02:32:13Z</time>
   </trkpt>
   <trkpt lat="36.3296910" lon="127.4080630">
    <ele>63.9</ele>
    <time>2026-08-18T02:32:14Z</time>
   </trkpt>
   <trkpt lat="36.3296840" lon="127.4080720">
    <ele>63.9</ele>
    <time>2026-08-18T02:32:15Z</time>
   </trkpt>
   <trkpt lat="36.3296940" lon="127.4080850">
    <ele>63.9</ele>
    <time>2026-08-18T02:32:16Z</time>
   </trkpt>
   <trkpt lat="36.3296990" lon="127.4080960">
    <ele>64.0</ele>
    <time>2026-08-18T02:32:17Z</time>
   </trkpt>
   <trkpt lat="36.3296980" lon="127.4080830">
    <ele>64.0</ele>
    <time>2026-08-18T02:32:18Z</time>
   </trkpt>
   <trkpt lat="36.3297010" lon="127.4080850">
    <ele>64.0</ele>
    <time>2026-08-18T02:32:19Z</time>
   </trkpt>
   <trkpt lat="36.3297070" lon="127.4080910">
    <ele>64.0</ele>
    <time>2026-08-18T02:32:20Z</time>
   </trkpt>
   <trkpt lat="36.3297160" lon="127.4081010">
    <ele>64.0</ele>
    <time>2026-08-18T02:32:21Z</time>
   </trkpt>
   <trkpt lat="36.3297190" lon="127.4081070">
    <ele>64.0</ele>
    <time>2026-08-18T02:32:22Z</time>
   </trkpt>
   <trkpt lat="36.3297230" lon="127.4081160">
    <ele>64.1</ele>
    <time>2026-08-18T02:32:23Z</time>
   </trkpt>
   <trkpt lat="36.3297230" lon="127.4081200">
    <ele>64.1</ele>
    <time>2026-08-18T02:32:24Z</time>
   </trkpt>
   <trkpt lat="36.3297290" lon="127.4081280">
    <ele>64.1</ele>
    <time>2026-08-18T02:32:25Z</time>
   </trkpt>
   <trkpt lat="36.3297320" lon="127.4081380">
    <ele>64.1</ele>
    <time>2026-08-18T02:32:26Z</time>
   </trkpt>
   <trkpt lat="36.3297350" lon="127.4081450">
    <ele>64.1</ele>
    <time>2026-08-18T02:32:27Z</time>
   </trkpt>
   <trkpt lat="36.3297360" lon="127.4081500">
    <ele>64.1</ele>
    <time>2026-08-18T02:32:28Z</time>
   </trkpt>
   <trkpt lat="36.3297410" lon="127.4081610">
    <ele>64.1</ele>
    <time>2026-08-18T02:32:29Z</time>
   </trkpt>
   <trkpt lat="36.3297470" lon="127.4081720">
    <ele>64.2</ele>
    <time>2026-08-18T02:32:30Z</time>
   </trkpt>
   <trkpt lat="36.3297520" lon="127.4081760">
    <ele>64.2</ele>
    <time>2026-08-18T02:32:31Z</time>
   </trkpt>
   <trkpt lat="36.3297580" lon="127.4081840">
    <ele>64.2</ele>
    <time>2026-08-18T02:32:32Z</time>
   </trkpt>
   <trkpt lat="36.3297650" lon="127.4081900">
    <ele>64.2</ele>
    <time>2026-08-18T02:32:33Z</time>
   </trkpt>
   <trkpt lat="36.3297790" lon="127.4082040">
    <ele>64.2</ele>
    <time>2026-08-18T02:32:34Z</time>
   </trkpt>
   <trkpt lat="36.3297970" lon="127.4082140">
    <ele>64.3</ele>
    <time>2026-08-18T02:32:35Z</time>
   </trkpt>
   <trkpt lat="36.3298000" lon="127.4082330">
    <ele>64.3</ele>
    <time>2026-08-18T02:32:36Z</time>
   </trkpt>
   <trkpt lat="36.3298020" lon="127.4082380">
    <ele>64.3</ele>
    <time>2026-08-18T02:32:37Z</time>
   </trkpt>
   <trkpt lat="36.3298080" lon="127.4082390">
    <ele>64.3</ele>
    <time>2026-08-18T02:32:38Z</time>
   </trkpt>
   <trkpt lat="36.3298160" lon="127.4082460">
    <ele>64.3</ele>
    <time>2026-08-18T02:32:39Z</time>
   </trkpt>
   <trkpt lat="36.3298240" lon="127.4082590">
    <ele>64.4</ele>
    <time>2026-08-18T02:32:40Z</time>
   </trkpt>
   <trkpt lat="36.3298290" lon="127.4082650">
    <ele>64.4</ele>
    <time>2026-08-18T02:32:41Z</time>
   </trkpt>
   <trkpt lat="36.3298360" lon="127.4082690">
    <ele>64.4</ele>
    <time>2026-08-18T02:32:42Z</time>
   </trkpt>
   <trkpt lat="36.3298400" lon="127.4082720">
    <ele>64.4</ele>
    <time>2026-08-18T02:32:43Z</time>
   </trkpt>
   <trkpt lat="36.3298490" lon="127.4082840">
    <ele>64.4</ele>
    <time>2026-08-18T02:32:44Z</time>
   </trkpt>
   <trkpt lat="36.3298530" lon="127.4082870">
    <ele>64.4</ele>
    <time>2026-08-18T02:32:45Z</time>
   </trkpt>
   <trkpt lat="36.3298610" lon="127.4082970">
    <ele>64.5</ele>
    <time>2026-08-18T02:32:46Z</time>
   </trkpt>
   <trkpt lat="36.3298670" lon="127.4083040">
    <ele>64.5</ele>
    <time>2026-08-18T02:32:47Z</time>
   </trkpt>
   <trkpt lat="36.3298720" lon="127.4083080">
    <ele>64.5</ele>
    <time>2026-08-18T02:32:48Z</time>
   </trkpt>
   <trkpt lat="36.3298780" lon="127.4083140">
    <ele>64.5</ele>
    <time>2026-08-18T02:32:49Z</time>
   </trkpt>
   <trkpt lat="36.3298820" lon="127.4083260">
    <ele>64.5</ele>
    <time>2026-08-18T02:32:50Z</time>
   </trkpt>
   <trkpt lat="36.3298850" lon="127.4083360">
    <ele>64.6</ele>
    <time>2026-08-18T02:32:51Z</time>
   </trkpt>
   <trkpt lat="36.3298870" lon="127.4083480">
    <ele>64.6</ele>
    <time>2026-08-18T02:32:52Z</time>
   </trkpt>
   <trkpt lat="36.3298920" lon="127.4083570">
    <ele>64.6</ele>
    <time>2026-08-18T02:32:53Z</time>
   </trkpt>
   <trkpt lat="36.3298910" lon="127.4083680">
    <ele>64.6</ele>
    <time>2026-08-18T02:32:54Z</time>
   </trkpt>
   <trkpt lat="36.3298970" lon="127.4083930">
    <ele>64.7</ele>
    <time>2026-08-18T02:32:55Z</time>
   </trkpt>
   <trkpt lat="36.3299000" lon="127.4083920">
    <ele>64.7</ele>
    <time>2026-08-18T02:32:56Z</time>
   </trkpt>
   <trkpt lat="36.3299080" lon="127.4083950">
    <ele>64.7</ele>
    <time>2026-08-18T02:32:57Z</time>
   </trkpt>
   <trkpt lat="36.3299150" lon="127.4083990">
    <ele>64.7</ele>
    <time>2026-08-18T02:32:58Z</time>
   </trkpt>
   <trkpt lat="36.3299190" lon="127.4084050">
    <ele>64.7</ele>
    <time>2026-08-18T02:32:59Z</time>
   </trkpt>
   <trkpt lat="36.3299230" lon="127.4084110">
    <ele>64.7</ele>
    <time>2026-08-18T02:33:00Z</time>
   </trkpt>
   <trkpt lat="36.3299270" lon="127.4084160">
    <ele>64.7</ele>
    <time>2026-08-18T02:33:01Z</time>
   </trkpt>
   <trkpt lat="36.3299360" lon="127.4084300">
    <ele>64.7</ele>
    <time>2026-08-18T02:33:02Z</time>
   </trkpt>
   <trkpt lat="36.3299450" lon="127.4084370">
    <ele>64.7</ele>
    <time>2026-08-18T02:33:03Z</time>
   </trkpt>
   <trkpt lat="36.3299500" lon="127.4084440">
    <ele>64.8</ele>
    <time>2026-08-18T02:33:04Z</time>
   </trkpt>
   <trkpt lat="36.3299550" lon="127.4084510">
    <ele>64.8</ele>
    <time>2026-08-18T02:33:05Z</time>
   </trkpt>
   <trkpt lat="36.3299620" lon="127.4084550">
    <ele>64.8</ele>
    <time>2026-08-18T02:33:06Z</time>
   </trkpt>
   <trkpt lat="36.3299700" lon="127.4084610">
    <ele>64.8</ele>
    <time>2026-08-18T02:33:07Z</time>
   </trkpt>
   <trkpt lat="36.3299770" lon="127.4084710">
    <ele>64.8</ele>
    <time>2026-08-18T02:33:08Z</time>
   </trkpt>
   <trkpt lat="36.3299840" lon="127.4084840">
    <ele>64.8</ele>
    <time>2026-08-18T02:33:09Z</time>
   </trkpt>
   <trkpt lat="36.3299870" lon="127.4084860">
    <ele>64.8</ele>
    <time>2026-08-18T02:33:10Z</time>
   </trkpt>
   <trkpt lat="36.3299960" lon="127.4085020">
    <ele>64.8</ele>
    <time>2026-08-18T02:33:11Z</time>
   </trkpt>
   <trkpt lat="36.3300060" lon="127.4085060">
    <ele>64.8</ele>
    <time>2026-08-18T02:33:12Z</time>
   </trkpt>
   <trkpt lat="36.3300160" lon="127.4085150">
    <ele>64.9</ele>
    <time>2026-08-18T02:33:13Z</time>
   </trkpt>
   <trkpt lat="36.3300200" lon="127.4085260">
    <ele>64.9</ele>
    <time>2026-08-18T02:33:14Z</time>
   </trkpt>
   <trkpt lat="36.3300260" lon="127.4085290">
    <ele>64.9</ele>
    <time>2026-08-18T02:33:15Z</time>
   </trkpt>
   <trkpt lat="36.3300380" lon="127.4085450">
    <ele>64.9</ele>
    <time>2026-08-18T02:33:16Z</time>
   </trkpt>
   <trkpt lat="36.3300460" lon="127.4085530">
    <ele>64.9</ele>
    <time>2026-08-18T02:33:17Z</time>
   </trkpt>
   <trkpt lat="36.3300530" lon="127.4085620">
    <ele>64.9</ele>
    <time>2026-08-18T02:33:18Z</time>
   </trkpt>
   <trkpt lat="36.3300530" lon="127.4085700">
    <ele>64.9</ele>
    <time>2026-08-18T02:33:19Z</time>
   </trkpt>
   <trkpt lat="36.3300600" lon="127.4085960">
    <ele>65.0</ele>
    <time>2026-08-18T02:33:20Z</time>
   </trkpt>
   <trkpt lat="36.3300580" lon="127.4086060">
    <ele>65.0</ele>
    <time>2026-08-18T02:33:21Z</time>
   </trkpt>
   <trkpt lat="36.3300580" lon="127.4086010">
    <ele>65.0</ele>
    <time>2026-08-18T02:33:22Z</time>
   </trkpt>
   <trkpt lat="36.3300590" lon="127.4086080">
    <ele>65.0</ele>
    <time>2026-08-18T02:33:23Z</time>
   </trkpt>
   <trkpt lat="36.3300720" lon="127.4086190">
    <ele>65.1</ele>
    <time>2026-08-18T02:33:24Z</time>
   </trkpt>
  </trkseg>
 </trk>
</gpx>
