<?xml version="1.0" encoding="UTF-8"?>
<gpx creator="StravaGPX" version="1.1" xmlns="http://www.topografix.com/GPX/1/1" xmlns:xsi="http://www.w3.org/2001/XMLSchema-instance" xsi:schemaLocation="http://www.topografix.com/GPX/1/1 http://www.topografix.com/GPX/1/1/gpx.xsd">
 <metadata>
  <time>2026-08-18T04:12:53Z</time>
 </metadata>
 <trk>
  <name>홍민기_가파른내리막_7</name>
  <type>walking</type>
  <trkseg>
   <trkpt lat="36.3302820" lon="127.4094710">
    <ele>65.6</ele>
    <time>2026-08-18T04:12:53Z</time>
   </trkpt>
   <trkpt lat="36.3302820" lon="127.4094710">
    <ele>65.6</ele>
    <time>2026-08-18T04:12:54Z</time>
   </trkpt>
   <trkpt lat="36.3302770" lon="127.4094690">
    <ele>65.6</ele>
    <time>2026-08-18T04:12:55Z</time>
   </trkpt>
   <trkpt lat="36.3302670" lon="127.4094700">
    <ele>65.6</ele>
    <time>2026-08-18T04:12:56Z</time>
   </trkpt>
   <trkpt lat="36.3302530" lon="127.4094630">
    <ele>65.6</ele>
    <time>2026-08-18T04:12:57Z</time>
   </trkpt>
   <trkpt lat="36.3302530" lon="127.4094540">
    <ele>65.6</ele>
    <time>2026-08-18T04:12:58Z</time>
   </trkpt>
   <trkpt lat="36.3302460" lon="127.4094530">
    <ele>65.6</ele>
    <time>2026-08-18T04:12:59Z</time>
   </trkpt>
   <trkpt lat="36.3302340" lon="127.4094560">
    <ele>65.6</ele>
    <time>2026-08-18T04:13:00Z</time>
   </trkpt>
   <trkpt lat="36.3302270" lon="127.4094380">
    <ele>65.6</ele>
    <time>2026-08-18T04:13:01Z</time>
   </trkpt>
   <trkpt lat="36.3302230" lon="127.4094290">
    <ele>65.5</ele>
    <time>2026-08-18T04:13:02Z</time>
   </trkpt>
   <trkpt lat="36.3302260" lon="127.4094140">
    <ele>65.5</ele>
    <time>2026-08-18T04:13:03Z</time>
   </trkpt>
   <trkpt lat="36.3302250" lon="127.4093840">
    <ele>65.5</ele>
    <time>2026-08-18T04:13:04Z</time>
   </trkpt>
   <trkpt lat="36.3302270" lon="127.4093600">
    <ele>65.5</ele>
    <time>2026-08-18T04:13:05Z</time>
   </trkpt>
   <trkpt lat="36.3302160" lon="127.4093830">
    <ele>65.4</ele>
    <time>2026-08-18T04:13:06Z</time>
   </trkpt>
   <trkpt lat="36.3302140" lon="127.4093910">
    <ele>65.4</ele>
    <time>2026-08-18T04:13:07Z</time>
   </trkpt>
   <trkpt lat="36.3301970" lon="127.4093770">
    <ele>65.4</ele>
    <time>2026-08-18T04:13:08Z</time>
   </trkpt>
   <trkpt lat="36.3301730" lon="127.4093850">
    <ele>65.4</ele>
    <time>2026-08-18T04:13:09Z</time>
   </trkpt>
   <trkpt lat="36.3301600" lon="127.4093830">
    <ele>65.3</ele>
    <time>2026-08-18T04:13:10Z</time>
   </trkpt>
   <trkpt lat="36.3301590" lon="127.4093740">
    <ele>65.3</ele>
    <time>2026-08-18T04:13:11Z</time>
   </trkpt>
   <trkpt lat="36.3301550" lon="127.4093660">
    <ele>65.3</ele>
    <time>2026-08-18T04:13:12Z</time>
   </trkpt>
   <trkpt lat="36.3301520" lon="127.4093580">
    <ele>65.3</ele>
    <time>2026-08-18T04:13:13Z</time>
   </trkpt>
   <trkpt lat="36.3301530" lon="127.4093500">
    <ele>65.3</ele>
    <time>2026-08-18T04:13:14Z</time>
   </trkpt>
   <trkpt lat="36.3301530" lon="127.4093470">
    <ele>65.3</ele>
    <time>2026-08-18T04:13:15Z</time>
   </trkpt>
   <trkpt lat="36.3301360" lon="127.4093170">
    <ele>65.2</ele>
    <time>2026-08-18T04:13:16Z</time>
   </trkpt>
   <trkpt lat="36.3301390" lon="127.4093280">
    <ele>65.2</ele>
    <time>2026-08-18T04:13:17Z</time>
   </trkpt>
   <trkpt lat="36.3301400" lon="127.4093220">
    <ele>65.2</ele>
    <time>2026-08-18T04:13:18Z</time>
   </trkpt>
   <trkpt lat="36.3301290" lon="127.4093070">
    <ele>65.2</ele>
    <time>2026-08-18T04:13:19Z</time>
   </trkpt>
   <trkpt lat="36.3301220" lon="127.4092900">
    <ele>65.1</ele>
    <time>2026-08-18T04:13:20Z</time>
   </trkpt>
   <trkpt lat="36.3301080" lon="127.4092660">
    <ele>65.1</ele>
    <time>2026-08-18T04:13:21Z</time>
   </trkpt>
   <trkpt lat="36.3301080" lon="127.4092720">
    <ele>65.1</ele>
    <time>2026-08-18T04:13:22Z</time>
   </trkpt>
   <trkpt lat="36.3301000" lon="127.4092720">
    <ele>65.1</ele>
    <time>2026-08-18T04:13:23Z</time>
   </trkpt>
   <trkpt lat="36.3300920" lon="127.4092720">
    <ele>65.0</ele>
    <time>2026-08-18T04:13:24Z</time>
   </trkpt>
   <trkpt lat="36.3300750" lon="127.4092610">
    <ele>65.0</ele>
    <time>2026-08-18T04:13:25Z</time>
   </trkpt>
   <trkpt lat="36.3300690" lon="127.4092570">
    <ele>65.0</ele>
    <time>2026-08-18T04:13:26Z</time>
   </trkpt>
   <trkpt lat="36.3300670" lon="127.4092500">
    <ele>65.0</ele>
    <time>2026-08-18T04:13:27Z</time>
   </trkpt>
   <trkpt lat="36.3300690" lon="127.4092300">
    <ele>64.9</ele>
    <time>2026-08-18T04:13:28Z</time>
   </trkpt>
   <trkpt lat="36.3300670" lon="127.4092180">
    <ele>64.9</ele>
    <time>2026-08-18T04:13:29Z</time>
   </trkpt>
   <trkpt lat="36.3300580" lon="127.4092110">
    <ele>64.9</ele>
    <time>2026-08-18T04:13:30Z</time>
   </trkpt>
   <trkpt lat="36.3300510" lon="127.4092050">
    <ele>64.9</ele>
    <time>2026-08-18T04:13:31Z</time>
   </trkpt>
   <trkpt lat="36.3300390" lon="127.4092010">
    <ele>64.8</ele>
    <time>2026-08-18T04:13:32Z</time>
   </trkpt>
   <trkpt lat="36.3300300" lon="127.4092000">
    <ele>64.8</ele>
    <time>2026-08-18T04:13:33Z</time>
   </trkpt>
   <trkpt lat="36.3300140" lon="127.4092000">
    <ele>64.7</ele>
    <time>2026-08-18T04:13:34Z</time>
   </trkpt>
   <trkpt lat="36.3300100" lon="127.4092060">
    <ele>64.7</ele>
    <time>2026-08-18T04:13:35Z</time>
   </trkpt>
   <trkpt lat="36.3300040" lon="127.4092070">
    <ele>64.7</ele>
    <time>2026-08-18T04:13:36Z</time>
   </trkpt>
   <trkpt lat="36.3300030" lon="127.4092020">
    <ele>64.7</ele>
    <time>2026-08-18T04:13:37Z</time>
   </trkpt>
   <trkpt lat="36.3300000" lon="127.4091950">
    <ele>64.6</ele>
    <time>2026-08-18T04:13:38Z</time>
   </trkpt>
   <trkpt lat="36.3299990" lon="127.4091880">
    <ele>64.6</ele>
    <time>2026-08-18T04:13:39Z</time>
   </trkpt>
   <trkpt lat="36.3299990" lon="127.4091710">
    <ele>64.6</ele>
    <time>2026-08-18T04:13:40Z</time>
   </trkpt>
   <trkpt lat="36.3300000" lon="127.4091570">
    <ele>64.5</ele>
    <time>2026-08-18T04:13:41Z</time>
   </trkpt>
   <trkpt lat="36.3300000" lon="127.4091440">
    <ele>64.5</ele>
    <time>2026-08-18T04:13:42Z</time>
   </trkpt>
   <trkpt lat="36.3299940" lon="127.4091290">
    <ele>64.4</ele>
    <time>2026-08-18T04:13:43Z</time>
   </trkpt>
   <trkpt lat="36.3299760" lon="127.4091090">
    <ele>64.3</ele>
    <time>2026-08-18T04:13:44Z</time>
   </trkpt>
   <trkpt lat="36.3299700" lon="127.4091060">
    <ele>64.3</ele>
    <time>2026-08-18T04:13:45Z</time>
   </trkpt>
   <trkpt lat="36.3299640" lon="127.4090980">
    <ele>64.2</ele>
    <time>2026-08-18T04:13:46Z</time>
   </trkpt>
   <trkpt lat="36.3299700" lon="127.4090930">
    <ele>64.2</ele>
    <time>2026-08-18T04:13:47Z</time>
   </trkpt>
   <trkpt lat="36.3299720" lon="127.4090810">
    <ele>64.2</ele>
    <time>2026-08-18T04:13:48Z</time>
   </trkpt>
   <trkpt lat="36.3299690" lon="127.4090670">
    <ele>64.1</ele>
    <time>2026-08-18T04:13:49Z</time>
   </trkpt>
   <trkpt lat="36.3299630" lon="127.4090560">
    <ele>64.1</ele>
    <time>2026-08-18T04:13:50Z</time>
   </trkpt>
   <trkpt lat="36.3299580" lon="127.4090500">
    <ele>64.0</ele>
    <time>2026-08-18T04:13:51Z</time>
   </trkpt>
   <trkpt lat="36.3299490" lon="127.4090430">
    <ele>64.0</ele>
    <time>2026-08-18T04:13:52Z</time>
   </trkpt>
   <trkpt lat="36.3299380" lon="127.4090300">
    <ele>63.9</ele>
    <time>2026-08-18T04:13:53Z</time>
   </trkpt>
   <trkpt lat="36.3299350" lon="127.4090290">
    <ele>63.9</ele>
    <time>2026-08-18T04:13:55Z</time>
   </trkpt>
   <trkpt lat="36.3299270" lon="127.4090190">
    <ele>63.8</ele>
    <time>2026-08-18T04:13:56Z</time>
   </trkpt>
   <trkpt lat="36.3299200" lon="127.4090120">
    <ele>63.8</ele>
    <time>2026-08-18T04:13:57Z</time>
   </trkpt>
   <trkpt lat="36.3299140" lon="127.4090020">
    <ele>63.8</ele>
    <time>2026-08-18T04:13:58Z</time>
   </trkpt>
   <trkpt lat="36.3299160" lon="127.4089860">
    <ele>63.7</ele>
    <time>2026-08-18T04:13:59Z</time>
   </trkpt>
   <trkpt lat="36.3299090" lon="127.4089750">
    <ele>63.6</ele>
    <time>2026-08-18T04:14:00Z</time>
   </trkpt>
   <trkpt lat="36.3298980" lon="127.4089680">
    <ele>63.6</ele>
    <time>2026-08-18T04:14:01Z</time>
   </trkpt>
   <trkpt lat="36.3298900" lon="127.4089570">
    <ele>63.5</ele>
    <time>2026-08-18T04:14:02Z</time>
   </trkpt>
   <trkpt lat="36.3298810" lon="127.4089520">
    <ele>63.5</ele>
    <time>2026-08-18T04:14:03Z</time>
   </trkpt>
   <trkpt lat="36.3298730" lon="127.4089410">
    <ele>63.4</ele>
    <time>2026-08-18T04:14:04Z</time>
   </trkpt>
   <trkpt lat="36.3298650" lon="127.4089370">
    <ele>63.4</ele>
    <time>2026-08-18T04:14:05Z</time>
   </trkpt>
   <trkpt lat="36.3298640" lon="127.4089260">
    <ele>63.3</ele>
    <time>2026-08-18T04:14:06Z</time>
   </trkpt>
   <trkpt lat="36.3298640" lon="127.4089180">
    <ele>63.3</ele>
    <time>2026-08-18T04:14:07Z</time>
   </trkpt>
   <trkpt lat="36.3298540" lon="127.4089110">
    <ele>63.2</ele>
    <time>2026-08-18T04:14:08Z</time>
   </trkpt>
   <trkpt lat="36.3298480" lon="127.4089000">
    <ele>63.2</ele>
    <time>2026-08-18T04:14:09Z</time>
   </trkpt>
   <trkpt lat="36.3298380" lon="127.4088890">
    <ele>63.1</ele>
    <time>2026-08-18T04:14:10Z</time>
   </trkpt>
   <trkpt lat="36.3298260" lon="127.4088830">
    <ele>63.0</ele>
    <time>2026-08-18T04:14:11Z</time>
   </trkpt>
   <trkpt lat="36.3298170" lon="127.4088850">
    <ele>63.0</ele>
    <time>2026-08-18T04:14:12Z</time>
   </trkpt>
   <trkpt lat="36.3298110" lon="127.4088790">
    <ele>63.0</ele>
    <time>2026-08-18T04:14:13Z</time>
   </trkpt>
   <trkpt lat="36.3298050" lon="127.4088710">
    <ele>62.9</ele>
    <time>2026-08-18T04:14:14Z</time>
   </trkpt>
   <trkpt lat="36.3297960" lon="127.4088660">
    <ele>62.9</ele>
    <time>2026-08-18T04:14:15Z</time>
   </trkpt>
   <trkpt lat="36.3297920" lon="127.4088540">
    <ele>62.8</ele>
    <time>2026-08-18T04:14:16Z</time>
   </trkpt>
   <trkpt lat="36.3297840" lon="127.4088440">
    <ele>62.7</ele>
    <time>2026-08-18T04:14:17Z</time>
   </trkpt>
   <trkpt lat="36.3297760" lon="127.4088360">
    <ele>62.7</ele>
    <time>2026-08-18T04:14:18Z</time>
   </trkpt>
   <trkpt lat="36.3297680" lon="127.4088280">
    <ele>62.6</ele>
    <time>2026-08-18T04:14:19Z</time>
   </trkpt>
   <trkpt lat="36.3297610" lon="127.4088200">
    <ele>62.6</ele>
    <time>2026-08-18T04:14:20Z</time>
   </trkpt>
   <trkpt lat="36.3297570" lon="127.4088150">
    <ele>62.5</ele>
    <time>2026-08-18T04:14:21Z</time>
   </trkpt>
   <trkpt lat="36.3297490" lon="127.4087990">
    <ele>62.4</ele>
    <time>2026-08-18T04:14:22Z</time>
   </trkpt>
   <trkpt lat="36.3297410" lon="127.4087910">
    <ele>62.4</ele>
    <time>2026-08-18T04:14:23Z</time>
   </trkpt>
   <trkpt lat="36.3297290" lon="127.4087820">
    <ele>62.3</ele>
    <time>2026-08-18T04:14:24Z</time>
   </trkpt>
   <trkpt lat="36.3297080" lon="127.4087660">
    <ele>62.2</ele>
    <time>2026-08-18T04:14:25Z</time>
   </trkpt>
   <trkpt lat="36.3297110" lon="127.4087810">
    <ele>62.1</ele>
    <time>2026-08-18T04:14:26Z</time>
   </trkpt>
   <trkpt lat="36.3297030" lon="127.4087720">
    <ele>62.0</ele>
    <time>2026-08-18T04:14:27Z</time>
   </trkpt>
   <trkpt lat="36.3297020" lon="127.4087670">
    <ele>62.0</ele>
    <time>2026-08-18T04:14:28Z</time>
   </trkpt>
   <trkpt lat="36.3296930" lon="127.4087660">
    <ele>62.0</ele>
    <time>2026-08-18T04:14:29Z</time>
   </trkpt>
   <trkpt lat="36.3296930" lon="127.4087730">
    <ele>61.9</ele>
    <time>2026-08-18T04:14:30Z</time>
   </trkpt>
   <trkpt lat="36.3296870" lon="127.4087670">
    <ele>61.9</ele>
    <time>2026-08-18T04:14:31Z</time>
   </trkpt>
   <trkpt lat="36.3296780" lon="127.4087500">
    <ele>61.8</ele>
    <time>2026-08-18T04:14:32Z</time>
   </trkpt>
   <trkpt lat="36.3296630" lon="127.4087280">
    <ele>61.7</ele>
    <time>2026-08-18T04:14:33Z</time>
   </trkpt>
   <trkpt lat="36.3296700" lon="127.4087210">
    <ele>61.6</ele>
    <time>2026-08-18T04:14:34Z</time>
   </trkpt>
   <trkpt lat="36.3296650" lon="127.4086920">
    <ele>61.5</ele>
    <time>2026-08-18T04:14:35Z</time>
   </trkpt>
   <trkpt lat="36.3296570" lon="127.4086670">
    <ele>61.4</ele>
    <time>2026-08-18T04:14:36Z</time>
   </trkpt>
   <trkpt lat="36.3296480" lon="127.4086810">
    <ele>61.3</ele>
    <time>2026-08-18T04:14:37Z</time>
   </trkpt>
   <trkpt lat="36.3296350" lon="127.4086760">
    <ele>61.2</ele>
    <time>2026-08-18T04:14:38Z</time>
   </trkpt>
   <trkpt lat="36.3296380" lon="127.4086750">
    <ele>61.2</ele>
    <time>2026-08-18T04:14:39Z</time>
   </trkpt>
   <trkpt lat="36.3296360" lon="127.4086670">
    <ele>61.1</ele>
    <time>2026-08-18T04:14:40Z</time>
   </trkpt>
   <trkpt lat="36.3296300" lon="127.4086430">
    <ele>61.0</ele>
    <time>2026-08-18T04:14:41Z</time>
   </trkpt>
   <trkpt lat="36.3296230" lon="127.4086340">
    <ele>61.0</ele>
    <time>2026-08-18T04:14:42Z</time>
   </trkpt>
   <trkpt lat="36.3296240" lon="127.4086340">
    <ele>61.0</ele>
    <time>2026-08-18T04:14:43Z</time>
   </trkpt>
   <trkpt lat="36.3296180" lon="127.4086250">
    <ele>60.9</ele>
    <time>2026-08-18T04:14:44Z</time>
   </trkpt>
   <trkpt lat="36.3296130" lon="127.4086110">
    <ele>60.8</ele>
    <time>2026-08-18T04:14:45Z</time>
   </trkpt>
   <trkpt lat="36.3296130" lon="127.4085880">
    <ele>60.7</ele>
    <time>2026-08-18T04:14:46Z</time>
   </trkpt>
   <trkpt lat="36.3296140" lon="127.4085850">
    <ele>60.7</ele>
    <time>2026-08-18T04:14:47Z</time>
   </trkpt>
   <trkpt lat="36.3296080" lon="127.4085800">
    <ele>60.7</ele>
    <time>2026-08-18T04:14:48Z</time>
   </trkpt>
   <trkpt lat="36.3296000" lon="127.4085690">
    <ele>60.6</ele>
    <time>2026-08-18T04:14:49Z</time>
   </trkpt>
   <trkpt lat="36.3295930" lon="127.4085610">
    <ele>60.6</ele>
    <time>2026-08-18T04:14:50Z</time>
   </trkpt>
   <trkpt lat="36.3295860" lon="127.4085550">
    <ele>60.5</ele>
    <time>2026-08-18T04:14:51Z</time>
   </trkpt>
   <trkpt lat="36.3295780" lon="127.4085470">
    <ele>60.5</ele>
    <time>2026-08-18T04:14:52Z</time>
   </trkpt>
   <trkpt lat="36.3295740" lon="127.4085390">
    <ele>60.4</ele>
    <time>2026-08-18T04:14:53Z</time>
   </trkpt>
   <trkpt lat="36.3295670" lon="127.4085310">
    <ele>60.4</ele>
    <time>2026-08-18T04:14:54Z</time>
   </trkpt>
   <trkpt lat="36.3295630" lon="127.4085230">
    <ele>60.3</ele>
    <time>2026-08-18T04:14:55Z</time>
   </trkpt>
   <trkpt lat="36.3295580" lon="127.4085160">
    <ele>60.3</ele>
    <time>2026-08-18T04:14:56Z</time>
   </trkpt>
   <trkpt lat="36.3295520" lon="127.4085080">
    <ele>60.2</ele>
    <time>2026-08-18T04:14:57Z</time>
   </trkpt>
   <trkpt lat="36.3295470" lon="127.4084970">
    <ele>60.2</ele>
    <time>2026-08-18T04:14:58Z</time>
   </trkpt>
   <trkpt lat="36.3295350" lon="127.4084890">
    <ele>60.1</ele>
    <time>2026-08-18T04:14:59Z</time>
   </trkpt>
   <trkpt lat="36.3295220" lon="127.4084840">
    <ele>60.0</ele>
    <time>2026-08-18T04:15:00Z</time>
   </trkpt>
   <trkpt lat="36.3295160" lon="127.4084810">
    <ele>60.0</ele>
    <time>2026-08-18T04:15:01Z</time>
   </trkpt>
   <trkpt lat="36.3295120" lon="127.4084730">
    <ele>59.9</ele>
    <time>2026-08-18T04:15:02Z</time>
   </trkpt>
   <trkpt lat="36.3295040" lon="127.4084660">
    <ele>59.9</ele>
    <time>2026-08-18T04:15:03Z</time>
   </trkpt>
   <trkpt lat="36.3294980" lon="127.4084600">
    <ele>59.8</ele>
    <time>2026-08-18T04:15:04Z</time>
   </trkpt>
   <trkpt lat="36.3294950" lon="127.4084480">
    <ele>59.8</ele>
    <time>2026-08-18T04:15:05Z</time>
   </trkpt>
   <trkpt lat="36.3294900" lon="127.4084370">
    <ele>59.7</ele>
    <time>2026-08-18T04:15:06Z</time>
   </trkpt>
   <trkpt lat="36.3294880" lon="127.4084270">
    <ele>59.7</ele>
    <time>2026-08-18T04:15:07Z</time>
   </trkpt>
   <trkpt lat="36.3294860" lon="127.4084160">
    <ele>59.6</ele>
    <time>2026-08-18T04:15:08Z</time>
   </trkpt>
   <trkpt lat="36.3294840" lon="127.4084080">
    <ele>59.6</ele>
    <time>2026-08-18T04:15:09Z</time>
   </trkpt>
   <trkpt lat="36.3294790" lon="127.4084020">
    <ele>59.5</ele>
    <time>2026-08-18T04:15:10Z</time>
   </trkpt>
   <trkpt lat="36.3294730" lon="127.4083940">
    <ele>59.5</ele>
    <time>2026-08-18T04:15:11Z</time>
   </trkpt>
   <trkpt lat="36.3294690" lon="127.4083850">
    <ele>59.4</ele>
    <time>2026-08-18T04:15:12Z</time>
   </trkpt>
   <trkpt lat="36.3294630" lon="127.4083740">
    <ele>59.3</ele>
    <time>2026-08-18T04:15:13Z</time>
   </trkpt>
   <trkpt lat="36.3294610" lon="127.4083650">
    <ele>59.3</ele>
    <time>2026-08-18T04:15:14Z</time>
   </trkpt>
   <trkpt lat="36.3294540" lon="127.4083540">
    <ele>59.2</ele>
    <time>2026-08-18T04:15:15Z</time>
   </trkpt>
   <trkpt lat="36.3294510" lon="127.4083470">
    <ele>59.2</ele>
    <time>2026-08-18T04:15:16Z</time>
   </trkpt>
   <trkpt lat="36.3294520" lon="127.4083400">
    <ele>59.2</ele>
    <time>2026-08-18T04:15:17Z</time>
   </trkpt>
   <trkpt lat="36.3294500" lon="127.4083290">
    <ele>59.1</ele>
    <time>2026-08-18T04:15:18Z</time>
   </trkpt>
   <trkpt lat="36.3294440" lon="127.4083190">
    <ele>59.0</ele>
    <time>2026-08-18T04:15:19Z</time>
   </trkpt>
   <trkpt lat="36.3294360" lon="127.4083060">
    <ele>59.0</ele>
    <time>2026-08-18T04:15:20Z</time>
   </trkpt>
   <trkpt lat="36.3294290" lon="127.4082980">
    <ele>58.9</ele>
    <time>2026-08-18T04:15:21Z</time>
   </trkpt>
   <trkpt lat="36.3294250" lon="127.4082890">
    <ele>58.9</ele>
    <time>2026-08-18T04:15:22Z</time>
   </trkpt>
   <trkpt lat="36.3294070" lon="127.4082760">
    <ele>58.7</ele>
    <time>2026-08-18T04:15:23Z</time>
   </trkpt>
   <trkpt lat="36.3294070" lon="127.4082810">
    <ele>58.7</ele>
    <time>2026-08-18T04:15:24Z</time>
   </trkpt>
   <trkpt lat="36.3294130" lon="127.4082830">
    <ele>58.7</ele>
    <time>2026-08-18T04:15:25Z</time>
   </trkpt>
   <trkpt lat="36.3294110" lon="127.4082700">
    <ele>58.6</ele>
    <time>2026-08-18T04:15:26Z</time>
   </trkpt>
   <trkpt lat="36.3294110" lon="127.4082630">
    <ele>58.6</ele>
    <time>2026-08-18T04:15:27Z</time>
   </trkpt>
   <trkpt lat="36.3294120" lon="127.4082550">
    <ele>58.5</ele>
    <time>2026-08-18T04:15:28Z</time>
   </trkpt>
   <trkpt lat="36.3294150" lon="127.4082560">
    <ele>58.5</ele>
    <time>2026-08-18T04:15:29Z</time>
   </trkpt>
   <trkpt lat="36.3294100" lon="127.4082420">
    <ele>58.4</ele>
    <time>2026-08-18T04:15:30Z</time>
   </trkpt>
   <trkpt lat="36.3294040" lon="127.4082350">
    <ele>58.4</ele>
    <time>2026-08-18T04:15:31Z</time>
   </trkpt>
   <trkpt lat="36.3293970" lon="127.4082250">
    <ele>58.3</ele>
    <time>2026-08-18T04:15:32Z</time>
   </trkpt>
   <trkpt lat="36.3293890" lon="127.4082140">
    <ele>58.2</ele>
    <time>2026-08-18T04:15:33Z</time>
   </trkpt>
   <trkpt lat="36.3293870" lon="127.4082050">
    <ele>58.2</ele>
    <time>2026-08-18T04:15:34Z</time>
   </trkpt>
   <trkpt lat="36.3293770" lon="127.4081970">
    <ele>58.1</ele>
    <time>2026-08-18T04:15:35Z</time>
   </trkpt>
   <trkpt lat="36.3293770" lon="127.4081970">
    <ele>58.1</ele>
    <time>2026-08-18T04:15:36Z</time>
   </trkpt>
   <trkpt lat="36.3293710" lon="127.4081780">
    <ele>58.0</ele>
    <time>2026-08-18T04:15:37Z</time>
   </trkpt>
   <trkpt lat="36.3293640" lon="127.4081680">
    <ele>58.0</ele>
    <time>2026-08-18T04:15:38Z</time>
   </trkpt>
   <trkpt lat="36.3293550" lon="127.4081600">
    <ele>57.9</ele>
    <time>2026-08-18T04:15:39Z</time>
   </trkpt>
   <trkpt lat="36.3293490" lon="127.4081450">
    <ele>57.8</ele>
    <time>2026-08-18T04:15:40Z</time>
   </trkpt>
   <trkpt lat="36.3293490" lon="127.4081290">
    <ele>57.7</ele>
    <time>2026-08-18T04:15:41Z</time>
   </trkpt>
   <trkpt lat="36.3293410" lon="127.4081200">
    <ele>57.7</ele>
    <time>2026-08-18T04:15:42Z</time>
   </trkpt>
   <trkpt lat="36.3293370" lon="127.4081180">
    <ele>57.6</ele>
    <time>2026-08-18T04:15:43Z</time>
   </trkpt>
   <trkpt lat="36.3293300" lon="127.4081080">
    <ele>57.6</ele>
    <time>2026-08-18T04:15:44Z</time>
   </trkpt>
   <trkpt lat="36.3293280" lon="127.4080990">
    <ele>57.5</ele>
    <time>2026-08-18T04:15:45Z</time>
   </trkpt>
   <trkpt lat="36.3293250" lon="127.4080890">
    <ele>57.5</ele>
    <time>2026-08-18T04:15:46Z</time>
   </trkpt>
   <trkpt lat="36.3293190" lon="127.4080790">
    <ele>57.4</ele>
    <time>2026-08-18T04:15:47Z</time>
   </trkpt>
   <trkpt lat="36.3293190" lon="127.4080680">
    <ele>57.4</ele>
    <time>2026-08-18T04:15:48Z</time>
   </trkpt>
   <trkpt lat="36.3293160" lon="127.4080600">
    <ele>57.3</ele>
    <time>2026-08-18T04:15:49Z</time>
   </trkpt>
   <trkpt lat="36.3293130" lon="127.4080490">
    <ele>57.3</ele>
    <time>2026-08-18T04:15:50Z</time>
   </trkpt>
   <trkpt lat="36.3293050" lon="127.4080380">
    <ele>57.2</ele>
    <time>2026-08-18T04:15:51Z</time>
   </trkpt>
   <trkpt lat="36.3293040" lon="127.4080290">
    <ele>57.2</ele>
    <time>2026-08-18T04:15:52Z</time>
   </trkpt>
   <trkpt lat="36.3293000" lon="127.4080220">
    <ele>57.1</ele>
    <time>2026-08-18T04:15:53Z</time>
   </trkpt>
   <trkpt lat="36.3292960" lon="127.4080190">
    <ele>57.1</ele>
    <time>2026-08-18T04:15:54Z</time>
   </trkpt>
   <trkpt lat="36.3292890" lon="127.4080140">
    <ele>57.1</ele>
    <time>2026-08-18T04:15:55Z</time>
   </trkpt>
   <trkpt lat="36.3292830" lon="127.4080050">
    <ele>57.0</ele>
    <time>2026-08-18T04:15:56Z</time>
   </trkpt>
   <trkpt lat="36.3292820" lon="127.4080090">
    <ele>57.0</ele>
    <time>2026-08-18T04:15:57Z</time>
   </trkpt>
   <trkpt lat="36.3292770" lon="127.4079980">
    <ele>56.9</ele>
    <time>2026-08-18T04:15:58Z</time>
   </trkpt>
   <trkpt lat="36.3292770" lon="127.4079930">
    <ele>56.9</ele>
    <time>2026-08-18T04:15:59Z</time>
   </trkpt>
   <trkpt lat="36.3292740" lon="127.4079850">
    <ele>56.9</ele>
    <time>2026-08-18T04:16:00Z</time>
   </trkpt>
   <trkpt lat="36.3292670" lon="127.4079750">
    <ele>56.8</ele>
    <time>2026-08-18T04:16:01Z</time>
   </trkpt>
   <trkpt lat="36.3292620" lon="127.4079650">
    <ele>56.7</ele>
    <time>2026-08-18T04:16:02Z</time>
   </trkpt>
   <trkpt lat="36.3292510" lon="127.4079550">
    <ele>56.7</ele>
    <time>2026-08-18T04:16:03Z</time>
   </trkpt>
   <trkpt lat="36.3292490" lon="127.4079440">
    <ele>56.6</ele>
    <time>2026-08-18T04:16:04Z</time>
   </trkpt>
   <trkpt lat="36.3292650" lon="127.4079470">
    <ele>56.5</ele>
    <time>2026-08-18T04:16:05Z</time>
   </trkpt>
   <trkpt lat="36.3292630" lon="127.4079400">
    <ele>56.5</ele>
    <time>2026-08-18T04:16:06Z</time>
   </trkpt>
   <trkpt lat="36.3292550" lon="127.4079270">
    <ele>56.4</ele>
    <time>2026-08-18T04:16:07Z</time>
   </trkpt>
   <trkpt lat="36.3292490" lon="127.4079180">
    <ele>56.3</ele>
    <time>2026-08-18T04:16:08Z</time>
   </trkpt>
   <trkpt lat="36.3292440" lon="127.4078990">
    <ele>56.2</ele>
    <time>2026-08-18T04:16:09Z</time>
   </trkpt>
   <trkpt lat="36.3292370" lon="127.4078880">
    <ele>56.2</ele>
    <time>2026-08-18T04:16:10Z</time>
   </trkpt>
   <trkpt lat="36.3292280" lon="127.4078800">
    <ele>56.1</ele>
    <time>2026-08-18T04:16:11Z</time>
   </trkpt>
   <trkpt lat="36.3292180" lon="127.4078620">
    <ele>56.0</ele>
    <time>2026-08-18T04:16:12Z</time>
   </trkpt>
   <trkpt lat="36.3292110" lon="127.4078500">
    <ele>55.9</ele>
    <time>2026-08-18T04:16:13Z</time>
   </trkpt>
   <trkpt lat="36.3292050" lon="127.4078420">
    <ele>55.9</ele>
    <time>2026-08-18T04:16:14Z</time>
   </trkpt>
   <trkpt lat="36.3291990" lon="127.4078340">
    <ele>55.9</ele>
    <time>2026-08-18T04:16:15Z</time>
   </trkpt>
   <trkpt lat="36.3291940" lon="127.4078280">
    <ele>55.8</ele>
    <time>2026-08-18T04:16:16Z</time>
   </trkpt>
   <trkpt lat="36.3291890" lon="127.4078140">
    <ele>55.8</ele>
    <time>2026-08-18T04:16:17Z</time>
   </trkpt>
   <trkpt lat="36.3291820" lon="127.4078040">
    <ele>55.7</ele>
    <time>2026-08-18T04:16:18Z</time>
   </trkpt>
   <trkpt lat="36.3291760" lon="127.4078050">
    <ele>55.7</ele>
    <time>2026-08-18T04:16:19Z</time>
   </trkpt>
   <trkpt lat="36.3291730" lon="127.4077980">
    <ele>55.6</ele>
    <time>2026-08-18T04:16:20Z</time>
   </trkpt>
   <trkpt lat="36.3291730" lon="127.4077910">
    <ele>55.6</ele>
    <time>2026-08-18T04:16:21Z</time>
   </trkpt>
   <trkpt lat="36.3291620" lon="127.4077690">
    <ele>55.5</ele>
    <time>2026-08-18T04:16:22Z</time>
   </trkpt>
   <trkpt lat="36.3291480" lon="127.4077390">
    <ele>55.3</ele>
    <time>2026-08-18T04:16:23Z</time>
   </trkpt>
   <trkpt lat="36.3291500" lon="127.4077310">
    <ele>55.3</ele>
    <time>2026-08-18T04:16:24Z</time>
   </trkpt>
   <trkpt lat="36.3291530" lon="127.4077220">
    <ele>55.3</ele>
    <time>2026-08-18T04:16:25Z</time>
   </trkpt>
   <trkpt lat="36.3291580" lon="127.4077150">
    <ele>55.2</ele>
    <time>2026-08-18T04:16:26Z</time>
   </trkpt>
   <trkpt lat="36.3291500" lon="127.4077020">
    <ele>55.2</ele>
    <time>2026-08-18T04:16:27Z</time>
   </trkpt>
   <trkpt lat="36.3291370" lon="127.4076880">
    <ele>55.1</ele>
    <time>2026-08-18T04:16:28Z</time>
   </trkpt>
   <trkpt lat="36.3291310" lon="127.4076770">
    <ele>55.0</ele>
    <time>2026-08-18T04:16:29Z</time>
   </trkpt>
   <trkpt lat="36.3291270" lon="127.4076670">
    <ele>55.0</ele>
    <time>2026-08-18T04:16:30Z</time>
   </trkpt>
   <trkpt lat="36.3291180" lon="127.4076590">
    <ele>54.9</ele>
    <time>2026-08-18T04:16:31Z</time>
   </trkpt>
   <trkpt lat="36.3291100" lon="127.4076490">
    <ele>54.8</ele>
    <time>2026-08-18T04:16:32Z</time>
   </trkpt>
   <trkpt lat="36.3291090" lon="127.4076440">
    <ele>54.8</ele>
    <time>2026-08-18T04:16:33Z</time>
   </trkpt>
   <trkpt lat="36.3291050" lon="127.4076400">
    <ele>54.8</ele>
    <time>2026-08-18T04:16:34Z</time>
   </trkpt>
   <trkpt lat="36.3290950" lon="127.4076280">
    <ele>54.7</ele>
    <time>2026-08-18T04:16:35Z</time>
   </trkpt>
   <trkpt lat="36.3290920" lon="127.4076210">
    <ele>54.7</ele>
    <time>2026-08-18T04:16:36Z</time>
   </trkpt>
   <trkpt lat="36.3290920" lon="127.4076170">
    <ele>54.7</ele>
    <time>2026-08-18T04:16:37Z</time>
   </trkpt>
   <trkpt lat="36.3290900" lon="127.4076100">
    <ele>54.6</ele>
    <time>2026-08-18T04:16:38Z</time>
   </trkpt>
   <trkpt lat="36.3290900" lon="127.4076010">
    <ele>54.6</ele>
    <time>2026-08-18T04:16:39Z</time>
   </trkpt>
   <trkpt lat="36.3290900" lon="127.4075910">
    <ele>54.6</ele>
    <time>2026-08-18T04:16:40Z</time>
   </trkpt>
   <trkpt lat="36.3290870" lon="127.4075780">
    <ele>54.5</ele>
    <time>2026-08-18T04:16:41Z</time>
   </trkpt>
   <trkpt lat="36.3290910" lon="127.4075720">
    <ele>54.5</ele>
    <time>2026-08-18T04:16:42Z</time>
   </trkpt>
   <trkpt lat="36.3290930" lon="127.4075610">
    <ele>54.4</ele>
    <time>2026-08-18T04:16:43Z</time>
   </trkpt>
   <trkpt lat="36.3290910" lon="127.4075570">
    <ele>54.4</ele>
    <time>2026-08-18T04:16:44Z</time>
   </trkpt>
   <trkpt lat="36.3290870" lon="127.4075440">
    <ele>54.3</ele>
    <time>2026-08-18T04:16:45Z</time>
   </trkpt>
   <trkpt lat="36.3290870" lon="127.4075360">
    <ele>54.3</ele>
    <time>2026-08-18T04:16:46Z</time>
   </trkpt>
   <trkpt lat="36.3290820" lon="127.4075200">
    <ele>54.2</ele>
    <time>2026-08-18T04:16:47Z</time>
   </trkpt>
   <trkpt lat="36.3290810" lon="127.4075070">
    <ele>54.2</ele>
    <time>2026-08-18T04:16:48Z</time>
   </trkpt>
   <trkpt lat="36.3290800" lon="127.4074970">
    <ele>54.1</ele>
    <time>2026-08-18T04:16:49Z</time>
   </trkpt>
   <trkpt lat="36.3290800" lon="127.4074850">
    <ele>54.1</ele>
    <time>2026-08-18T04:16:50Z</time>
   </trkpt>
   <trkpt lat="36.3290770" lon="127.4074790">
    <ele>54.0</ele>
    <time>2026-08-18T04:16:51Z</time>
   </trkpt>
   <trkpt lat="36.3290760" lon="127.4074640">
    <ele>54.0</ele>
    <time>2026-08-18T04:16:52Z</time>
   </trkpt>
   <trkpt lat="36.3290750" lon="127.4074530">
    <ele>53.9</ele>
    <time>2026-08-18T04:16:53Z</time>
   </trkpt>
   <trkpt lat="36.3290750" lon="127.4074430">
    <ele>53.9</ele>
    <time>2026-08-18T04:16:54Z</time>
   </trkpt>
   <trkpt lat="36.3290740" lon="127.4074210">
    <ele>53.8</ele>
    <time>2026-08-18T04:16:55Z</time>
   </trkpt>
   <trkpt lat="36.3290700" lon="127.4074030">
    <ele>53.7</ele>
    <time>2026-08-18T04:16:56Z</time>
   </trkpt>
   <trkpt lat="36.3290710" lon="127.4073690">
    <ele>53.6</ele>
    <time>2026-08-18T04:16:57Z</time>
   </trkpt>
   <trkpt lat="36.3290730" lon="127.4073660">
    <ele>53.5</ele>
    <time>2026-08-18T04:16:58Z</time>
   </trkpt>
   <trkpt lat="36.3290690" lon="127.4073580">
    <ele>53.5</ele>
    <time>2026-08-18T04:16:59Z</time>
   </trkpt>
   <trkpt lat="36.3290720" lon="127.4073500">
    <ele>53.5</ele>
    <time>2026-08-18T04:17:00Z</time>
   </trkpt>
   <trkpt lat="36.3290720" lon="127.4073410">
    <ele>53.5</ele>
    <time>2026-08-18T04:17:01Z</time>
   </trkpt>
   <trkpt lat="36.3290730" lon="127.4073220">
    <ele>53.4</ele>
    <time>2026-08-18T04:17:02Z</time>
   </trkpt>
   <trkpt lat="36.3290690" lon="127.4073080">
    <ele>53.4</ele>
    <time>2026-08-18T04:17:03Z</time>
   </trkpt>
   <trkpt lat="36.3290570" lon="127.4073000">
    <ele>53.4</ele>
    <time>2026-08-18T04:17:04Z</time>
   </trkpt>
   <trkpt lat="36.3290530" lon="127.4072920">
    <ele>53.3</ele>
    <time>2026-08-18T04:17:05Z</time>
   </trkpt>
   <trkpt lat="36.3290520" lon="127.4072880">
    <ele>53.3</ele>
    <time>2026-08-18T04:17:06Z</time>
   </trkpt>
   <trkpt lat="36.3290510" lon="127.4072770">
    <ele>53.3</ele>
    <time>2026-08-18T04:17:07Z</time>
   </trkpt>
   <trkpt lat="36.3290500" lon="127.4072680">
    <ele>53.3</ele>
    <time>2026-08-18T04:17:08Z</time>
   </trkpt>
   <trkpt lat="36.3290450" lon="127.4072560">
    <ele>53.3</ele>
    <time>2026-08-18T04:17:09Z</time>
   </trkpt>
   <trkpt lat="36.3290410" lon="127.4072420">
    <ele>53.2</ele>
    <time>2026-08-18T04:17:10Z</time>
   </trkpt>
   <trkpt lat="36.3290400" lon="127.4072310">
    <ele>53.2</ele>
    <time>2026-08-18T04:17:11Z</time>
   </trkpt>
   <trkpt lat="36.3290400" lon="127.4072190">
    <ele>53.2</ele>
    <time>2026-08-18T04:17:12Z</time>
   </trkpt>
   <trkpt lat="36.3290400" lon="127.4072130">
    <ele>53.2</ele>
    <time>2026-08-18T04:17:13Z</time>
   </trkpt>
   <trkpt lat="36.3290250" lon="127.4072020">
    <ele>53.1</ele>
    <time>2026-08-18T04:17:14Z</time>
   </trkpt>
   <trkpt lat="36.3290130" lon="127.4071870">
    <ele>53.1</ele>
    <time>2026-08-18T04:17:15Z</time>
   </trkpt>
   <trkpt lat="36.3290050" lon="127.4071780">
    <ele>53.0</ele>
    <time>2026-08-18T04:17:16Z</time>
   </trkpt>
   <trkpt lat="36.3290040" lon="127.4071720">
    <ele>53.0</ele>
    <time>2026-08-18T04:17:17Z</time>
   </trkpt>
   <trkpt lat="36.3289980" lon="127.4071680">
    <ele>53.0</ele>
    <time>2026-08-18T04:17:18Z</time>
   </trkpt>
   <trkpt lat="36.3289990" lon="127.4071540">
    <ele>52.9</ele>
    <time>2026-08-18T04:17:19Z</time>
   </trkpt>
   <trkpt lat="36.3290000" lon="127.4071380">
    <ele>52.9</ele>
    <time>2026-08-18T04:17:20Z</time>
   </trkpt>
   <trkpt lat="36.3289950" lon="127.4071310">
    <ele>52.9</ele>
    <time>2026-08-18T04:17:21Z</time>
   </trkpt>
   <trkpt lat="36.3289930" lon="127.4071200">
    <ele>52.9</ele>
    <time>2026-08-18T04:17:22Z</time>
   </trkpt>
   <trkpt lat="36.3289870" lon="127.4071020">
    <ele>52.8</ele>
    <time>2026-08-18T04:17:23Z</time>
   </trkpt>
   <trkpt lat="36.3289860" lon="127.4070920">
    <ele>52.8</ele>
    <time>2026-08-18T04:17:24Z</time>
   </trkpt>
   <trkpt lat="36.3289850" lon="127.4070720">
    <ele>52.7</ele>
    <time>2026-08-18T04:17:25Z</time>
   </trkpt>
   <trkpt lat="36.3289770" lon="127.4070600">
    <ele>52.7</ele>
    <time>2026-08-18T04:17:26Z</time>
   </trkpt>
   <trkpt lat="36.3289780" lon="127.4070620">
    <ele>52.7</ele>
    <time>2026-08-18T04:17:27Z</time>
   </trkpt>
   <trkpt lat="36.3289710" lon="127.4070510">
    <ele>52.6</ele>
    <time>2026-08-18T04:17:28Z</time>
   </trkpt>
   <trkpt lat="36.3289710" lon="127.4070510">
    <ele>52.6</ele>
    <time>2026-08-18T04:17:29Z</time>
   </trkpt>
   <trkpt lat="36.3289710" lon="127.4070380">
    <ele>52.6</ele>
    <time>2026-08-18T04:17:30Z</time>
   </trkpt>
   <trkpt lat="36.3289770" lon="127.4070290">
    <ele>52.6</ele>
    <time>2026-08-18T04:17:31Z</time>
   </trkpt>
   <trkpt lat="36.3289800" lon="127.4070200">
    <ele>52.6</ele>
    <time>2026-08-18T04:17:32Z</time>
   </trkpt>
   <trkpt lat="36.3289840" lon="127.4070100">
    <ele>52.5</ele>
    <time>2026-08-18T04:17:33Z</time>
   </trkpt>
   <trkpt lat="36.3289790" lon="127.4069920">
    <ele>52.5</ele>
    <time>2026-08-18T04:17:34Z</time>
   </trkpt>
   <trkpt lat="36.3289810" lon="127.4069770">
    <ele>52.4</ele>
    <time>2026-08-18T04:17:35Z</time>
   </trkpt>
   <trkpt lat="36.3289770" lon="127.4069690">
    <ele>52.4</ele>
    <time>2026-08-18T04:17:36Z</time>
   </trkpt>
   <trkpt lat="36.3289640" lon="127.4069430">
    <ele>52.3</ele>
    <time>2026-08-18T04:17:37Z</time>
   </trkpt>
   <trkpt lat="36.3289510" lon="127.4069110">
    <ele>52.2</ele>
    <time>2026-08-18T04:17:38Z</time>
   </trkpt>
   <trkpt lat="36.3289560" lon="127.4069380">
    <ele>52.2</ele>
    <time>2026-08-18T04:17:39Z</time>
   </trkpt>
   <trkpt lat="36.3289440" lon="127.4069240">
    <ele>52.1</ele>
    <time>2026-08-18T04:17:40Z</time>
   </trkpt>
   <trkpt lat="36.3289400" lon="127.4069010">
    <ele>52.1</ele>
    <time>2026-08-18T04:17:41Z</time>
   </trkpt>
   <trkpt lat="36.3289360" lon="127.4068730">
    <ele>52.0</ele>
    <time>2026-08-18T04:17:42Z</time>
   </trkpt>
   <trkpt lat="36.3289370" lon="127.4068690">
    <ele>52.0</ele>
    <time>2026-08-18T04:17:43Z</time>
   </trkpt>
   <trkpt lat="36.3289380" lon="127.4068440">
    <ele>52.0</ele>
    <time>2026-08-18T04:17:44Z</time>
   </trkpt>
   <trkpt lat="36.3289400" lon="127.4068340">
    <ele>51.9</ele>
    <time>2026-08-18T04:17:45Z</time>
   </trkpt>
   <trkpt lat="36.3289450" lon="127.4068250">
    <ele>51.9</ele>
    <time>2026-08-18T04:17:46Z</time>
   </trkpt>
   <trkpt lat="36.3289440" lon="127.4068340">
    <ele>51.9</ele>
    <time>2026-08-18T04:17:47Z</time>
   </trkpt>
   <trkpt lat="36.3289410" lon="127.4068280">
    <ele>51.9</ele>
    <time>2026-08-18T04:17:48Z</time>
   </trkpt>
   <trkpt lat="36.3289410" lon="127.4068100">
    <ele>51.8</ele>
    <time>2026-08-18T04:17:49Z</time>
   </trkpt>
   <trkpt lat="36.3289380" lon="127.4068000">
    <ele>51.8</ele>
    <time>2026-08-18T04:17:50Z</time>
   </trkpt>
   <trkpt lat="36.3289340" lon="127.4067900">
    <ele>51.8</ele>
    <time>2026-08-18T04:17:51Z</time>
   </trkpt>
   <trkpt lat="36.3289360" lon="127.4067770">
    <ele>51.8</ele>
    <time>2026-08-18T04:17:52Z</time>
   </trkpt>
   <trkpt lat="36.3289370" lon="127.4067530">
    <ele>51.7</ele>
    <time>2026-08-18T04:17:53Z</time>
   </trkpt>
   <trkpt lat="36.3289390" lon="127.4067470">
    <ele>51.7</ele>
    <time>2026-08-18T04:17:54Z</time>
   </trkpt>
   <trkpt lat="36.3289360" lon="127.4067420">
    <ele>51.7</ele>
    <time>2026-08-18T04:17:55Z</time>
   </trkpt>
   <trkpt lat="36.3289370" lon="127.4067330">
    <ele>51.7</ele>
    <time>2026-08-18T04:17:56Z</time>
   </trkpt>
   <trkpt lat="36.3289390" lon="127.4067160">
    <ele>51.7</ele>
    <time>2026-08-18T04:17:57Z</time>
   </trkpt>
   <trkpt lat="36.3289410" lon="127.4067170">
    <ele>51.7</ele>
    <time>2026-08-18T04:17:58Z</time>
   </trkpt>
   <trkpt lat="36.3289370" lon="127.4067040">
    <ele>51.6</ele>
    <time>2026-08-18T04:17:59Z</time>
   </trkpt>
   <trkpt lat="36.3289440" lon="127.4066990">
    <ele>51.6</ele>
    <time>2026-08-18T04:18:00Z</time>
   </trkpt>
   <trkpt lat="36.3289400" lon="127.4066890">
    <ele>51.6</ele>
    <time>2026-08-18T04:18:01Z</time>
   </trkpt>
   <trkpt lat="36.3289360" lon="127.4066770">
    <ele>51.6</ele>
    <time>2026-08-18T04:18:02Z</time>
   </trkpt>
   <trkpt lat="36.3289350" lon="127.4066520">
    <ele>51.5</ele>
    <time>2026-08-18T04:18:03Z</time>
   </trkpt>
   <trkpt lat="36.3289330" lon="127.4066380">
    <ele>51.5</ele>
    <time>2026-08-18T04:18:04Z</time>
   </trkpt>
   <trkpt lat="36.3289180" lon="127.4065930">
    <ele>51.4</ele>
    <time>2026-08-18T04:18:05Z</time>
   </trkpt>
  </trkseg>
 </trk>
</gpx>
