<?xml version="1.0" encoding="UTF-8"?>
<gpx creator="StravaGPX" version="1.1" xmlns="http://www.topografix.com/GPX/1/1" xmlns:xsi="http://www.w3.org/2001/XMLSchema-instance" xsi:schemaLocation="http://www.topografix.com/GPX/1/1 http://www.topografix.com/GPX/1/1/gpx.xsd">
 <metadata>
  <time>2026-08-18T04:41:24Z</time>
 </metadata>
 <trk>
  <name>홍민기_완만한내리막_8</name>
  <type>walking</type>
  <trkseg>
   <trkpt lat="36.3319090" lon="127.4104140">
    <ele>61.5</ele>
    <time>2026-08-18T04:41:24Z</time>
   </trkpt>
   <trkpt lat="36.3319090" lon="127.4104140">
    <ele>61.5</ele>
    <time>2026-08-18T04:41:25Z</time>
   </trkpt>
   <trkpt lat="36.3319040" lon="127.4104000">
    <ele>61.5</ele>
    <time>2026-08-18T04:41:26Z</time>
   </trkpt>
   <trkpt lat="36.3319060" lon="127.4104240">
    <ele>61.5</ele>
    <time>2026-08-18T04:41:27Z</time>
   </trkpt>
   <trkpt lat="36.3319170" lon="127.4104300">
    <ele>61.5</ele>
    <time>2026-08-18T04:41:28Z</time>
   </trkpt>
   <trkpt lat="36.3319410" lon="127.4104340">
    <ele>61.5</ele>
    <time>2026-08-18T04:41:29Z</time>
   </trkpt>
   <trkpt lat="36.3319580" lon="127.4104780">
    <ele>61.4</ele>
    <time>2026-08-18T04:41:30Z</time>
   </trkpt>
   <trkpt lat="36.3319640" lon="127.4104870">
    <ele>61.4</ele>
    <time>2026-08-18T04:41:31Z</time>
   </trkpt>
   <trkpt lat="36.3319690" lon="127.4104790">
    <ele>61.4</ele>
    <time>2026-08-18T04:41:32Z</time>
   </trkpt>
   <trkpt lat="36.3319710" lon="127.4104800">
    <ele>61.4</ele>
    <time>2026-08-18T04:41:33Z</time>
   </trkpt>
   <trkpt lat="36.3319750" lon="127.4104850">
    <ele>61.4</ele>
    <time>2026-08-18T04:41:34Z</time>
   </trkpt>
   <trkpt lat="36.3319940" lon="127.4104970">
    <ele>61.4</ele>
    <time>2026-08-18T04:41:35Z</time>
   </trkpt>
   <trkpt lat="36.3319940" lon="127.4104970">
    <ele>61.4</ele>
    <time>2026-08-18T04:41:36Z</time>
   </trkpt>
   <trkpt lat="36.3319940" lon="127.4104970">
    <ele>61.4</ele>
    <time>2026-08-18T04:41:37Z</time>
   </trkpt>
   <trkpt lat="36.3319940" lon="127.4104970">
    <ele>61.4</ele>
    <time>2026-08-18T04:41:38Z</time>
   </trkpt>
   <trkpt lat="36.3320210" lon="127.4105130">
    <ele>61.3</ele>
    <time>2026-08-18T04:41:39Z</time>
   </trkpt>
   <trkpt lat="36.3320210" lon="127.4105130">
    <ele>61.3</ele>
    <time>2026-08-18T04:41:40Z</time>
   </trkpt>
   <trkpt lat="36.3320210" lon="127.4105130">
    <ele>61.3</ele>
    <time>2026-08-18T04:41:41Z</time>
   </trkpt>
   <trkpt lat="36.3320510" lon="127.4105310">
    <ele>61.3</ele>
    <time>2026-08-18T04:41:42Z</time>
   </trkpt>
   <trkpt lat="36.3320870" lon="127.4105510">
    <ele>61.2</ele>
    <time>2026-08-18T04:41:43Z</time>
   </trkpt>
   <trkpt lat="36.3321220" lon="127.4105720">
    <ele>61.2</ele>
    <time>2026-08-18T04:41:44Z</time>
   </trkpt>
   <trkpt lat="36.3321660" lon="127.4105830">
    <ele>61.1</ele>
    <time>2026-08-18T04:41:45Z</time>
   </trkpt>
   <trkpt lat="36.3321370" lon="127.4105740">
    <ele>61.0</ele>
    <time>2026-08-18T04:41:46Z</time>
   </trkpt>
   <trkpt lat="36.3321350" lon="127.4105900">
    <ele>61.0</ele>
    <time>2026-08-18T04:41:47Z</time>
   </trkpt>
   <trkpt lat="36.3321410" lon="127.4106150">
    <ele>61.0</ele>
    <time>2026-08-18T04:41:48Z</time>
   </trkpt>
   <trkpt lat="36.3321180" lon="127.4106400">
    <ele>60.9</ele>
    <time>2026-08-18T04:41:49Z</time>
   </trkpt>
   <trkpt lat="36.3321130" lon="127.4106350">
    <ele>60.9</ele>
    <time>2026-08-18T04:41:50Z</time>
   </trkpt>
   <trkpt lat="36.3321030" lon="127.4106170">
    <ele>60.9</ele>
    <time>2026-08-18T04:41:51Z</time>
   </trkpt>
   <trkpt lat="36.3320940" lon="127.4106120">
    <ele>60.9</ele>
    <time>2026-08-18T04:41:52Z</time>
   </trkpt>
   <trkpt lat="36.3320910" lon="127.4106200">
    <ele>60.9</ele>
    <time>2026-08-18T04:41:53Z</time>
   </trkpt>
   <trkpt lat="36.3321150" lon="127.4106340">
    <ele>60.8</ele>
    <time>2026-08-18T04:41:54Z</time>
   </trkpt>
   <trkpt lat="36.3321210" lon="127.4106660">
    <ele>60.8</ele>
    <time>2026-08-18T04:41:55Z</time>
   </trkpt>
   <trkpt lat="36.3321190" lon="127.4106950">
    <ele>60.8</ele>
    <time>2026-08-18T04:41:56Z</time>
   </trkpt>
   <trkpt lat="36.3321370" lon="127.4106970">
    <ele>60.7</ele>
    <time>2026-08-18T04:41:57Z</time>
   </trkpt>
   <trkpt lat="36.3321490" lon="127.4106980">
    <ele>60.7</ele>
    <time>2026-08-18T04:41:58Z</time>
   </trkpt>
   <trkpt lat="36.3321610" lon="127.4107020">
    <ele>60.7</ele>
    <time>2026-08-18T04:41:59Z</time>
   </trkpt>
   <trkpt lat="36.3321720" lon="127.4107110">
    <ele>60.7</ele>
    <time>2026-08-18T04:42:00Z</time>
   </trkpt>
   <trkpt lat="36.3321870" lon="127.4107080">
    <ele>60.7</ele>
    <time>2026-08-18T04:42:01Z</time>
   </trkpt>
   <trkpt lat="36.3322000" lon="127.4107090">
    <ele>60.6</ele>
    <time>2026-08-18T04:42:02Z</time>
   </trkpt>
   <trkpt lat="36.3322040" lon="127.4107210">
    <ele>60.6</ele>
    <time>2026-08-18T04:42:03Z</time>
   </trkpt>
   <trkpt lat="36.3322110" lon="127.4107280">
    <ele>60.6</ele>
    <time>2026-08-18T04:42:04Z</time>
   </trkpt>
   <trkpt lat="36.3322210" lon="127.4107410">
    <ele>60.6</ele>
    <time>2026-08-18T04:42:05Z</time>
   </trkpt>
   <trkpt lat="36.3322240" lon="127.4107640">
    <ele>60.6</ele>
    <time>2026-08-18T04:42:06Z</time>
   </trkpt>
   <trkpt lat="36.3322290" lon="127.4107730">
    <ele>60.5</ele>
    <time>2026-08-18T04:42:07Z</time>
   </trkpt>
   <trkpt lat="36.3322460" lon="127.4107620">
    <ele>60.5</ele>
    <time>2026-08-18T04:42:08Z</time>
   </trkpt>
   <trkpt lat="36.3322550" lon="127.4107650">
    <ele>60.5</ele>
    <time>2026-08-18T04:42:09Z</time>
   </trkpt>
   <trkpt lat="36.3322660" lon="127.4107810">
    <ele>60.5</ele>
    <time>2026-08-18T04:42:10Z</time>
   </trkpt>
   <trkpt lat="36.3322750" lon="127.4107860">
    <ele>60.5</ele>
    <time>2026-08-18T04:42:11Z</time>
   </trkpt>
   <trkpt lat="36.3322800" lon="127.4107920">
    <ele>60.5</ele>
    <time>2026-08-18T04:42:12Z</time>
   </trkpt>
   <trkpt lat="36.3322900" lon="127.4108030">
    <ele>60.4</ele>
    <time>2026-08-18T04:42:13Z</time>
   </trkpt>
   <trkpt lat="36.3322940" lon="127.4108050">
    <ele>60.4</ele>
    <time>2026-08-18T04:42:14Z</time>
   </trkpt>
   <trkpt lat="36.3323010" lon="127.4108180">
    <ele>60.4</ele>
    <time>2026-08-18T04:42:15Z</time>
   </trkpt>
   <trkpt lat="36.3323070" lon="127.4108160">
    <ele>60.4</ele>
    <time>2026-08-18T04:42:16Z</time>
   </trkpt>
   <trkpt lat="36.3323260" lon="127.4108220">
    <ele>60.4</ele>
    <time>2026-08-18T04:42:17Z</time>
   </trkpt>
   <trkpt lat="36.3323440" lon="127.4108300">
    <ele>60.3</ele>
    <time>2026-08-18T04:42:18Z</time>
   </trkpt>
   <trkpt lat="36.3323530" lon="127.4108350">
    <ele>60.3</ele>
    <time>2026-08-18T04:42:19Z</time>
   </trkpt>
   <trkpt lat="36.3323680" lon="127.4108460">
    <ele>60.3</ele>
    <time>2026-08-18T04:42:20Z</time>
   </trkpt>
   <trkpt lat="36.3323680" lon="127.4108490">
    <ele>60.3</ele>
    <time>2026-08-18T04:42:21Z</time>
   </trkpt>
   <trkpt lat="36.3323760" lon="127.4108590">
    <ele>60.3</ele>
    <time>2026-08-18T04:42:22Z</time>
   </trkpt>
   <trkpt lat="36.3323840" lon="127.4108620">
    <ele>60.3</ele>
    <time>2026-08-18T04:42:23Z</time>
   </trkpt>
   <trkpt lat="36.3323880" lon="127.4108820">
    <ele>60.3</ele>
    <time>2026-08-18T04:42:24Z</time>
   </trkpt>
   <trkpt lat="36.3323960" lon="127.4108910">
    <ele>60.2</ele>
    <time>2026-08-18T04:42:25Z</time>
   </trkpt>
   <trkpt lat="36.3324030" lon="127.4108990">
    <ele>60.2</ele>
    <time>2026-08-18T04:42:26Z</time>
   </trkpt>
   <trkpt lat="36.3324040" lon="127.4109070">
    <ele>60.2</ele>
    <time>2026-08-18T04:42:27Z</time>
   </trkpt>
   <trkpt lat="36.3324150" lon="127.4109130">
    <ele>60.2</ele>
    <time>2026-08-18T04:42:28Z</time>
   </trkpt>
   <trkpt lat="36.3324230" lon="127.4109190">
    <ele>60.2</ele>
    <time>2026-08-18T04:42:29Z</time>
   </trkpt>
   <trkpt lat="36.3324410" lon="127.4109430">
    <ele>60.1</ele>
    <time>2026-08-18T04:42:30Z</time>
   </trkpt>
   <trkpt lat="36.3324460" lon="127.4109530">
    <ele>60.1</ele>
    <time>2026-08-18T04:42:31Z</time>
   </trkpt>
   <trkpt lat="36.3324530" lon="127.4109460">
    <ele>60.1</ele>
    <time>2026-08-18T04:42:32Z</time>
   </trkpt>
   <trkpt lat="36.3324660" lon="127.4109470">
    <ele>60.1</ele>
    <time>2026-08-18T04:42:33Z</time>
   </trkpt>
   <trkpt lat="36.3324790" lon="127.4109430">
    <ele>60.1</ele>
    <time>2026-08-18T04:42:34Z</time>
   </trkpt>
   <trkpt lat="36.3324870" lon="127.4109570">
    <ele>60.1</ele>
    <time>2026-08-18T04:42:35Z</time>
   </trkpt>
   <trkpt lat="36.3324900" lon="127.4109590">
    <ele>60.0</ele>
    <time>2026-08-18T04:42:36Z</time>
   </trkpt>
   <trkpt lat="36.3324990" lon="127.4109560">
    <ele>60.0</ele>
    <time>2026-08-18T04:42:37Z</time>
   </trkpt>
   <trkpt lat="36.3325060" lon="127.4109610">
    <ele>60.0</ele>
    <time>2026-08-18T04:42:38Z</time>
   </trkpt>
   <trkpt lat="36.3325180" lon="127.4109680">
    <ele>60.0</ele>
    <time>2026-08-18T04:42:39Z</time>
   </trkpt>
   <trkpt lat="36.3325150" lon="127.4109980">
    <ele>60.0</ele>
    <time>2026-08-18T04:42:40Z</time>
   </trkpt>
   <trkpt lat="36.3325300" lon="127.4110120">
    <ele>59.9</ele>
    <time>2026-08-18T04:42:41Z</time>
   </trkpt>
   <trkpt lat="36.3325400" lon="127.4110150">
    <ele>59.9</ele>
    <time>2026-08-18T04:42:42Z</time>
   </trkpt>
   <trkpt lat="36.3325430" lon="127.4110210">
    <ele>59.9</ele>
    <time>2026-08-18T04:42:43Z</time>
   </trkpt>
   <trkpt lat="36.3325550" lon="127.4110300">
    <ele>59.9</ele>
    <time>2026-08-18T04:42:44Z</time>
   </trkpt>
   <trkpt lat="36.3325560" lon="127.4110270">
    <ele>59.9</ele>
    <time>2026-08-18T04:42:45Z</time>
   </trkpt>
   <trkpt lat="36.3325600" lon="127.4110250">
    <ele>59.9</ele>
    <time>2026-08-18T04:42:46Z</time>
   </trkpt>
   <trkpt lat="36.3325640" lon="127.4110380">
    <ele>59.8</ele>
    <time>2026-08-18T04:42:47Z</time>
   </trkpt>
   <trkpt lat="36.3325710" lon="127.4110440">
    <ele>59.8</ele>
    <time>2026-08-18T04:42:48Z</time>
   </trkpt>
   <trkpt lat="36.3325780" lon="127.4110550">
    <ele>59.8</ele>
    <time>2026-08-18T04:42:49Z</time>
   </trkpt>
   <trkpt lat="36.3326090" lon="127.4110700">
    <ele>59.8</ele>
    <time>2026-08-18T04:42:50Z</time>
   </trkpt>
   <trkpt lat="36.3326320" lon="127.4110990">
    <ele>59.7</ele>
    <time>2026-08-18T04:42:51Z</time>
   </trkpt>
   <trkpt lat="36.3326190" lon="127.4110910">
    <ele>59.7</ele>
    <time>2026-08-18T04:42:52Z</time>
   </trkpt>
   <trkpt lat="36.3326290" lon="127.4110990">
    <ele>59.7</ele>
    <time>2026-08-18T04:42:53Z</time>
   </trkpt>
   <trkpt lat="36.3326400" lon="127.4111100">
    <ele>59.6</ele>
    <time>2026-08-18T04:42:54Z</time>
   </trkpt>
   <trkpt lat="36.3326470" lon="127.4111140">
    <ele>59.6</ele>
    <time>2026-08-18T04:42:55Z</time>
   </trkpt>
   <trkpt lat="36.3326540" lon="127.4111070">
    <ele>59.6</ele>
    <time>2026-08-18T04:42:56Z</time>
   </trkpt>
   <trkpt lat="36.3326640" lon="127.4111080">
    <ele>59.6</ele>
    <time>2026-08-18T04:42:57Z</time>
   </trkpt>
   <trkpt lat="36.3326780" lon="127.4111090">
    <ele>59.6</ele>
    <time>2026-08-18T04:42:58Z</time>
   </trkpt>
   <trkpt lat="36.3326790" lon="127.4111180">
    <ele>59.6</ele>
    <time>2026-08-18T04:42:59Z</time>
   </trkpt>
   <trkpt lat="36.3326910" lon="127.4111280">
    <ele>59.5</ele>
    <time>2026-08-18T04:43:00Z</time>
   </trkpt>
   <trkpt lat="36.3326860" lon="127.4111370">
    <ele>59.5</ele>
    <time>2026-08-18T04:43:01Z</time>
   </trkpt>
   <trkpt lat="36.3326890" lon="127.4111440">
    <ele>59.5</ele>
    <time>2026-08-18T04:43:02Z</time>
   </trkpt>
   <trkpt lat="36.3326840" lon="127.4111380">
    <ele>59.5</ele>
    <time>2026-08-18T04:43:04Z</time>
   </trkpt>
   <trkpt lat="36.3327070" lon="127.4111560">
    <ele>59.4</ele>
    <time>2026-08-18T04:43:05Z</time>
   </trkpt>
   <trkpt lat="36.3327230" lon="127.4111780">
    <ele>59.4</ele>
    <time>2026-08-18T04:43:06Z</time>
   </trkpt>
   <trkpt lat="36.3327280" lon="127.4111890">
    <ele>59.4</ele>
    <time>2026-08-18T04:43:07Z</time>
   </trkpt>
   <trkpt lat="36.3327330" lon="127.4111950">
    <ele>59.4</ele>
    <time>2026-08-18T04:43:08Z</time>
   </trkpt>
   <trkpt lat="36.3327370" lon="127.4112030">
    <ele>59.3</ele>
    <time>2026-08-18T04:43:09Z</time>
   </trkpt>
   <trkpt lat="36.3327450" lon="127.4112090">
    <ele>59.3</ele>
    <time>2026-08-18T04:43:10Z</time>
   </trkpt>
   <trkpt lat="36.3327490" lon="127.4112230">
    <ele>59.3</ele>
    <time>2026-08-18T04:43:11Z</time>
   </trkpt>
   <trkpt lat="36.3327590" lon="127.4112290">
    <ele>59.3</ele>
    <time>2026-08-18T04:43:12Z</time>
   </trkpt>
   <trkpt lat="36.3327660" lon="127.4112240">
    <ele>59.3</ele>
    <time>2026-08-18T04:43:13Z</time>
   </trkpt>
   <trkpt lat="36.3327780" lon="127.4112220">
    <ele>59.2</ele>
    <time>2026-08-18T04:43:14Z</time>
   </trkpt>
   <trkpt lat="36.3327940" lon="127.4112330">
    <ele>59.2</ele>
    <time>2026-08-18T04:43:15Z</time>
   </trkpt>
   <trkpt lat="36.3328130" lon="127.4112600">
    <ele>59.1</ele>
    <time>2026-08-18T04:43:16Z</time>
   </trkpt>
   <trkpt lat="36.3328230" lon="127.4112730">
    <ele>59.1</ele>
    <time>2026-08-18T04:43:17Z</time>
   </trkpt>
   <trkpt lat="36.3328320" lon="127.4112830">
    <ele>59.1</ele>
    <time>2026-08-18T04:43:18Z</time>
   </trkpt>
   <trkpt lat="36.3328300" lon="127.4112860">
    <ele>59.1</ele>
    <time>2026-08-18T04:43:19Z</time>
   </trkpt>
   <trkpt lat="36.3328380" lon="127.4112860">
    <ele>59.1</ele>
    <time>2026-08-18T04:43:20Z</time>
   </trkpt>
   <trkpt lat="36.3328470" lon="127.4113040">
    <ele>59.0</ele>
    <time>2026-08-18T04:43:21Z</time>
   </trkpt>
   <trkpt lat="36.3328530" lon="127.4113040">
    <ele>59.0</ele>
    <time>2026-08-18T04:43:22Z</time>
   </trkpt>
   <trkpt lat="36.3328560" lon="127.4113090">
    <ele>59.0</ele>
    <time>2026-08-18T04:43:23Z</time>
   </trkpt>
   <trkpt lat="36.3328640" lon="127.4113140">
    <ele>59.0</ele>
    <time>2026-08-18T04:43:24Z</time>
   </trkpt>
   <trkpt lat="36.3328670" lon="127.4113100">
    <ele>59.0</ele>
    <time>2026-08-18T04:43:25Z</time>
   </trkpt>
   <trkpt lat="36.3328830" lon="127.4113190">
    <ele>58.9</ele>
    <time>2026-08-18T04:43:26Z</time>
   </trkpt>
   <trkpt lat="36.3328830" lon="127.4113310">
    <ele>58.9</ele>
    <time>2026-08-18T04:43:27Z</time>
   </trkpt>
   <trkpt lat="36.3328790" lon="127.4113320">
    <ele>58.9</ele>
    <time>2026-08-18T04:43:28Z</time>
   </trkpt>
   <trkpt lat="36.3328830" lon="127.4113470">
    <ele>58.9</ele>
    <time>2026-08-18T04:43:29Z</time>
   </trkpt>
   <trkpt lat="36.3328860" lon="127.4113620">
    <ele>58.8</ele>
    <time>2026-08-18T04:43:30Z</time>
   </trkpt>
   <trkpt lat="36.3328910" lon="127.4113820">
    <ele>58.8</ele>
    <time>2026-08-18T04:43:31Z</time>
   </trkpt>
   <trkpt lat="36.3329090" lon="127.4113860">
    <ele>58.8</ele>
    <time>2026-08-18T04:43:32Z</time>
   </trkpt>
   <trkpt lat="36.3329090" lon="127.4113890">
    <ele>58.8</ele>
    <time>2026-08-18T04:43:33Z</time>
   </trkpt>
   <trkpt lat="36.3329130" lon="127.4114180">
    <ele>58.7</ele>
    <time>2026-08-18T04:43:34Z</time>
   </trkpt>
   <trkpt lat="36.3329240" lon="127.4114230">
    <ele>58.7</ele>
    <time>2026-08-18T04:43:35Z</time>
   </trkpt>
   <trkpt lat="36.3329320" lon="127.4114110">
    <ele>58.7</ele>
    <time>2026-08-18T04:43:36Z</time>
   </trkpt>
   <trkpt lat="36.3329430" lon="127.4113670">
    <ele>58.6</ele>
    <time>2026-08-18T04:43:37Z</time>
   </trkpt>
   <trkpt lat="36.3329400" lon="127.4113510">
    <ele>58.6</ele>
    <time>2026-08-18T04:43:38Z</time>
   </trkpt>
   <trkpt lat="36.3329670" lon="127.4113720">
    <ele>58.6</ele>
    <time>2026-08-18T04:43:39Z</time>
   </trkpt>
   <trkpt lat="36.3329710" lon="127.4113920">
    <ele>58.5</ele>
    <time>2026-08-18T04:43:40Z</time>
   </trkpt>
   <trkpt lat="36.3329770" lon="127.4114160">
    <ele>58.5</ele>
    <time>2026-08-18T04:43:41Z</time>
   </trkpt>
   <trkpt lat="36.3329920" lon="127.4114320">
    <ele>58.5</ele>
    <time>2026-08-18T04:43:42Z</time>
   </trkpt>
   <trkpt lat="36.3330010" lon="127.4114420">
    <ele>58.4</ele>
    <time>2026-08-18T04:43:43Z</time>
   </trkpt>
   <trkpt lat="36.3330110" lon="127.4114510">
    <ele>58.4</ele>
    <time>2026-08-18T04:43:44Z</time>
   </trkpt>
   <trkpt lat="36.3330200" lon="127.4114610">
    <ele>58.4</ele>
    <time>2026-08-18T04:43:45Z</time>
   </trkpt>
   <trkpt lat="36.3330200" lon="127.4114610">
    <ele>58.4</ele>
    <time>2026-08-18T04:43:46Z</time>
   </trkpt>
   <trkpt lat="36.3330410" lon="127.4114820">
    <ele>58.4</ele>
    <time>2026-08-18T04:43:47Z</time>
   </trkpt>
   <trkpt lat="36.3330670" lon="127.4115090">
    <ele>58.3</ele>
    <time>2026-08-18T04:43:48Z</time>
   </trkpt>
   <trkpt lat="36.3330930" lon="127.4115350">
    <ele>58.2</ele>
    <time>2026-08-18T04:43:49Z</time>
   </trkpt>
   <trkpt lat="36.3331020" lon="127.4115140">
    <ele>58.2</ele>
    <time>2026-08-18T04:43:50Z</time>
   </trkpt>
   <trkpt lat="36.3331390" lon="127.4115260">
    <ele>58.1</ele>
    <time>2026-08-18T04:43:51Z</time>
   </trkpt>
   <trkpt lat="36.3331360" lon="127.4115300">
    <ele>58.1</ele>
    <time>2026-08-18T04:43:52Z</time>
   </trkpt>
   <trkpt lat="36.3331450" lon="127.4115440">
    <ele>58.1</ele>
    <time>2026-08-18T04:43:53Z</time>
   </trkpt>
   <trkpt lat="36.3331400" lon="127.4115460">
    <ele>58.1</ele>
    <time>2026-08-18T04:43:54Z</time>
   </trkpt>
   <trkpt lat="36.3331370" lon="127.4115350">
    <ele>58.1</ele>
    <time>2026-08-18T04:43:55Z</time>
   </trkpt>
   <trkpt lat="36.3331440" lon="127.4115460">
    <ele>58.1</ele>
    <time>2026-08-18T04:43:56Z</time>
   </trkpt>
   <trkpt lat="36.3331520" lon="127.4115520">
    <ele>58.0</ele>
    <time>2026-08-18T04:43:57Z</time>
   </trkpt>
   <trkpt lat="36.3331570" lon="127.4115560">
    <ele>58.0</ele>
    <time>2026-08-18T04:43:58Z</time>
   </trkpt>
   <trkpt lat="36.3331690" lon="127.4115700">
    <ele>58.0</ele>
    <time>2026-08-18T04:43:59Z</time>
   </trkpt>
   <trkpt lat="36.3331520" lon="127.4115610">
    <ele>58.0</ele>
    <time>2026-08-18T04:44:00Z</time>
   </trkpt>
   <trkpt lat="36.3331430" lon="127.4115590">
    <ele>57.9</ele>
    <time>2026-08-18T04:44:01Z</time>
   </trkpt>
   <trkpt lat="36.3331650" lon="127.4115850">
    <ele>57.9</ele>
    <time>2026-08-18T04:44:02Z</time>
   </trkpt>
   <trkpt lat="36.3331700" lon="127.4115960">
    <ele>57.9</ele>
    <time>2026-08-18T04:44:03Z</time>
   </trkpt>
   <trkpt lat="36.3331660" lon="127.4115970">
    <ele>57.9</ele>
    <time>2026-08-18T04:44:04Z</time>
   </trkpt>
   <trkpt lat="36.3331700" lon="127.4115980">
    <ele>57.9</ele>
    <time>2026-08-18T04:44:05Z</time>
   </trkpt>
   <trkpt lat="36.3331850" lon="127.4116020">
    <ele>57.8</ele>
    <time>2026-08-18T04:44:06Z</time>
   </trkpt>
   <trkpt lat="36.3332020" lon="127.4116170">
    <ele>57.8</ele>
    <time>2026-08-18T04:44:07Z</time>
   </trkpt>
   <trkpt lat="36.3332050" lon="127.4116550">
    <ele>57.7</ele>
    <time>2026-08-18T04:44:08Z</time>
   </trkpt>
   <trkpt lat="36.3332080" lon="127.4116920">
    <ele>57.7</ele>
    <time>2026-08-18T04:44:09Z</time>
   </trkpt>
   <trkpt lat="36.3332150" lon="127.4116940">
    <ele>57.7</ele>
    <time>2026-08-18T04:44:10Z</time>
   </trkpt>
   <trkpt lat="36.3332210" lon="127.4117010">
    <ele>57.6</ele>
    <time>2026-08-18T04:44:11Z</time>
   </trkpt>
   <trkpt lat="36.3332290" lon="127.4117060">
    <ele>57.6</ele>
    <time>2026-08-18T04:44:12Z</time>
   </trkpt>
   <trkpt lat="36.3332380" lon="127.4117170">
    <ele>57.6</ele>
    <time>2026-08-18T04:44:13Z</time>
   </trkpt>
   <trkpt lat="36.3332400" lon="127.4117270">
    <ele>57.6</ele>
    <time>2026-08-18T04:44:14Z</time>
   </trkpt>
   <trkpt lat="36.3332440" lon="127.4117340">
    <ele>57.6</ele>
    <time>2026-08-18T04:44:15Z</time>
   </trkpt>
   <trkpt lat="36.3332530" lon="127.4117400">
    <ele>57.6</ele>
    <time>2026-08-18T04:44:16Z</time>
   </trkpt>
   <trkpt lat="36.3332710" lon="127.4117750">
    <ele>57.5</ele>
    <time>2026-08-18T04:44:17Z</time>
   </trkpt>
   <trkpt lat="36.3332900" lon="127.4117590">
    <ele>57.5</ele>
    <time>2026-08-18T04:44:18Z</time>
   </trkpt>
   <trkpt lat="36.3333010" lon="127.4117670">
    <ele>57.4</ele>
    <time>2026-08-18T04:44:19Z</time>
   </trkpt>
   <trkpt lat="36.3333130" lon="127.4117750">
    <ele>57.4</ele>
    <time>2026-08-18T04:44:20Z</time>
   </trkpt>
   <trkpt lat="36.3333240" lon="127.4117680">
    <ele>57.4</ele>
    <time>2026-08-18T04:44:21Z</time>
   </trkpt>
   <trkpt lat="36.3333360" lon="127.4117760">
    <ele>57.4</ele>
    <time>2026-08-18T04:44:22Z</time>
   </trkpt>
   <trkpt lat="36.3333400" lon="127.4117900">
    <ele>57.3</ele>
    <time>2026-08-18T04:44:23Z</time>
   </trkpt>
   <trkpt lat="36.3333440" lon="127.4118020">
    <ele>57.3</ele>
    <time>2026-08-18T04:44:24Z</time>
   </trkpt>
   <trkpt lat="36.3333500" lon="127.4118060">
    <ele>57.3</ele>
    <time>2026-08-18T04:44:25Z</time>
   </trkpt>
   <trkpt lat="36.3333580" lon="127.4118130">
    <ele>57.3</ele>
    <time>2026-08-18T04:44:26Z</time>
   </trkpt>
   <trkpt lat="36.3333760" lon="127.4118380">
    <ele>57.2</ele>
    <time>2026-08-18T04:44:27Z</time>
   </trkpt>
   <trkpt lat="36.3333820" lon="127.4118620">
    <ele>57.1</ele>
    <time>2026-08-18T04:44:28Z</time>
   </trkpt>
   <trkpt lat="36.3333910" lon="127.4118680">
    <ele>57.1</ele>
    <time>2026-08-18T04:44:29Z</time>
   </trkpt>
   <trkpt lat="36.3333970" lon="127.4118680">
    <ele>57.1</ele>
    <time>2026-08-18T04:44:30Z</time>
   </trkpt>
   <trkpt lat="36.3333910" lon="127.4118620">
    <ele>57.1</ele>
    <time>2026-08-18T04:44:31Z</time>
   </trkpt>
   <trkpt lat="36.3334060" lon="127.4118800">
    <ele>57.0</ele>
    <time>2026-08-18T04:44:32Z</time>
   </trkpt>
   <trkpt lat="36.3334160" lon="127.4118740">
    <ele>57.0</ele>
    <time>2026-08-18T04:44:33Z</time>
   </trkpt>
   <trkpt lat="36.3334230" lon="127.4118930">
    <ele>57.0</ele>
    <time>2026-08-18T04:44:34Z</time>
   </trkpt>
   <trkpt lat="36.3334320" lon="127.4118980">
    <ele>56.9</ele>
    <time>2026-08-18T04:44:35Z</time>
   </trkpt>
   <trkpt lat="36.3334470" lon="127.4119060">
    <ele>56.9</ele>
    <time>2026-08-18T04:44:36Z</time>
   </trkpt>
   <trkpt lat="36.3334520" lon="127.4118980">
    <ele>56.9</ele>
    <time>2026-08-18T04:44:37Z</time>
   </trkpt>
   <trkpt lat="36.3334560" lon="127.4119050">
    <ele>56.9</ele>
    <time>2026-08-18T04:44:38Z</time>
   </trkpt>
   <trkpt lat="36.3334750" lon="127.4119060">
    <ele>56.8</ele>
    <time>2026-08-18T04:44:39Z</time>
   </trkpt>
   <trkpt lat="36.3334880" lon="127.4119050">
    <ele>56.8</ele>
    <time>2026-08-18T04:44:40Z</time>
   </trkpt>
   <trkpt lat="36.3335200" lon="127.4119060">
    <ele>56.7</ele>
    <time>2026-08-18T04:44:41Z</time>
   </trkpt>
   <trkpt lat="36.3335240" lon="127.4119120">
    <ele>56.7</ele>
    <time>2026-08-18T04:44:42Z</time>
   </trkpt>
   <trkpt lat="36.3335270" lon="127.4119160">
    <ele>56.7</ele>
    <time>2026-08-18T04:44:43Z</time>
   </trkpt>
   <trkpt lat="36.3335380" lon="127.4119340">
    <ele>56.7</ele>
    <time>2026-08-18T04:44:44Z</time>
   </trkpt>
   <trkpt lat="36.3335450" lon="127.4119360">
    <ele>56.6</ele>
    <time>2026-08-18T04:44:45Z</time>
   </trkpt>
   <trkpt lat="36.3335490" lon="127.4119450">
    <ele>56.6</ele>
    <time>2026-08-18T04:44:46Z</time>
   </trkpt>
   <trkpt lat="36.3335560" lon="127.4119510">
    <ele>56.6</ele>
    <time>2026-08-18T04:44:47Z</time>
   </trkpt>
   <trkpt lat="36.3335630" lon="127.4119470">
    <ele>56.6</ele>
    <time>2026-08-18T04:44:48Z</time>
   </trkpt>
   <trkpt lat="36.3335740" lon="127.4119560">
    <ele>56.6</ele>
    <time>2026-08-18T04:44:49Z</time>
   </trkpt>
   <trkpt lat="36.3335830" lon="127.4119730">
    <ele>56.5</ele>
    <time>2026-08-18T04:44:50Z</time>
   </trkpt>
   <trkpt lat="36.3335960" lon="127.4119880">
    <ele>56.5</ele>
    <time>2026-08-18T04:44:51Z</time>
   </trkpt>
   <trkpt lat="36.3336030" lon="127.4120070">
    <ele>56.5</ele>
    <time>2026-08-18T04:44:52Z</time>
   </trkpt>
   <trkpt lat="36.3336120" lon="127.4120190">
    <ele>56.5</ele>
    <time>2026-08-18T04:44:53Z</time>
   </trkpt>
   <trkpt lat="36.3336170" lon="127.4120190">
    <ele>56.4</ele>
    <time>2026-08-18T04:44:54Z</time>
   </trkpt>
   <trkpt lat="36.3336240" lon="127.4120280">
    <ele>56.4</ele>
    <time>2026-08-18T04:44:55Z</time>
   </trkpt>
   <trkpt lat="36.3336260" lon="127.4120380">
    <ele>56.4</ele>
    <time>2026-08-18T04:44:56Z</time>
   </trkpt>
   <trkpt lat="36.3336260" lon="127.4120490">
    <ele>56.4</ele>
    <time>2026-08-18T04:44:57Z</time>
   </trkpt>
   <trkpt lat="36.3336410" lon="127.4120580">
    <ele>56.4</ele>
    <time>2026-08-18T04:44:58Z</time>
   </trkpt>
   <trkpt lat="36.3336500" lon="127.4120640">
    <ele>56.4</ele>
    <time>2026-08-18T04:44:59Z</time>
   </trkpt>
   <trkpt lat="36.3336610" lon="127.4120630">
    <ele>56.4</ele>
    <time>2026-08-18T04:45:01Z</time>
   </trkpt>
   <trkpt lat="36.3336740" lon="127.4120770">
    <ele>56.3</ele>
    <time>2026-08-18T04:45:02Z</time>
   </trkpt>
   <trkpt lat="36.3336780" lon="127.4120870">
    <ele>56.3</ele>
    <time>2026-08-18T04:45:03Z</time>
   </trkpt>
   <trkpt lat="36.3336900" lon="127.4120970">
    <ele>56.3</ele>
    <time>2026-08-18T04:45:04Z</time>
   </trkpt>
   <trkpt lat="36.3336950" lon="127.4121020">
    <ele>56.3</ele>
    <time>2026-08-18T04:45:05Z</time>
   </trkpt>
   <trkpt lat="36.3337140" lon="127.4121060">
    <ele>56.3</ele>
    <time>2026-08-18T04:45:06Z</time>
   </trkpt>
   <trkpt lat="36.3337240" lon="127.4121130">
    <ele>56.2</ele>
    <time>2026-08-18T04:45:07Z</time>
   </trkpt>
   <trkpt lat="36.3337340" lon="127.4121260">
    <ele>56.2</ele>
    <time>2026-08-18T04:45:08Z</time>
   </trkpt>
   <trkpt lat="36.3337210" lon="127.4121300">
    <ele>56.2</ele>
    <time>2026-08-18T04:45:09Z</time>
   </trkpt>
   <trkpt lat="36.3337260" lon="127.4121340">
    <ele>56.2</ele>
    <time>2026-08-18T04:45:10Z</time>
   </trkpt>
   <trkpt lat="36.3337300" lon="127.4121530">
    <ele>56.2</ele>
    <time>2026-08-18T04:45:11Z</time>
   </trkpt>
   <trkpt lat="36.3337400" lon="127.4121510">
    <ele>56.2</ele>
    <time>2026-08-18T04:45:12Z</time>
   </trkpt>
   <trkpt lat="36.3337440" lon="127.4121610">
    <ele>56.1</ele>
    <time>2026-08-18T04:45:13Z</time>
   </trkpt>
   <trkpt lat="36.3337530" lon="127.4121640">
    <ele>56.1</ele>
    <time>2026-08-18T04:45:14Z</time>
   </trkpt>
   <trkpt lat="36.3337580" lon="127.4121710">
    <ele>56.1</ele>
    <time>2026-08-18T04:45:15Z</time>
   </trkpt>
   <trkpt lat="36.3337650" lon="127.4121760">
    <ele>56.1</ele>
    <time>2026-08-18T04:45:16Z</time>
   </trkpt>
   <trkpt lat="36.3337770" lon="127.4121830">
    <ele>56.1</ele>
    <time>2026-08-18T04:45:17Z</time>
   </trkpt>
   <trkpt lat="36.3337840" lon="127.4121900">
    <ele>56.1</ele>
    <time>2026-08-18T04:45:18Z</time>
   </trkpt>
   <trkpt lat="36.3337910" lon="127.4122000">
    <ele>56.1</ele>
    <time>2026-08-18T04:45:19Z</time>
   </trkpt>
   <trkpt lat="36.3337910" lon="127.4122160">
    <ele>56.0</ele>
    <time>2026-08-18T04:45:20Z</time>
   </trkpt>
   <trkpt lat="36.3337940" lon="127.4122270">
    <ele>56.0</ele>
    <time>2026-08-18T04:45:21Z</time>
   </trkpt>
   <trkpt lat="36.3338030" lon="127.4122350">
    <ele>56.0</ele>
    <time>2026-08-18T04:45:22Z</time>
   </trkpt>
   <trkpt lat="36.3337990" lon="127.4122540">
    <ele>56.0</ele>
    <time>2026-08-18T04:45:23Z</time>
   </trkpt>
   <trkpt lat="36.3337990" lon="127.4122810">
    <ele>55.9</ele>
    <time>2026-08-18T04:45:24Z</time>
   </trkpt>
   <trkpt lat="36.3338060" lon="127.4122870">
    <ele>55.9</ele>
    <time>2026-08-18T04:45:25Z</time>
   </trkpt>
   <trkpt lat="36.3338120" lon="127.4122940">
    <ele>55.9</ele>
    <time>2026-08-18T04:45:26Z</time>
   </trkpt>
   <trkpt lat="36.3338090" lon="127.4123020">
    <ele>55.9</ele>
    <time>2026-08-18T04:45:27Z</time>
   </trkpt>
   <trkpt lat="36.3338180" lon="127.4123380">
    <ele>55.9</ele>
    <time>2026-08-18T04:45:28Z</time>
   </trkpt>
   <trkpt lat="36.3338210" lon="127.4123490">
    <ele>55.9</ele>
    <time>2026-08-18T04:45:29Z</time>
   </trkpt>
   <trkpt lat="36.3338290" lon="127.4123600">
    <ele>55.8</ele>
    <time>2026-08-18T04:45:30Z</time>
   </trkpt>
   <trkpt lat="36.3338490" lon="127.4123540">
    <ele>55.8</ele>
    <time>2026-08-18T04:45:31Z</time>
   </trkpt>
   <trkpt lat="36.3338590" lon="127.4123450">
    <ele>55.8</ele>
    <time>2026-08-18T04:45:32Z</time>
   </trkpt>
   <trkpt lat="36.3338670" lon="127.4123420">
    <ele>55.8</ele>
    <time>2026-08-18T04:45:33Z</time>
   </trkpt>
   <trkpt lat="36.3338870" lon="127.4123520">
    <ele>55.7</ele>
    <time>2026-08-18T04:45:34Z</time>
   </trkpt>
   <trkpt lat="36.3338970" lon="127.4123610">
    <ele>55.7</ele>
    <time>2026-08-18T04:45:35Z</time>
   </trkpt>
   <trkpt lat="36.3338960" lon="127.4123550">
    <ele>55.7</ele>
    <time>2026-08-18T04:45:36Z</time>
   </trkpt>
   <trkpt lat="36.3338960" lon="127.4123630">
    <ele>55.7</ele>
    <time>2026-08-18T04:45:37Z</time>
   </trkpt>
   <trkpt lat="36.3338850" lon="127.4123920">
    <ele>55.7</ele>
    <time>2026-08-18T04:45:38Z</time>
   </trkpt>
   <trkpt lat="36.3338940" lon="127.4123800">
    <ele>55.7</ele>
    <time>2026-08-18T04:45:39Z</time>
   </trkpt>
   <trkpt lat="36.3339010" lon="127.4123920">
    <ele>55.7</ele>
    <time>2026-08-18T04:45:40Z</time>
   </trkpt>
   <trkpt lat="36.3339140" lon="127.4123930">
    <ele>55.6</ele>
    <time>2026-08-18T04:45:41Z</time>
   </trkpt>
   <trkpt lat="36.3339270" lon="127.4123950">
    <ele>55.6</ele>
    <time>2026-08-18T04:45:42Z</time>
   </trkpt>
   <trkpt lat="36.3339430" lon="127.4124090">
    <ele>55.6</ele>
    <time>2026-08-18T04:45:43Z</time>
   </trkpt>
   <trkpt lat="36.3339590" lon="127.4124190">
    <ele>55.6</ele>
    <time>2026-08-18T04:45:44Z</time>
   </trkpt>
   <trkpt lat="36.3339510" lon="127.4124190">
    <ele>55.6</ele>
    <time>2026-08-18T04:45:45Z</time>
   </trkpt>
   <trkpt lat="36.3339560" lon="127.4124260">
    <ele>55.6</ele>
    <time>2026-08-18T04:45:46Z</time>
   </trkpt>
   <trkpt lat="36.3339610" lon="127.4124290">
    <ele>55.6</ele>
    <time>2026-08-18T04:45:47Z</time>
   </trkpt>
   <trkpt lat="36.3339750" lon="127.4124380">
    <ele>55.5</ele>
    <time>2026-08-18T04:45:48Z</time>
   </trkpt>
   <trkpt lat="36.3339870" lon="127.4124360">
    <ele>55.5</ele>
    <time>2026-08-18T04:45:49Z</time>
   </trkpt>
   <trkpt lat="36.3339920" lon="127.4124320">
    <ele>55.5</ele>
    <time>2026-08-18T04:45:50Z</time>
   </trkpt>
   <trkpt lat="36.3340010" lon="127.4124330">
    <ele>55.5</ele>
    <time>2026-08-18T04:45:51Z</time>
   </trkpt>
   <trkpt lat="36.3340130" lon="127.4124430">
    <ele>55.5</ele>
    <time>2026-08-18T04:45:52Z</time>
   </trkpt>
   <trkpt lat="36.3340120" lon="127.4124540">
    <ele>55.5</ele>
    <time>2026-08-18T04:45:53Z</time>
   </trkpt>
   <trkpt lat="36.3340160" lon="127.4124630">
    <ele>55.5</ele>
    <time>2026-08-18T04:45:54Z</time>
   </trkpt>
   <trkpt lat="36.3340210" lon="127.4124680">
    <ele>55.5</ele>
    <time>2026-08-18T04:45:55Z</time>
   </trkpt>
   <trkpt lat="36.3340210" lon="127.4124670">
    <ele>55.5</ele>
    <time>2026-08-18T04:45:56Z</time>
   </trkpt>
   <trkpt lat="36.3340240" lon="127.4124700">
    <ele>55.5</ele>
    <time>2026-08-18T04:45:57Z</time>
   </trkpt>
  </trkseg>
 </trk>
</gpx>
